"STATION","DATE","REPORT_TYPE","SOURCE","AWND","BackupDirection","BackupDistance","BackupDistanceUnit","BackupElements","BackupElevation","BackupElevationUnit","BackupEquipment","BackupLatitude","BackupLongitude","BackupName","CDSD","CLDD","DSNW","DailyAverageDewPointTemperature","DailyAverageDryBulbTemperature","DailyAverageRelativeHumidity","DailyAverageSeaLevelPressure","DailyAverageStationPressure","DailyAverageWetBulbTemperature","DailyAverageWindSpeed","DailyCoolingDegreeDays","DailyDepartureFromNormalAverageTemperature","DailyHeatingDegreeDays","DailyMaximumDryBulbTemperature","DailyMinimumDryBulbTemperature","DailyPeakWindDirection","DailyPeakWindSpeed","DailyPrecipitation","DailySnowDepth","DailySnowfall","DailySustainedWindDirection","DailySustainedWindSpeed","DailyWeather","HDSD","HTDD","HeavyFog","HourlyAltimeterSetting","HourlyDewPointTemperature","HourlyDryBulbTemperature","HourlyPrecipitation","HourlyPresentWeatherType","HourlyPressureChange","HourlyPressureTendency","HourlyRelativeHumidity","HourlySeaLevelPressure","HourlySkyConditions","HourlyStationPressure","HourlyVisibility","HourlyWetBulbTemperature","HourlyWindDirection","HourlyWindGustSpeed","HourlyWindSpeed","MonthlyAverageRH","MonthlyDaysWithGT001Precip","MonthlyDaysWithGT010Precip","MonthlyDaysWithGT32Temp","MonthlyDaysWithGT90Temp","MonthlyDaysWithLT0Temp","MonthlyDaysWithLT32Temp","MonthlyDepartureFromNormalAverageTemperature","MonthlyDepartureFromNormalCoolingDegreeDays","MonthlyDepartureFromNormalHeatingDegreeDays","MonthlyDepartureFromNormalMaximumTemperature","MonthlyDepartureFromNormalMinimumTemperature","MonthlyDepartureFromNormalPrecipitation","MonthlyDewpointTemperature","MonthlyGreatestPrecip","MonthlyGreatestPrecipDate","MonthlyGreatestSnowDepth","MonthlyGreatestSnowDepthDate","MonthlyGreatestSnowfall","MonthlyGreatestSnowfallDate","MonthlyMaxSeaLevelPressureValue","MonthlyMaxSeaLevelPressureValueDate","MonthlyMaxSeaLevelPressureValueTime","MonthlyMaximumTemperature","MonthlyMeanTemperature","MonthlyMinSeaLevelPressureValue","MonthlyMinSeaLevelPressureValueDate","MonthlyMinSeaLevelPressureValueTime","MonthlyMinimumTemperature","MonthlySeaLevelPressure","MonthlyStationPressure","MonthlyTotalLiquidPrecipitation","MonthlyTotalSnowfall","MonthlyWetBulb","NormalsCoolingDegreeDay","NormalsHeatingDegreeDay","REM","REPORT_TYPE","SOURCE","ShortDurationEndDate005","ShortDurationEndDate010","ShortDurationEndDate015","ShortDurationEndDate020","ShortDurationEndDate030","ShortDurationEndDate045","ShortDurationEndDate060","ShortDurationEndDate080","ShortDurationEndDate100","ShortDurationEndDate120","ShortDurationEndDate150","ShortDurationEndDate180","ShortDurationPrecipitationValue005","ShortDurationPrecipitationValue010","ShortDurationPrecipitationValue015","ShortDurationPrecipitationValue020","ShortDurationPrecipitationValue030","ShortDurationPrecipitationValue045","ShortDurationPrecipitationValue060","ShortDurationPrecipitationValue080","ShortDurationPrecipitationValue100","ShortDurationPrecipitationValue120","ShortDurationPrecipitationValue150","ShortDurationPrecipitationValue180","Sunrise","Sunset","TStorms","WindEquipmentChangeDate"
"72243012960","2019-09-16T00:00:00","FM-12","4",,,,,,,,,,,,,,,,,,,,,,,,,,,,,,,,,,,,,,,"71","76",,,"-0.01","3","85","29.98",,"29.86","9.94","73","350",,"3",,,,,,,,,,,,,,,,,,,,,,,,,,,,,,,,,,,,,"SYN08072243 32966 43503 10244 20217 30112 40154 53002 90553 333 10300 20239 555 91606=","FM-12","4",,,,,,,,,,,,,,,,,,,,,,,,,,,,"2009-06-11"
"72243012960","2019-09-16T00:53:00","FM-15","7",,,,,,,,,,,,,,,,,,,,,,,,,,,,,,,,,,,,,,"29.99","71","76","0.00",,,,"85","29.99","FEW:02 120 FEW:02 250","29.88","10.00","73","000",,"0",,,,,,,,,,,,,,,,,,,,,,,,,,,,,,,,,,,,,"MET10709/16/19 00:53:02 METAR KIAH 160653Z 00000KT 10SM FEW120 FEW250 24/22 A2999 RMK AO2 SLP155 T02440217 $ (GA)","FM-15","7",,,,,,,,,,,,,,,,,,,,,,,,,,,,"2009-06-11"
"72243012960","2019-09-16T01:53:00","FM-15","7",,,,,,,,,,,,,,,,,,,,,,,,,,,,,,,,,,,,,,"29.99","71","76","0.00",,,,"85","29.98","SCT:04 120 SCT:04 250","29.88","10.00","73","000",,"0",,,,,,,,,,,,,,,,,,,,,,,,,,,,,,,,,,,,,"MET10709/16/19 01:53:02 METAR KIAH 160753Z 00000KT 10SM SCT120 SCT250 24/22 A2999 RMK AO2 SLP153 T02440217 $ (GA)","FM-15","7",,,,,,,,,,,,,,,,,,,,,,,,,,,,"2009-06-11"
"72243012960","2019-09-16T02:53:00","FM-15","7",,,,,,,,,,,,,,,,,,,,,,,,,,,,,,,,,,,,,,"29.98","71","75","0.00",,"+0.01","8","88","29.98","SCT:04 250","29.87","10.00","72","000",,"0",,,,,,,,,,,,,,,,,,,,,,,,,,,,,,,,,,,,,"MET10609/16/19 02:53:02 METAR KIAH 160853Z 00000KT 10SM SCT250 24/22 A2998 RMK AO2 SLP152 T02390217 58002 $ (GA)","FM-15","7",,,,,,,,,,,,,,,,,,,,,,,,,,,,"2009-06-11"
"72243012960","2019-09-16T03:53:00","FM-15","7",,,,,,,,,,,,,,,,,,,,,,,,,,,,,,,,,,,,,,"29.98","71","75","0.00",,,,"88","29.97","SCT:04 250","29.87","10.00","72","330",,"3",,,,,,,,,,,,,,,,,,,,,,,,,,,,,,,,,,,,,"MET10009/16/19 03:53:02 METAR KIAH 160953Z 33003KT 10SM SCT250 24/22 A2998 RMK AO2 SLP150 T02390217 $ (GA)","FM-15","7",,,,,,,,,,,,,,,,,,,,,,,,,,,,"2009-06-11"
"72243012960","2019-09-16T04:53:00","FM-15","7",,,,,,,,,,,,,,,,,,,,,,,,,,,,,,,,,,,,,,"29.98","71","76","0.00",,,,"85","29.98","FEW:02 250","29.87","10.00","73","350",,"3",,,,,,,,,,,,,,,,,,,,,,,,,,,,,,,,,,,,,"MET10009/16/19 04:53:02 METAR KIAH 161053Z 35003KT 10SM FEW250 24/22 A2998 RMK AO2 SLP151 T02440217 $ (GA)","FM-15","7",,,,,,,,,,,,,,,,,,,,,,,,,,,,"2009-06-11"
"72243012960","2019-09-16T05:53:00","FM-15","7",,,,,,,,,,,,,,,,,,,,,,,,,,,,,,,,,,,,,,"29.99","71","76","0.00",,"-0.00","3","85","29.98","FEW:02 250","29.88","10.00","73","000",,"0",,,,,,,,,,,,,,,,,,,,,,,,,,,,,,,,,,,,,"MET11809/16/19 05:53:02 METAR KIAH 161153Z 00000KT 10SM FEW250 24/22 A2999 RMK AO2 SLP152 T02440217 10256 20239 53000 $ (GA)","FM-15","7",,,,,,,,,,,,,,,,,,,,,,,,,,,,"2009-06-11"
"72243012960","2019-09-16T06:00:00","FM-12","4",,,,,,,,,,,,,,,,,,,,,,,,,,,,,,,,,,,,,,,"71","76",,,,,"85","29.98",,"29.86","9.94","73","000",,"0",,,,,,,,,,,,,,,,,,,,,,,,,,,,,,,,,,,,,"SYN08072243 32966 20000 10244 20217 30112 40152 53000 91153 333 10356 20239 555 91612=","FM-12","4",,,,,,,,,,,,,,,,,,,,,,,,,,,,"2009-06-11"
"72243012960","2019-09-16T06:53:00","FM-15","7",,,,,,,,,,,,,,,,,,,,,,,,,,,,,,,,,,,,,,"29.99","72","78","0.00",,,,"82","29.98","FEW:02 250","29.88","10.00","74","VRB",,"6",,,,,,,,,,,,,,,,,,,,,,,,,,,,,,,,,,,,,"MET09909/16/19 06:53:02 METAR KIAH 161253Z VRB05KT 10SM FEW250 26/22 A2999 RMK AO2 SLP154 T02560222 (JAG)","FM-15","7",,,,,,,,,,,,,,,,,,,,,,,,,,,,"2009-06-11"
"72243012960","2019-09-16T07:53:00","FM-15","7",,,,,,,,,,,,,,,,,,,,,,,,,,,,,,,,,,,,,,"30.00","73","82","0.00",,,,"74","29.99","FEW:02 250","29.89","10.00","76","020",,"8",,,,,,,,,,,,,,,,,,,,,,,,,,,,,,,,,,,,,"MET09909/16/19 07:53:02 METAR KIAH 161353Z 02007KT 10SM FEW250 28/23 A3000 RMK AO2 SLP157 T02780228 (JAG)","FM-15","7",,,,,,,,,,,,,,,,,,,,,,,,,,,,"2009-06-11"
"72243012960","2019-09-16T08:53:00","FM-15","7",,,,,,,,,,,,,,,,,,,,,,,,,,,,,,,,,,,,,,"30.01","73","87","0.00",,"-0.02","3","63","30.00","FEW:02 25 FEW:02 250","29.90","10.00","77","030",,"11",,,,,,,,,,,,,,,,,,,,,,,,,,,,,,,,,,,,,"MET11209/16/19 08:53:02 METAR KIAH 161453Z 03010KT 10SM FEW025 FEW250 31/23 A3001 RMK AO2 SLP159 T03060228 53007 (JAG)","FM-15","7",,,,,,,,,,,,,,,,,,,,,,,,,,,,"2009-06-11"
"72243012960","2019-09-16T09:53:00","FM-15","7",,,,,,,,,,,,,,,,,,,,,,,,,,,,,,,,,,,,,,"30.00","70","90","0.00",,,,"52","30.00","FEW:02 38 SCT:04 250","29.89","10.00","76","070","24","15",,,,,,,,,,,,,,,,,,,,,,,,,,,,,,,,,,,,,"MET10909/16/19 09:53:02 METAR KIAH 161553Z 07013G21KT 10SM FEW038 SCT250 32/21 A3000 RMK AO2 SLP158 T03220211 (JAG)","FM-15","7",,,,,,,,,,,,,,,,,,,,,,,,,,,,"2009-06-11"
"72243012960","2019-09-16T10:53:00","FM-15","7",,,,,,,,,,,,,,,,,,,,,,,,,,,,,,,,,,,,,,"29.99","69","91","0.00",,,,"49","29.98","SCT:04 44 BKN:07 250","29.88","10.00","76","070",,"16",,,,,,,,,,,,,,,,,,,,,,,,,,,,,,,,,,,,,"MET10609/16/19 10:53:02 METAR KIAH 161653Z 07014KT 10SM SCT044 BKN250 33/21 A2999 RMK AO2 SLP154 T03280206 (JAG)","FM-15","7",,,,,,,,,,,,,,,,,,,,,,,,,,,,"2009-06-11"
"72243012960","2019-09-16T11:53:00","FM-15","7",,,,,,,,,,,,,,,,,,,,,,,,,,,,,,,,,,,,,,"29.97","68","93","0.00",,"+0.03","8","44","29.97","SCT:04 48 SCT:04 75 BKN:07 250","29.86","10.00","76","070",,"14",,,,,,,,,,,,,,,,,,,,,,,,,,,,,,,,,,,,,"MET13109/16/19 11:53:02 METAR KIAH 161753Z 07012KT 10SM SCT048 SCT075 BKN250 34/20 A2997 RMK AO2 SLP148 T03390200 10339 20239 58011 (JAG)","FM-15","7",,,,,,,,,,,,,,,,,,,,,,,,,,,,"2009-06-11"
"72243012960","2019-09-16T12:00:00","FM-12","4",,,,,,,,,,,,,,,,,,,,,,,,,,,,,,,,,,,,,,,"68","93",,,"+0.03","8","44","29.97","41","29.84","9.94","76","070",,"14",,,,,,,,,,,,,,,,,,,,,,,,,,,,,,,,,,,,,"SYN08072243 32666 60712 10339 20200 30105 40148 58011 91753 333 10339 20239 555 91618=","FM-12","4",,,,,,,,,,,,,,,,,,,,,,,,,,,,"2009-06-11"
"72243012960","2019-09-16T12:53:00","FM-15","7",,,,,,,,,,,,,,,,,,,,,,,,,,,,,,,,,,,,,,"29.95","68","94","0.00",,,,"43","29.94","FEW:02 48 SCT:04 75 BKN:07 250","29.84","10.00","76","070","22","14",,,,,,,,,,,,,,,,,,,,,,,,,,,,,,,,,,,,,"MET13209/16/19 12:53:02 METAR KIAH 161853Z 07012G19KT 10SM FEW048 SCT075 BKN250 34/20 A2995 RMK AO2 SLP139 SHRA DSNT SE-SW T03440200 (JAG)","FM-15","7",,,,,,,,,,,,,,,,,,,,,,,,,,,,"2009-06-11"
"72243012960","2019-09-16T13:53:00","FM-15","7",,,,,,,,,,,,,,,,,,,,,,,,,,,,,,,,,,,,,,"29.91","71","91","0.00",,,,"52","29.91","SCT:04 55 SCT:04 75 BKN:07 100","29.80","10.00","77","150",,"14",,,,,,,,,,,,,,,,,,,,,,,,,,,,,,,,,,,,,"MET12809/16/19 13:53:02 METAR KIAH 161953Z 15012KT 10SM SCT055 SCT075 BKN100 33/22 A2991 RMK AO2 SLP128 SHRA DSNT S-SW T03280217 (JAG)","FM-15","7",,,,,,,,,,,,,,,,,,,,,,,,,,,,"2009-06-11"
"72243012960","2019-09-16T14:08:00","FM-16","7",,,,,,,,,,,,,,,,,,,,,,,,,,,,,,,,,,,,,,"29.90","71","92",,,,,"51",,"SCT:04 55 SCT:04 75 BKN:07 100","29.79","10.00","77","150",,"14",,,,,,,,,,,,,,,,,,,,,,,,,,,,,,,,,,,,,"MET14409/16/19 14:08:02 SPECI KIAH 162008Z 15012KT 10SM SCT055 SCT075 BKN100 33/22 A2990 RMK AO2 WSHFT 1944 LTG DSNT SE SHRA DSNT S-SW T03330217 (JAG)","FM-16","7",,,,,,,,,,,,,,,,,,,,,,,,,,,,"2009-06-11"
"72243012960","2019-09-16T14:53:00","FM-15","7",,,,,,,,,,,,,,,,,,,,,,,,,,,,,,,,,,,,,,"29.92","74","81","T","|RA |RA","+0.05","5","79","29.92","SCT:04 50 SCT:04 75 BKN:07 95","29.81","7.00","76","130","34","25",,,,,,,,,,,,,,,,,,,,,,,,,,,,,,,,,,,,,"MET17009/16/19 14:53:02 METAR KIAH 162053Z 13022G30KT 7SM RA SCT050 SCT075 BKN095 27/23 A2992 RMK AO2 PK WND 11030/2050 WSHFT 1944 RAB50 SLP131 P0000 60000 T02720233 55018 (MS)","FM-15","7",,,,,,,,,,,,,,,,,,,,,,,,,,,,"2009-06-11"
"72243012960","2019-09-16T15:53:00","FM-15","7",,,,,,,,,,,,,,,,,,,,,,,,,,,,,,,,,,,,,,"29.93","74","83","T",,,,"74","29.93","FEW:02 50 FEW:02 70 SCT:04 110","29.82","10.00","77","090","29","22",,,,,,,,,,,,,,,,,,,,,,,,,,,,,,,,,,,,,"MET12709/16/19 15:53:02 METAR KIAH 162153Z 09019G25KT 10SM FEW050 FEW070 SCT110 28/23 A2993 RMK AO2 RAE46 SLP135 P0000 T02830233 (MS)","FM-15","7",,,,,,,,,,,,,,,,,,,,,,,,,,,,"2009-06-11"
"72243012960","2019-09-16T16:53:00","FM-15","7",,,,,,,,,,,,,,,,,,,,,,,,,,,,,,,,,,,,,,"29.93","73","79","T","|RA |RA",,,"82","29.93","FEW:02 19 SCT:04 45 SCT:04 75","29.82","10.00","75","070","23","13",,,,,,,,,,,,,,,,,,,,,,,,,,,,,,,,,,,,,"MET13109/16/19 16:53:02 METAR KIAH 162253Z 07011G20KT 10SM -RA FEW019 SCT045 SCT075 26/23 A2993 RMK AO2 RAB27 SLP134 P0000 T02610228 (MS)","FM-15","7",,,,,,,,,,,,,,,,,,,,,,,,,,,,"2009-06-11"
"72243012960","2019-09-16T17:53:00","FM-15","7",,,,,,,,,,,,,,,,,,,,,,,,,,,,,,,,,,,,,,"29.92","72","79","T",,"+0.01","8","79","29.91","FEW:02 18 FEW:02 75 BKN:07 150","29.81","10.00","74","090",,"13",,,,,,,,,,,,,,,,,,,,,,,,,,,,,,,,,,,,,"MET14809/16/19 17:53:02 METAR KIAH 162353Z 09011KT 10SM FEW018 FEW075 BKN150 26/22 A2992 RMK AO2 RAE07 SLP130 P0000 60000 T02610222 10344 20261 58002 (MS)","FM-15","7",,,,,,,,,,,,,,,,,,,,,,,,,,,,"2009-06-11"
"72243012960","2019-09-16T18:00:00","FM-12","4",,,,,,,,,,,,,,,,,,,,,,,,,,,,,,,,,,,,,,,"72","79",,,"+0.01","8","79","29.91","15","29.79","9.94","74","090",,"13",,,,,,,,,,,,,,,,,,,,,,,,,,,,,,,,,,,,,"SYN08672243 12466 60911 10261 20222 30088 40130 58002 69901 92353 333 10344 20239 555 91700=","FM-12","4",,,,,,,,,,,,,,,,,,,,,,,,,,,,"2009-06-11"
"72243012960","2019-09-16T18:53:00","FM-15","7",,,,,,,,,,,,,,,,,,,,,,,,,,,,,,,,,,,,,,"29.92","71","78","0.00",,,,"79","29.92","FEW:02 17 FEW:02 75 SCT:04 150","29.81","10.00","73","090",,"13",,,,,,,,,,,,,,,,,,,,,,,,,,,,,,,,,,,,,"MET10709/16/19 18:53:01 METAR KIAH 170053Z 09011KT 10SM FEW017 FEW075 SCT150 26/22 A2992 RMK AO2 SLP133 T02560217","FM-15","7",,,,,,,,,,,,,,,,,,,,,,,,,,,,"2009-06-11"
"72243012960","2019-09-16T19:53:00","FM-15","7",,,,,,,,,,,,,,,,,,,,,,,,,,,,,,,,,,,,,,"29.93","72","77","0.00",,,,"85","29.93","FEW:02 20 FEW:02 70 BKN:07 250","29.82","10.00","74","100",,"10",,,,,,,,,,,,,,,,,,,,,,,,,,,,,,,,,,,,,"MET10709/16/19 19:53:01 METAR KIAH 170153Z 10009KT 10SM FEW020 FEW070 BKN250 25/22 A2993 RMK AO2 SLP136 T02500222","FM-15","7",,,,,,,,,,,,,,,,,,,,,,,,,,,,"2009-06-11"
"72243012960","2019-09-16T20:53:00","FM-15","7",,,,,,,,,,,,,,,,,,,,,,,,,,,,,,,,,,,,,,"29.94","73","77","0.00",,"-0.02","1","88","29.93","FEW:02 20 FEW:02 65 BKN:07 250","29.83","10.00","74","060",,"8",,,,,,,,,,,,,,,,,,,,,,,,,,,,,,,,,,,,,"MET11309/16/19 20:53:01 METAR KIAH 170253Z 06007KT 10SM FEW020 FEW065 BKN250 25/23 A2994 RMK AO2 SLP137 T02500228 51008","FM-15","7",,,,,,,,,,,,,,,,,,,,,,,,,,,,"2009-06-11"
"72243012960","2019-09-16T21:53:00","FM-15","7",,,,,,,,,,,,,,,,,,,,,,,,,,,,,,,,,,,,,,"29.94","73","78","0.00",,,,"85","29.93","FEW:02 20 BKN:07 250","29.83","10.00","75","030",,"7",,,,,,,,,,,,,,,,,,,,,,,,,,,,,,,,,,,,,"MET10209/16/19 21:53:01 METAR KIAH 170353Z 03006KT 10SM FEW020 BKN250 26/23 A2994 RMK AO2 SLP137 T02560228 $","FM-15","7",,,,,,,,,,,,,,,,,,,,,,,,,,,,"2009-06-11"
"72243012960","2019-09-16T22:53:00","FM-15","7",,,,,,,,,,,,,,,,,,,,,,,,,,,,,,,,,,,,,,"29.93","73","76","0.00",,,,"91","29.92","FEW:02 20 SCT:04 250","29.82","10.00","74","020",,"5",,,,,,,,,,,,,,,,,,,,,,,,,,,,,,,,,,,,,"MET10209/16/19 22:53:01 METAR KIAH 170453Z 02004KT 10SM FEW020 SCT250 24/23 A2993 RMK AO2 SLP133 T02440228 $","FM-15","7",,,,,,,,,,,,,,,,,,,,,,,,,,,,"2009-06-11"
"72243012960","2019-09-16T23:53:00","FM-15","7",,,,,,,,,,,,,,,,,,,,,,,,,,,,,,,,,,,,,,"29.92","73","75","0.00",,"+0.02","8","94","29.92","FEW:02 17 SCT:04 250","29.81","10.00","74","040",,"6",,,,,,,,,,,,,,,,,,,,,,,,,,,,,,,,,,,,,"MET13009/16/19 23:53:01 METAR KIAH 170553Z 04005KT 10SM FEW017 SCT250 24/23 A2992 RMK AO2 SLP131 T02390228 10261 20239 403440239 58006 $","FM-15","7",,,,,,,,,,,,,,,,,,,,,,,,,,,,"2009-06-11"
"72243012960","2019-09-16T23:59:00","SOD  ","6",,,,,,,,,,,,,,,,"85",,,"29.83",,"9.4","20","5.0","0","94","75","110","35","T","0","0.0","110","31","RA",,,,,,,,,,,,,,,,,,,,,,,,,,,,,,,,,,,,,,,,,,,,,,,,,,,,,,,,"SOD73924 HR PRECIPITATION (IN):    T SNOW DEPTH (IN):0     24 HR SNOWFALL (IN):0.0  24 HR MAX TEMP (F): 9424 HR MIN TEMP (F): 75AVERAGE STATION PRESSURE:29.830 MINIMUM SEA LEVEL PRESSURE:29.90 TIME OF OCCURRENCE:1441 PEAK WIND SPEED (MPH): 35 PEAK WIND DIR (DEG):110 PEAK WIND TIME (LST):      FASTEST 2MIN SPEED (MPH): 31FASTEST 2MIN DIR (DEG):110 FASTEST 2MIN TIME (LST):     AVERAGE WIND SPEED (MPH): 9.4 24 HR AVG TEMP (F): 85DEPART FROM NORMAL:  5  HEATING DEGREE DAYS:  0 COOLING DEGREE DAYS: 20 LATEST DAY MAX TEMP (0700-1900 LST):94  LATEST NIGHT MIN TEMP(1900-0800 LST):75 HOURLY INCREMENTAL PRECIPITATION VALUES (IN):.00 0.00 0.00 0.00 0.00 0.00 0.00 0.00 0.00 0.00 0.00 0.00 0.00 0.00 T    T    T    T    0.00 0.00 0.00 0.00 0.00 0.00","SOD  ","6",,,,,,,,,,,,,,,,,,,,,,,,,"0606","1826",,"2009-06-11"
"72259003927","2019-09-16T00:00:00","FM-12","4",,,,,,,,,,,,,,,,,,,,,,,,,,,,,,,,,,,,,,,"66","83",,,"-0.02","1","57","29.99",,"29.41","9.94","72","100",,"5",,,,,,,,,,,,,,,,,,,,,,,,,,,,,,,,,,,,,"SYN08072259 32966 01004 10283 20189 39958 40156 51006 90553 333 10333 20250 555 91606=","FM-12","4",,,,,,,,,,,,,,,,,,,,,,,,,,,,"2009-05-27"
"72259003927","2019-09-16T00:53:00","FM-15","7",,,,,,,,,,,,,,,,,,,,,,,,,,,,,,,,,,,,,,"30.03","67","82","0.00",,,,"60","29.99","CLR:00","29.39","10.00","72","120",,"3",,,,,,,,,,,,,,,,,,,,,,,,,,,,,,,,,,,,,"MET09509/16/19 00:53:02 METAR KDFW 160653Z 12003KT 10SM CLR 28/19 A3003 RMK AO2 SLP157 T02780194 (PO)","FM-15","7",,,,,,,,,,,,,,,,,,,,,,,,,,,,"2009-05-27"
"72259003927","2019-09-16T01:53:00","FM-15","7",,,,,,,,,,,,,,,,,,,,,,,,,,,,,,,,,,,,,,"30.02","67","81","0.00",,,,"62","29.99","CLR:00","29.38","10.00","72","090",,"5",,,,,,,,,,,,,,,,,,,,,,,,,,,,,,,,,,,,,"MET09509/16/19 01:53:02 METAR KDFW 160753Z 09004KT 10SM CLR 27/19 A3002 RMK AO2 SLP156 T02720194 (PO)","FM-15","7",,,,,,,,,,,,,,,,,,,,,,,,,,,,"2009-05-27"
"72259003927","2019-09-16T02:53:00","FM-15","7",,,,,,,,,,,,,,,,,,,,,,,,,,,,,,,,,,,,,,"30.02","67","80","0.00",,"+0.00","8","64","29.99","CLR:00","29.38","10.00","71","000",,"0",,,,,,,,,,,,,,,,,,,,,,,,,,,,,,,,,,,,,"MET10109/16/19 02:53:02 METAR KDFW 160853Z 00000KT 10SM CLR 27/19 A3002 RMK AO2 SLP155 T02670194 58001 (PO)","FM-15","7",,,,,,,,,,,,,,,,,,,,,,,,,,,,"2009-05-27"
"72259003927","2019-09-16T03:00:00","FM-12","4",,,,,,,,,,,,,,,,,,,,,,,,,,,,,,,,,,,,,,,"67","80",,,"+0.00","8","64","29.99",,"29.41","9.94","71","000",,"0",,,,,,,,,,,,,,,,,,,,,,,,,,,,,,,,,,,,,"SYN06472259 32966 00000 10267 20194 39958 40155 58001 90853 555 91609=","FM-12","4",,,,,,,,,,,,,,,,,,,,,,,,,,,,"2009-05-27"
"72259003927","2019-09-16T03:53:00","FM-15","7",,,,,,,,,,,,,,,,,,,,,,,,,,,,,,,,,,,,,,"30.02","67","79","0.00",,,,"67","29.98","CLR:00","29.38","10.00","71","000",,"0",,,,,,,,,,,,,,,,,,,,,,,,,,,,,,,,,,,,,"MET09509/16/19 03:53:02 METAR KDFW 160953Z 00000KT 10SM CLR 26/19 A3002 RMK AO2 SLP154 T02610194 (PO)","FM-15","7",,,,,,,,,,,,,,,,,,,,,,,,,,,,"2009-05-27"
"72259003927","2019-09-16T04:53:00","FM-15","7",,,,,,,,,,,,,,,,,,,,,,,,,,,,,,,,,,,,,,"30.02","66","79","0.00",,,,"65","29.99","CLR:00","29.38","10.00","70","000",,"0",,,,,,,,,,,,,,,,,,,,,,,,,,,,,,,,,,,,,"MET09509/16/19 04:53:02 METAR KDFW 161053Z 00000KT 10SM CLR 26/19 A3002 RMK AO2 SLP155 T02610189 (PO)","FM-15","7",,,,,,,,,,,,,,,,,,,,,,,,,,,,"2009-05-27"
"72259003927","2019-09-16T05:53:00","FM-15","7",,,,,,,,,,,,,,,,,,,,,,,,,,,,,,,,,,,,,,"30.03","67","78","0.00",,"-0.01","3","69","30.00","CLR:00","29.39","10.00","71","000",,"0",,,,,,,,,,,,,,,,,,,,,,,,,,,,,,,,,,,,,"MET11309/16/19 05:53:02 METAR KDFW 161153Z 00000KT 10SM CLR 26/19 A3003 RMK AO2 SLP159 T02560194 10283 20256 53002 (PO)","FM-15","7",,,,,,,,,,,,,,,,,,,,,,,,,,,,"2009-05-27"
"72259003927","2019-09-16T06:00:00","FM-12","4",,,,,,,,,,,,,,,,,,,,,,,,,,,,,,,,,,,,,,,"67","78",,,"-0.01","3","69","30.00",,"29.41","9.94","71","000",,"0",,,,,,,,,,,,,,,,,,,,,,,,,,,,,,,,,,,,,"SYN08072259 32966 00000 10256 20194 39961 40159 53002 91153 333 10367 20256 555 91612=","FM-12","4",,,,,,,,,,,,,,,,,,,,,,,,,,,,"2009-05-27"
"72259003927","2019-09-16T06:53:00","FM-15","7",,,,,,,,,,,,,,,,,,,,,,,,,,,,,,,,,,,,,,"30.04","67","78","0.00",,,,"69","30.01","FEW:02 300","29.40","10.00","71","080",,"3",,,,,,,,,,,,,,,,,,,,,,,,,,,,,,,,,,,,,"MET09809/16/19 06:53:02 METAR KDFW 161253Z 08003KT 10SM FEW300 26/19 A3004 RMK AO2 SLP162 T02560194 (NJ)","FM-15","7",,,,,,,,,,,,,,,,,,,,,,,,,,,,"2009-05-27"
"72259003927","2019-09-16T07:53:00","FM-15","7",,,,,,,,,,,,,,,,,,,,,,,,,,,,,,,,,,,,,,"30.05","68","83","0.00",,,,"61","30.02","FEW:02 300","29.41","10.00","73","000",,"0",,,,,,,,,,,,,,,,,,,,,,,,,,,,,,,,,,,,,"MET09809/16/19 07:53:02 METAR KDFW 161353Z 00000KT 10SM FEW300 28/20 A3005 RMK AO2 SLP165 T02830200 (NJ)","FM-15","7",,,,,,,,,,,,,,,,,,,,,,,,,,,,"2009-05-27"
"72259003927","2019-09-16T08:53:00","FM-15","7",,,,,,,,,,,,,,,,,,,,,,,,,,,,,,,,,,,,,,"30.05","68","86","0.00",,"-0.02","1","55","30.02","FEW:02 300","29.41","10.00","74","110",,"5",,,,,,,,,,,,,,,,,,,,,,,,,,,,,,,,,,,,,"MET10409/16/19 08:53:02 METAR KDFW 161453Z 11004KT 10SM FEW300 30/20 A3005 RMK AO2 SLP167 T03000200 51008 (NJ)","FM-15","7",,,,,,,,,,,,,,,,,,,,,,,,,,,,"2009-05-27"
"72259003927","2019-09-16T09:00:00","FM-12","4",,,,,,,,,,,,,,,,,,,,,,,,,,,,,,,,,,,,,,,"68","86",,,"-0.02","1","55","30.02",,"29.44","9.94","74","110",,"5",,,,,,,,,,,,,,,,,,,,,,,,,,,,,,,,,,,,,"SYN06472259 32966 21104 10300 20200 39968 40167 51008 91453 555 91615=","FM-12","4",,,,,,,,,,,,,,,,,,,,,,,,,,,,"2009-05-27"
"72259003927","2019-09-16T09:53:00","FM-15","7",,,,,,,,,,,,,,,,,,,,,,,,,,,,,,,,,,,,,,"30.06","68","89","0.00",,,,"50","30.02","FEW:02 10 FEW:02 150 SCT:04 300","29.42","10.00","75","VRB",,"3",,,,,,,,,,,,,,,,,,,,,,,,,,,,,,,,,,,,,"MET12409/16/19 09:53:02 METAR KDFW 161553Z VRB03KT 10SM FEW010 FEW150 SCT300 32/20 A3006 RMK AO2 SLP167 FU FEW010 E T03170200 (NJ)","FM-15","7",,,,,,,,,,,,,,,,,,,,,,,,,,,,"2009-05-27"
"72259003927","2019-09-16T10:53:00","FM-15","7",,,,,,,,,,,,,,,,,,,,,,,,,,,,,,,,,,,,,,"30.05","67","92","0.00",,,,"44","30.01","SCT:04 60 SCT:04 300","29.41","10.00","75","120",,"11",,,,,,,,,,,,,,,,,,,,,,,,,,,,,,,,,,,,,"MET10509/16/19 10:53:02 METAR KDFW 161653Z 12010KT 10SM SCT060 SCT300 33/19 A3005 RMK AO2 SLP163 T03330194 (NJ)","FM-15","7",,,,,,,,,,,,,,,,,,,,,,,,,,,,"2009-05-27"
"72259003927","2019-09-16T11:53:00","FM-15","7",,,,,,,,,,,,,,,,,,,,,,,,,,,,,,,,,,,,,,"30.02","66","94","0.00",,"+0.03","8","40","29.99","SCT:04 60 SCT:04 300","29.38","10.00","75","090",,"9",,,,,,,,,,,,,,,,,,,,,,,,,,,,,,,,,,,,,"MET12309/16/19 11:53:02 METAR KDFW 161753Z 09008KT 10SM SCT060 SCT300 34/19 A3002 RMK AO2 SLP156 T03440189 10344 20256 58009 (NJ)","FM-15","7",,,,,,,,,,,,,,,,,,,,,,,,,,,,"2009-05-27"
"72259003927","2019-09-16T12:00:00","FM-12","4",,,,,,,,,,,,,,,,,,,,,,,,,,,,,,,,,,,,,,,"66","94",,,"+0.03","8","40","29.99","57","29.41","9.94","75","090",,"9",,,,,,,,,,,,,,,,,,,,,,,,,,,,,,,,,,,,,"SYN08072259 32766 40908 10344 20189 39958 40156 58009 91753 333 10344 20256 555 91618=","FM-12","4",,,,,,,,,,,,,,,,,,,,,,,,,,,,"2009-05-27"
"72259003927","2019-09-16T12:53:00","FM-15","7",,,,,,,,,,,,,,,,,,,,,,,,,,,,,,,,,,,,,,"30.00","66","95","0.00",,,,"39","29.97","SCT:04 65 SCT:04 300","29.36","10.00","75","VRB",,"7",,,,,,,,,,,,,,,,,,,,,,,,,,,,,,,,,,,,,"MET10509/16/19 12:53:02 METAR KDFW 161853Z VRB06KT 10SM SCT065 SCT300 35/19 A3000 RMK AO2 SLP149 T03500189 (NJ)","FM-15","7",,,,,,,,,,,,,,,,,,,,,,,,,,,,"2009-05-27"
"72259003927","2019-09-16T13:53:00","FM-15","7",,,,,,,,,,,,,,,,,,,,,,,,,,,,,,,,,,,,,,"29.98","64","93","0.00",,,,"38","29.94","SCT:04 65 SCT:04 75","29.34","10.00","73","100","16","13",,,,,,,,,,,,,,,,,,,,,,,,,,,,,,,,,,,,,"MET10809/16/19 13:53:02 METAR KDFW 161953Z 10011G14KT 10SM SCT065 SCT075 34/18 A2998 RMK AO2 SLP140 T03390178 (NJ)","FM-15","7",,,,,,,,,,,,,,,,,,,,,,,,,,,,"2009-05-27"
"72259003927","2019-09-16T14:53:00","FM-15","7",,,,,,,,,,,,,,,,,,,,,,,,,,,,,,,,,,,,,,"29.95","64","95","0.00",,"+0.07","8","36","29.92","SCT:04 70","29.31","10.00","74","140","20","9",,,,,,,,,,,,,,,,,,,,,,,,,,,,,,,,,,,,,"MET10709/16/19 14:53:02 METAR KDFW 162053Z 14008G17KT 10SM SCT070 35/18 A2995 RMK AO2 SLP132 T03500178 58024 (GR)","FM-15","7",,,,,,,,,,,,,,,,,,,,,,,,,,,,"2009-05-27"
"72259003927","2019-09-16T15:00:00","FM-12","4",,,,,,,,,,,,,,,,,,,,,,,,,,,,,,,,,,,,,,,"64","95",,,"+0.07","8","36","29.92","74","29.34","9.94","74","140",,"9",,,,,,,,,,,,,,,,,,,,,,,,,,,,,,,,,,,,,"SYN07472259 32866 41408 10350 20178 39934 40132 58024 92053 333 91017 555 91621=","FM-12","4",,,,,,,,,,,,,,,,,,,,,,,,,,,,"2009-05-27"
"72259003927","2019-09-16T15:53:00","FM-15","7",,,,,,,,,,,,,,,,,,,,,,,,,,,,,,,,,,,,,,"29.94","65","95","0.00",,,,"37","29.91","SCT:04 70","29.30","10.00","75","140",,"13",,,,,,,,,,,,,,,,,,,,,,,,,,,,,,,,,,,,,"MET09809/16/19 15:53:02 METAR KDFW 162153Z 14011KT 10SM SCT070 35/18 A2994 RMK AO2 SLP128 T03500183 (GR)","FM-15","7",,,,,,,,,,,,,,,,,,,,,,,,,,,,"2009-05-27"
"72259003927","2019-09-16T16:53:00","FM-15","7",,,,,,,,,,,,,,,,,,,,,,,,,,,,,,,,,,,,,,"29.94","64","93","0.00",,,,"38","29.91","SCT:04 70","29.30","10.00","73","120",,"11",,,,,,,,,,,,,,,,,,,,,,,,,,,,,,,,,,,,,"MET09809/16/19 16:53:02 METAR KDFW 162253Z 12010KT 10SM SCT070 34/18 A2994 RMK AO2 SLP128 T03390178 (GR)","FM-15","7",,,,,,,,,,,,,,,,,,,,,,,,,,,,"2009-05-27"
"72259003927","2019-09-16T17:53:00","FM-15","7",,,,,,,,,,,,,,,,,,,,,,,,,,,,,,,,,,,,,,"29.93","64","91","0.00",,"+0.02","6","41","29.91","FEW:02 70","29.29","10.00","73","100",,"9",,,,,,,,,,,,,,,,,,,,,,,,,,,,,,,,,,,,,"MET11609/16/19 17:53:02 METAR KDFW 162353Z 10008KT 10SM FEW070 33/18 A2993 RMK AO2 SLP127 T03280178 10356 20328 56006 (GR)","FM-15","7",,,,,,,,,,,,,,,,,,,,,,,,,,,,"2009-05-27"
"72259003927","2019-09-16T18:00:00","FM-12","4",,,,,,,,,,,,,,,,,,,,,,,,,,,,,,,,,,,,,,,"64","91",,,"+0.02","6","41","29.91","74","29.32","9.94","73","100",,"9",,,,,,,,,,,,,,,,,,,,,,,,,,,,,,,,,,,,,"SYN08072259 32866 21008 10328 20178 39928 40127 56006 92353 333 10356 20256 555 91700=","FM-12","4",,,,,,,,,,,,,,,,,,,,,,,,,,,,"2009-05-27"
"72259003927","2019-09-16T18:53:00","FM-15","7",,,,,,,,,,,,,,,,,,,,,,,,,,,,,,,,,,,,,,"29.94","64","89","0.00",,,,"43","29.91","FEW:02 70","29.30","10.00","72","100",,"10",,,,,,,,,,,,,,,,,,,,,,,,,,,,,,,,,,,,,"MET09309/16/19 18:53:01 METAR KDFW 170053Z 10009KT 10SM FEW070 32/18 A2994 RMK AO2 SLP128 T03170178","FM-15","7",,,,,,,,,,,,,,,,,,,,,,,,,,,,"2009-05-27"
"72259003927","2019-09-16T19:53:00","FM-15","7",,,,,,,,,,,,,,,,,,,,,,,,,,,,,,,,,,,,,,"29.95","65","87","0.00",,,,"48","29.92","FEW:02 70","29.31","10.00","72","100",,"6",,,,,,,,,,,,,,,,,,,,,,,,,,,,,,,,,,,,,"MET09309/16/19 19:53:01 METAR KDFW 170153Z 10005KT 10SM FEW070 31/18 A2995 RMK AO2 SLP131 T03060183","FM-15","7",,,,,,,,,,,,,,,,,,,,,,,,,,,,"2009-05-27"
"72259003927","2019-09-16T20:53:00","FM-15","7",,,,,,,,,,,,,,,,,,,,,,,,,,,,,,,,,,,,,,"29.95","65","85","0.00",,"-0.02","3","51","29.93","CLR:00","29.31","10.00","72","100",,"6",,,,,,,,,,,,,,,,,,,,,,,,,,,,,,,,,,,,,"MET09609/16/19 20:53:01 METAR KDFW 170253Z 10005KT 10SM CLR 29/18 A2995 RMK AO2 SLP134 T02940183 53006","FM-15","7",,,,,,,,,,,,,,,,,,,,,,,,,,,,"2009-05-27"
"72259003927","2019-09-16T21:00:00","FM-12","4",,,,,,,,,,,,,,,,,,,,,,,,,,,,,,,,,,,,,,,"65","85",,,"-0.02","3","51","29.93",,"29.34","9.94","72","100",,"6",,,,,,,,,,,,,,,,,,,,,,,,,,,,,,,,,,,,,"SYN06472259 32966 01005 10294 20183 39934 40134 53006 90253 555 91703=","FM-12","4",,,,,,,,,,,,,,,,,,,,,,,,,,,,"2009-05-27"
"72259003927","2019-09-16T21:53:00","FM-15","7",,,,,,,,,,,,,,,,,,,,,,,,,,,,,,,,,,,,,,"29.96","65","84","0.00",,,,"53","29.92","CLR:00","29.32","10.00","71","100",,"5",,,,,,,,,,,,,,,,,,,,,,,,,,,,,,,,,,,,,"MET09009/16/19 21:53:01 METAR KDFW 170353Z 10004KT 10SM CLR 29/18 A2996 RMK AO2 SLP133 T02890183","FM-15","7",,,,,,,,,,,,,,,,,,,,,,,,,,,,"2009-05-27"
"72259003927","2019-09-16T22:53:00","FM-15","7",,,,,,,,,,,,,,,,,,,,,,,,,,,,,,,,,,,,,,"29.95","65","82","0.00",,,,"56","29.92","CLR:00","29.31","10.00","71","000",,"0",,,,,,,,,,,,,,,,,,,,,,,,,,,,,,,,,,,,,"MET09009/16/19 22:53:01 METAR KDFW 170453Z 00000KT 10SM CLR 28/18 A2995 RMK AO2 SLP132 T02780183","FM-15","7",,,,,,,,,,,,,,,,,,,,,,,,,,,,"2009-05-27"
"72259003927","2019-09-16T23:53:00","FM-15","7",,,,,,,,,,,,,,,,,,,,,,,,,,,,,,,,,,,,,,"29.95","66","81","0.00",,"+0.00","8","61","29.92","CLR:00","29.31","10.00","71","140",,"6",,,,,,,,,,,,,,,,,,,,,,,,,,,,,,,,,,,,,"MET11809/16/19 23:53:01 METAR KDFW 170553Z 14005KT 10SM CLR 27/19 A2995 RMK AO2 SLP131 T02720189 10328 20272 403560256 58001","FM-15","7",,,,,,,,,,,,,,,,,,,,,,,,,,,,"2009-05-27"
"72259003927","2019-09-16T23:59:00","SOD  ","6",,,,,,,,,,,,,,,,"87",,,"29.34",,"5.6","22","8.8","0","96","78","050","25","0.00","0","0.0","110","16",,,,,,,,,,,,,,,,,,,,,,,,,,,,,,,,,,,,,,,,,,,,,,,,,,,,,,,,,"SOD73924 HR PRECIPITATION (IN): 0.00 SNOW DEPTH (IN):0     24 HR SNOWFALL (IN):0.0  24 HR MAX TEMP (F): 9624 HR MIN TEMP (F): 78AVERAGE STATION PRESSURE:29.340 MINIMUM SEA LEVEL PRESSURE:29.90 TIME OF OCCURRENCE:1810 PEAK WIND SPEED (MPH): 25 PEAK WIND DIR (DEG): 50 PEAK WIND TIME (LST):      FASTEST 2MIN SPEED (MPH): 16FASTEST 2MIN DIR (DEG):110 FASTEST 2MIN TIME (LST):     AVERAGE WIND SPEED (MPH): 5.6 24 HR AVG TEMP (F): 87DEPART FROM NORMAL:  9  HEATING DEGREE DAYS:  0 COOLING DEGREE DAYS: 22 LATEST DAY MAX TEMP (0700-1900 LST):96  LATEST NIGHT MIN TEMP(1900-0800 LST):78 HOURLY INCREMENTAL PRECIPITATION VALUES (IN):.00 0.00 0.00 0.00 0.00 0.00 0.00 0.00 0.00 0.00 0.00 0.00 0.00 0.00 0.00 0.00 0.00 0.00 0.00 0.00 0.00 0.00 0.00 0.00","SOD  ","6",,,,,,,,,,,,,,,,,,,,,,,,,"0612","1833",,"2009-05-27"
"72253012921","2019-09-16T00:00:00","FM-12","4",,,,,,,,,,,,,,,,,,,,,,,,,,,,,,,,,,,,,,,"68","79",,,"-0.04","1","69","29.98",,"29.18","9.94","72","190",,"3",,,,,,,,,,,,,,,,,,,,,,,,,,,,,,,,,,,,,"SYN08072253 32966 21903 10261 20200 39883 40154 51012 90551 333 10328 20217 555 91606=","FM-12","4",,,,,,,,,,,,,,,,,,,,,,,,,,,,"2008-10-22"
"72253012921","2019-09-16T00:51:00","FM-15","7",,,,,,,,,,,,,,,,,,,,,,,,,,,,,,,,,,,,,,"30.04","68","79","0.00",,,,"69","29.98","SCT:04 80","29.17","10.00","72","310",,"5",,,,,,,,,,,,,,,,,,,,,,,,,,,,,,,,,,,,,"MET09809/16/19 00:51:02 METAR KSAT 160651Z 31004KT 10SM SCT080 26/20 A3004 RMK AO2 SLP154 T02610200 (AM)","FM-15","7",,,,,,,,,,,,,,,,,,,,,,,,,,,,"2008-10-22"
"72253012921","2019-09-16T01:51:00","FM-15","7",,,,,,,,,,,,,,,,,,,,,,,,,,,,,,,,,,,,,,"30.04","68","78","0.00",,,,"71","29.98","SCT:04 70","29.17","10.00","71","240",,"5",,,,,,,,,,,,,,,,,,,,,,,,,,,,,,,,,,,,,"MET09909/16/19 01:51:02 METAR KSAT 160751Z 24004KT 10SM SCT070 26/20 A3004 RMK AO2 SLP154 T02560200 (MBZ)","FM-15","7",,,,,,,,,,,,,,,,,,,,,,,,,,,,"2008-10-22"
"72253012921","2019-09-16T02:51:00","FM-15","7",,,,,,,,,,,,,,,,,,,,,,,,,,,,,,,,,,,,,,"30.04","69","77","0.00",,"+0.01","8","77","29.98","SCT:04 75","29.17","10.00","72","000",,"0",,,,,,,,,,,,,,,,,,,,,,,,,,,,,,,,,,,,,"MET10509/16/19 02:51:02 METAR KSAT 160851Z 00000KT 10SM SCT075 25/21 A3004 RMK AO2 SLP152 T02500206 58002 (MBZ)","FM-15","7",,,,,,,,,,,,,,,,,,,,,,,,,,,,"2008-10-22"
"72253012921","2019-09-16T03:00:00","FM-12","4",,,,,,,,,,,,,,,,,,,,,,,,,,,,,,,,,,,,,,,"69","77",,,"+0.01","8","77","29.98","74","29.18","9.94","72","000",,"0",,,,,,,,,,,,,,,,,,,,,,,,,,,,,,,,,,,,,"SYN06472253 32866 40000 10250 20206 39883 40152 58002 90851 555 91609=","FM-12","4",,,,,,,,,,,,,,,,,,,,,,,,,,,,"2008-10-22"
"72253012921","2019-09-16T03:51:00","FM-15","7",,,,,,,,,,,,,,,,,,,,,,,,,,,,,,,,,,,,,,"30.03","68","75","0.00",,,,"79","29.97","SCT:04 60","29.16","10.00","70","310",,"3",,,,,,,,,,,,,,,,,,,,,,,,,,,,,,,,,,,,,"MET09909/16/19 03:51:02 METAR KSAT 160951Z 31003KT 10SM SCT060 24/20 A3003 RMK AO2 SLP149 T02390200 (MBZ)","FM-15","7",,,,,,,,,,,,,,,,,,,,,,,,,,,,"2008-10-22"
"72253012921","2019-09-16T04:51:00","FM-15","7",,,,,,,,,,,,,,,,,,,,,,,,,,,,,,,,,,,,,,"30.03","68","74","0.00",,,,"82","29.97","SCT:04 60","29.16","10.00","70","310",,"6",,,,,,,,,,,,,,,,,,,,,,,,,,,,,,,,,,,,,"MET09909/16/19 04:51:02 METAR KSAT 161051Z 31005KT 10SM SCT060 23/20 A3003 RMK AO2 SLP149 T02330200 (MBZ)","FM-15","7",,,,,,,,,,,,,,,,,,,,,,,,,,,,"2008-10-22"
"72253012921","2019-09-16T05:51:00","FM-15","7",,,,,,,,,,,,,,,,,,,,,,,,,,,,,,,,,,,,,,"30.03","68","74","0.00",,"+0.01","5","82","29.97","FEW:02 60 FEW:02 250","29.16","10.00","70","330",,"6",,,,,,,,,,,,,,,,,,,,,,,,,,,,,,,,,,,,,"MET12409/16/19 05:51:02 METAR KSAT 161151Z 33005KT 10SM FEW060 FEW250 23/20 A3003 RMK AO2 SLP149 T02330200 10267 20228 55002 (MBZ)","FM-15","7",,,,,,,,,,,,,,,,,,,,,,,,,,,,"2008-10-22"
"72253012921","2019-09-16T06:00:00","FM-12","4",,,,,,,,,,,,,,,,,,,,,,,,,,,,,,,,,,,,,,,"68","74",,,"+0.01","5","82","29.97","57","29.17","9.94","70","330",,"6",,,,,,,,,,,,,,,,,,,,,,,,,,,,,,,,,,,,,"SYN08072253 32766 23305 10233 20200 39879 40149 55002 91151 333 10356 20228 555 91612=","FM-12","4",,,,,,,,,,,,,,,,,,,,,,,,,,,,"2008-10-22"
"72253012921","2019-09-16T06:51:00","FM-15","7",,,,,,,,,,,,,,,,,,,,,,,,,,,,,,,,,,,,,,"30.04","68","74","0.00",,,,"82","29.98","FEW:02 20 FEW:02 250","29.17","10.00","70","300",,"5",,,,,,,,,,,,,,,,,,,,,,,,,,,,,,,,,,,,,"MET10609/16/19 06:51:02 METAR KSAT 161251Z 30004KT 10SM FEW020 FEW250 23/20 A3004 RMK AO2 SLP152 T02330200 (MBZ)","FM-15","7",,,,,,,,,,,,,,,,,,,,,,,,,,,,"2008-10-22"
"72253012921","2019-09-16T07:51:00","FM-15","7",,,,,,,,,,,,,,,,,,,,,,,,,,,,,,,,,,,,,,"30.04","68","80","0.00",,,,"67","29.98","FEW:02 25 FEW:02 250","29.17","10.00","72","320",,"9",,,,,,,,,,,,,,,,,,,,,,,,,,,,,,,,,,,,,"MET10609/16/19 07:51:02 METAR KSAT 161351Z 32008KT 10SM FEW025 FEW250 27/20 A3004 RMK AO2 SLP154 T02670200 (MBZ)","FM-15","7",,,,,,,,,,,,,,,,,,,,,,,,,,,,"2008-10-22"
"72253012921","2019-09-16T08:51:00","FM-15","7",,,,,,,,,,,,,,,,,,,,,,,,,,,,,,,,,,,,,,"30.05","66","85","0.00",,"-0.01","1","53","29.99","FEW:02 30 FEW:02 250","29.18","10.00","72","VRB",,"3",,,,,,,,,,,,,,,,,,,,,,,,,,,,,,,,,,,,,"MET11209/16/19 08:51:02 METAR KSAT 161451Z VRB03KT 10SM FEW030 FEW250 29/19 A3005 RMK AO2 SLP155 T02940189 51005 (MBZ)","FM-15","7",,,,,,,,,,,,,,,,,,,,,,,,,,,,"2008-10-22"
"72253012921","2019-09-16T09:00:00","FM-12","4",,,,,,,,,,,,,,,,,,,,,,,,,,,,,,,,,,,,,,,"66","85",,,"-0.01","1","53","29.99","26","29.19","9.94","72",,,"3",,,,,,,,,,,,,,,,,,,,,,,,,,,,,,,,,,,,,"SYN06472253 32566 2//03 10294 20189 39886 40155 51005 91451 555 91615=","FM-12","4",,,,,,,,,,,,,,,,,,,,,,,,,,,,"2008-10-22"
"72253012921","2019-09-16T09:51:00","FM-15","7",,,,,,,,,,,,,,,,,,,,,,,,,,,,,,,,,,,,,,"30.05","66","87","0.00",,,,"50","29.99","FEW:02 45 FEW:02 250","29.18","10.00","73","000",,"0",,,,,,,,,,,,,,,,,,,,,,,,,,,,,,,,,,,,,"MET10509/16/19 09:51:02 METAR KSAT 161551Z 00000KT 10SM FEW045 FEW250 31/19 A3005 RMK AO2 SLP156 T03060189 (MB)","FM-15","7",,,,,,,,,,,,,,,,,,,,,,,,,,,,"2008-10-22"
"72253012921","2019-09-16T10:51:00","FM-15","7",,,,,,,,,,,,,,,,,,,,,,,,,,,,,,,,,,,,,,"30.04","64","89","0.00",,,,"43","29.98","BKN:07 50 BKN:07 250","29.17","10.00","72","060",,"8",,,,,,,,,,,,,,,,,,,,,,,,,,,,,,,,,,,,,"MET10509/16/19 10:51:02 METAR KSAT 161651Z 06007KT 10SM BKN050 BKN250 32/18 A3004 RMK AO2 SLP153 T03170178 (MB)","FM-15","7",,,,,,,,,,,,,,,,,,,,,,,,,,,,"2008-10-22"
"72253012921","2019-09-16T11:51:00","FM-15","7",,,,,,,,,,,,,,,,,,,,,,,,,,,,,,,,,,,,,,"30.02","64","92","0.00",,"+0.03","8","40","29.96","BKN:07 60 BKN:07 250","29.15","10.00","73","070",,"9",,,,,,,,,,,,,,,,,,,,,,,,,,,,,,,,,,,,,"MET12309/16/19 11:51:02 METAR KSAT 161751Z 07008KT 10SM BKN060 BKN250 33/18 A3002 RMK AO2 SLP145 T03330178 10344 20228 58010 (MB)","FM-15","7",,,,,,,,,,,,,,,,,,,,,,,,,,,,"2008-10-22"
"72253012921","2019-09-16T12:00:00","FM-12","4",,,,,,,,,,,,,,,,,,,,,,,,,,,,,,,,,,,,,,,"64","92",,,"+0.03","8","40","29.96","57","29.16","9.94","73","070",,"9",,,,,,,,,,,,,,,,,,,,,,,,,,,,,,,,,,,,,"SYN08072253 32766 60708 10333 20178 39876 40145 58010 91751 333 10344 20228 555 91618=","FM-12","4",,,,,,,,,,,,,,,,,,,,,,,,,,,,"2008-10-22"
"72253012921","2019-09-16T12:51:00","FM-15","7",,,,,,,,,,,,,,,,,,,,,,,,,,,,,,,,,,,,,,"29.99","63","95","0.00",,,,"35","29.93","SCT:04 70 SCT:04 250","29.12","10.00","73","080","18","10",,,,,,,,,,,,,,,,,,,,,,,,,,,,,,,,,,,,,"MET10809/16/19 12:51:02 METAR KSAT 161851Z 08009G16KT 10SM SCT070 SCT250 35/17 A2999 RMK AO2 SLP135 T03500172 (MB)","FM-15","7",,,,,,,,,,,,,,,,,,,,,,,,,,,,"2008-10-22"
"72253012921","2019-09-16T13:51:00","FM-15","7",,,,,,,,,,,,,,,,,,,,,,,,,,,,,,,,,,,,,,"29.95","62","95","0.00",,,,"34","29.89","SCT:04 70 SCT:04 250","29.08","10.00","73","110",,"6",,,,,,,,,,,,,,,,,,,,,,,,,,,,,,,,,,,,,"MET10509/16/19 13:51:02 METAR KSAT 161951Z 11005KT 10SM SCT070 SCT250 35/17 A2995 RMK AO2 SLP123 T03500167 (MB)","FM-15","7",,,,,,,,,,,,,,,,,,,,,,,,,,,,"2008-10-22"
"72253012921","2019-09-16T14:51:00","FM-15","7",,,,,,,,,,,,,,,,,,,,,,,,,,,,,,,,,,,,,,"29.93","61","96","0.00",,"+0.09","7","31","29.87","SCT:04 70 SCT:04 90 SCT:04 250","29.06","10.00","73","120","18","10",,,,,,,,,,,,,,,,,,,,,,,,,,,,,,,,,,,,,"MET12109/16/19 14:51:02 METAR KSAT 162051Z 12009G16KT 10SM SCT070 SCT090 SCT250 36/16 A2993 RMK AO2 SLP114 T03560161 57029 (MB)","FM-15","7",,,,,,,,,,,,,,,,,,,,,,,,,,,,"2008-10-22"
"72253012921","2019-09-16T15:00:00","FM-12","4",,,,,,,,,,,,,,,,,,,,,,,,,,,,,,,,,,,,,,,"61","96",,,"+0.09","7","31","29.87","74","29.08","9.94","73","120",,"10",,,,,,,,,,,,,,,,,,,,,,,,,,,,,,,,,,,,,"SYN07472253 32866 41209 10356 20161 39846 40114 57029 92051 333 91016 555 91621=","FM-12","4",,,,,,,,,,,,,,,,,,,,,,,,,,,,"2008-10-22"
"72253012921","2019-09-16T15:51:00","FM-15","7",,,,,,,,,,,,,,,,,,,,,,,,,,,,,,,,,,,,,,"29.91","61","96","0.00",,,,"31","29.85","SCT:04 80 SCT:04 250","29.04","10.00","73","VRB",,"6",,,,,,,,,,,,,,,,,,,,,,,,,,,,,,,,,,,,,"MET10509/16/19 15:51:02 METAR KSAT 162151Z VRB05KT 10SM SCT080 SCT250 36/16 A2991 RMK AO2 SLP108 T03560161 (MB)","FM-15","7",,,,,,,,,,,,,,,,,,,,,,,,,,,,"2008-10-22"
"72253012921","2019-09-16T16:51:00","FM-15","7",,,,,,,,,,,,,,,,,,,,,,,,,,,,,,,,,,,,,,"29.90","61","96","0.00",,,,"31","29.84","FEW:02 75 SCT:04 250","29.03","10.00","73","070",,"11",,,,,,,,,,,,,,,,,,,,,,,,,,,,,,,,,,,,,"MET10509/16/19 16:51:02 METAR KSAT 162251Z 07010KT 10SM FEW075 SCT250 36/16 A2990 RMK AO2 SLP105 T03560161 (MB)","FM-15","7",,,,,,,,,,,,,,,,,,,,,,,,,,,,"2008-10-22"
"72253012921","2019-09-16T17:51:00","FM-15","7",,,,,,,,,,,,,,,,,,,,,,,,,,,,,,,,,,,,,,"29.90","61","94","0.00",,"+0.02","5","33","29.84","SCT:04 80 BKN:07 250","29.03","10.00","72","100",,"9",,,,,,,,,,,,,,,,,,,,,,,,,,,,,,,,,,,,,"MET12309/16/19 17:51:02 METAR KSAT 162351Z 10008KT 10SM SCT080 BKN250 34/16 A2990 RMK AO2 SLP106 T03440161 10361 20328 55008 (JB)","FM-15","7",,,,,,,,,,,,,,,,,,,,,,,,,,,,"2008-10-22"
"72253012921","2019-09-16T18:00:00","FM-12","4",,,,,,,,,,,,,,,,,,,,,,,,,,,,,,,,,,,,,,,"61","94",,,"+0.02","5","33","29.84","74","29.05","9.94","72","100",,"9",,,,,,,,,,,,,,,,,,,,,,,,,,,,,,,,,,,,,"SYN08072253 32866 61008 10344 20161 39836 40106 55008 92351 333 10361 20228 555 91700=","FM-12","4",,,,,,,,,,,,,,,,,,,,,,,,,,,,"2008-10-22"
"72253012921","2019-09-16T18:51:00","FM-15","7",,,,,,,,,,,,,,,,,,,,,,,,,,,,,,,,,,,,,,"29.91","62","89","0.00",,,,"41","29.85","FEW:02 80 BKN:07 250","29.04","10.00","71","090",,"8",,,,,,,,,,,,,,,,,,,,,,,,,,,,,,,,,,,,,"MET10009/16/19 18:51:01 METAR KSAT 170051Z 09007KT 10SM FEW080 BKN250 32/17 A2991 RMK AO2 SLP110 T03170167","FM-15","7",,,,,,,,,,,,,,,,,,,,,,,,,,,,"2008-10-22"
"72253012921","2019-09-16T19:51:00","FM-15","7",,,,,,,,,,,,,,,,,,,,,,,,,,,,,,,,,,,,,,"29.92","62","87","0.00",,,,"43","29.86","FEW:02 85 SCT:04 250","29.05","10.00","71","090",,"7",,,,,,,,,,,,,,,,,,,,,,,,,,,,,,,,,,,,,"MET10009/16/19 19:51:01 METAR KSAT 170151Z 09006KT 10SM FEW085 SCT250 31/17 A2992 RMK AO2 SLP113 T03060167","FM-15","7",,,,,,,,,,,,,,,,,,,,,,,,,,,,"2008-10-22"
"72253012921","2019-09-16T20:51:00","FM-15","7",,,,,,,,,,,,,,,,,,,,,,,,,,,,,,,,,,,,,,"29.94","65","84","0.00",,"-0.04","3","53","29.88","FEW:02 85 SCT:04 250","29.07","10.00","71","120",,"9",,,,,,,,,,,,,,,,,,,,,,,,,,,,,,,,,,,,,"MET10609/16/19 20:51:01 METAR KSAT 170251Z 12008KT 10SM FEW085 SCT250 29/18 A2994 RMK AO2 SLP120 T02890183 53013","FM-15","7",,,,,,,,,,,,,,,,,,,,,,,,,,,,"2008-10-22"
"72253012921","2019-09-16T21:00:00","FM-12","4",,,,,,,,,,,,,,,,,,,,,,,,,,,,,,,,,,,,,,,"65","84",,,"-0.04","3","53","29.88",,"29.09","9.94","71","120",,"9",,,,,,,,,,,,,,,,,,,,,,,,,,,,,,,,,,,,,"SYN06472253 32966 41208 10289 20183 39850 40120 53013 90251 555 91703=","FM-12","4",,,,,,,,,,,,,,,,,,,,,,,,,,,,"2008-10-22"
"72253012921","2019-09-16T21:51:00","FM-15","7",,,,,,,,,,,,,,,,,,,,,,,,,,,,,,,,,,,,,,"29.96","67","82","0.00",,,,"60","29.90","FEW:02 80 FEW:02 250","29.09","10.00","72","120",,"8",,,,,,,,,,,,,,,,,,,,,,,,,,,,,,,,,,,,,"MET10009/16/19 21:51:01 METAR KSAT 170351Z 12007KT 10SM FEW080 FEW250 28/19 A2996 RMK AO2 SLP125 T02780194","FM-15","7",,,,,,,,,,,,,,,,,,,,,,,,,,,,"2008-10-22"
"72253012921","2019-09-16T22:51:00","FM-15","7",,,,,,,,,,,,,,,,,,,,,,,,,,,,,,,,,,,,,,"29.96","67","81","0.00",,,,"62","29.90","FEW:02 80 FEW:02 250","29.09","10.00","72","110",,"8",,,,,,,,,,,,,,,,,,,,,,,,,,,,,,,,,,,,,"MET10009/16/19 22:51:01 METAR KSAT 170451Z 11007KT 10SM FEW080 FEW250 27/19 A2996 RMK AO2 SLP126 T02720194","FM-15","7",,,,,,,,,,,,,,,,,,,,,,,,,,,,"2008-10-22"
"72253012921","2019-09-16T23:51:00","FM-15","7",,,,,,,,,,,,,,,,,,,,,,,,,,,,,,,,,,,,,,"29.95","67","78","0.00",,"-0.01","0","69","29.89","FEW:02 75 FEW:02 250","29.08","10.00","71","120",,"3",,,,,,,,,,,,,,,,,,,,,,,,,,,,,,,,,,,,,"MET12809/16/19 23:51:01 METAR KSAT 170551Z 12003KT 10SM FEW075 FEW250 26/19 A2995 RMK AO2 SLP122 T02560194 10344 20256 403610228 50002","FM-15","7",,,,,,,,,,,,,,,,,,,,,,,,,,,,"2008-10-22"
"72253012921","2019-09-16T23:59:00","SOD  ","6",,,,,,,,,,,,,,,,"85",,,"29.10",,"6.5","20","5.1","0","97","73","110","22","0.00","0","0.0","110","17",,,,,,,,,,,,,,,,,,,,,,,,,,,,,,,,,,,,,,,,,,,,,,,,,,,,,,,,,"SOD73924 HR PRECIPITATION (IN): 0.00 SNOW DEPTH (IN):0     24 HR SNOWFALL (IN):0.0  24 HR MAX TEMP (F): 9724 HR MIN TEMP (F): 73AVERAGE STATION PRESSURE:29.105 MINIMUM SEA LEVEL PRESSURE:29.84 TIME OF OCCURRENCE:1804 PEAK WIND SPEED (MPH): 22 PEAK WIND DIR (DEG):110 PEAK WIND TIME (LST):      FASTEST 2MIN SPEED (MPH): 17FASTEST 2MIN DIR (DEG):110 FASTEST 2MIN TIME (LST):     AVERAGE WIND SPEED (MPH): 6.5 24 HR AVG TEMP (F): 85DEPART FROM NORMAL:  5  HEATING DEGREE DAYS:  0 COOLING DEGREE DAYS: 20 LATEST DAY MAX TEMP (0700-1900 LST):97  LATEST NIGHT MIN TEMP(1900-0800 LST):73 HOURLY INCREMENTAL PRECIPITATION VALUES (IN):.00 0.00 0.00 0.00 0.00 0.00 0.00 0.00 0.00 0.00 0.00 0.00 0.00 0.00 0.00 0.00 0.00 0.00 0.00 0.00 0.00 0.00 0.00 0.00","SOD  ","6",,,,,,,,,,,,,,,,,,,,,,,,,"0619","1838",,"2008-10-22"
"72243012960","2019-09-17T00:00:00","FM-12","4",,,,,,,,,,,,,,,,,,,,,,,,,,,,,,,,,,,,,,,"73","75",,,"+0.02","8","94","29.92","15","29.79","9.94","74","040",,"6",,,,,,,,,,,,,,,,,,,,,,,,,,,,,,,,,,,,,"SYN08072243 32466 40405 10239 20228 30088 40131 58006 90553 333 10261 20239 555 91706=","FM-12","4",,,,,,,,,,,,,,,,,,,,,,,,,,,,"2009-06-11"
"72243012960","2019-09-17T00:53:00","FM-15","7",,,,,,,,,,,,,,,,,,,,,,,,,,,,,,,,,,,,,,"29.92","73","77","0.00",,,,"88","29.91","BKN:07 9 BKN:07 20 BKN:07 250","29.81","10.00","74","030",,"6",,,,,,,,,,,,,,,,,,,,,,,,,,,,,,,,,,,,,"MET11409/17/19 00:53:02 METAR KIAH 170653Z 03005KT 10SM BKN009 BKN020 BKN250 25/23 A2992 RMK AO2 SLP129 T02500228 $ (CB)","FM-15","7",,,,,,,,,,,,,,,,,,,,,,,,,,,,"2009-06-11"
"72243012960","2019-09-17T01:27:00","FM-16","7",,,,,,,,,,,,,,,,,,,,,,,,,,,,,,,,,,,,,,"29.91","73","76",,,,,"91",,"FEW:02 8 FEW:02 20 SCT:04 75","29.80","10.00","74","030",,"5",,,,,,,,,,,,,,,,,,,,,,,,,,,,,,,,,,,,,"MET10709/17/19 01:27:02 SPECI KIAH 170727Z 03004KT 10SM FEW008 FEW020 SCT075 24/23 A2991 RMK AO2 T02440228 $ (CB)","FM-16","7",,,,,,,,,,,,,,,,,,,,,,,,,,,,"2009-06-11"
"72243012960","2019-09-17T01:53:00","FM-15","7",,,,,,,,,,,,,,,,,,,,,,,,,,,,,,,,,,,,,,"29.90","73","76","0.00",,,,"91","29.90","FEW:02 7 FEW:02 20 FEW:02 75","29.79","10.00","74","060",,"6",,,,,,,,,,,,,,,,,,,,,,,,,,,,,,,,,,,,,"MET11409/17/19 01:53:02 METAR KIAH 170753Z 06005KT 10SM FEW007 FEW020 FEW075 24/23 A2990 RMK AO2 SLP125 T02440228 $ (CB)","FM-15","7",,,,,,,,,,,,,,,,,,,,,,,,,,,,"2009-06-11"
"72243012960","2019-09-17T02:53:00","FM-15","7",,,,,,,,,,,,,,,,,,,,,,,,,,,,,,,,,,,,,,"29.90","74","77","0.00",,"+0.02","6","90","29.90","FEW:02 7 SCT:04 50 BKN:07 90","29.79","10.00","75","030",,"5",,,,,,,,,,,,,,,,,,,,,,,,,,,,,,,,,,,,,"MET15109/17/19 02:53:02 METAR KIAH 170853Z 03004KT 10SM FEW007 SCT050 BKN090 25/23 A2990 RMK AO2 LTG DSNT S SLP125 CB DSNT SE-S MOV NW T02500233 56007 $ (CB)","FM-15","7",,,,,,,,,,,,,,,,,,,,,,,,,,,,"2009-06-11"
"72243012960","2019-09-17T03:41:00","FM-16","7",,,,,,,,,,,,,,,,,,,,,,,,,,,,,,,,,,,,,,"29.89","74","77",,,,,"90",,"BKN:07 8 BKN:07 24 BKN:07 90","29.78","10.00","75","050",,"8",,,,,,,,,,,,,,,,,,,,,,,,,,,,,,,,,,,,,"MET11709/17/19 03:41:02 SPECI KIAH 170941Z 05007KT 10SM BKN008 BKN024 BKN090 25/23 A2989 RMK AO2 CB DSIPTD T02500233 $ (CB)","FM-16","7",,,,,,,,,,,,,,,,,,,,,,,,,,,,"2009-06-11"
"72243012960","2019-09-17T03:53:00","FM-15","7",,,,,,,,,,,,,,,,,,,,,,,,,,,,,,,,,,,,,,"29.89","74","77","T","|RA |RA",,,"90","29.89","BKN:07 8 BKN:07 34 BKN:07 95","29.78","10.00","75","050",,"8",,,,,,,,,,,,,,,,,,,,,,,,,,,,,,,,,,,,,"MET14009/17/19 03:53:02 METAR KIAH 170953Z 05007KT 10SM -RA BKN008 BKN034 BKN095 25/23 A2989 RMK AO2 RAB42 SLP121 CB DSIPTD P0000 T02500233 $ (CB)","FM-15","7",,,,,,,,,,,,,,,,,,,,,,,,,,,,"2009-06-11"
"72243012960","2019-09-17T04:53:00","FM-15","7",,,,,,,,,,,,,,,,,,,,,,,,,,,,,,,,,,,,,,"29.89","74","77","0.05","-RA:02 |RA |RA",,,"90","29.89","BKN:07 6 OVC:08 16","29.78","8.00","75","070",,"6",,,,,,,,,,,,,,,,,,,,,,,,,,,,,,,,,,,,,"MET11609/17/19 04:53:02 METAR KIAH 171053Z 07005KT 8SM -RA BKN006 OVC016 25/23 A2989 RMK AO2 SLP123 P0005 T02500233 $ (CB)","FM-15","7",,,,,,,,,,,,,,,,,,,,,,,,,,,,"2009-06-11"
"72243012960","2019-09-17T05:53:00","FM-15","7",,,,,,,,,,,,,,,,,,,,,,,,,,,,,,,,,,,,,,"29.90","74","77","T","-RA:02 |RA |RA","+0.00","5","90","29.90","BKN:07 7 BKN:07 60 OVC:08 90","29.79","10.00","75","060",,"11",,,,,,,,,,,,,,,,,,,,,,,,,,,,,,,,,,,,,"MET19309/17/19 05:53:02 METAR KIAH 171153Z 06010KT 10SM -RA BKN007 BKN060 OVC090 25/23 A2990 RMK AO2 LTG DSNT SE RAE1056B30 SLP124 CB DSNT SE MOV NW P0000 60005 70005 T02500233 10250 20239 55001 (CB)","FM-15","7",,,,,,,,,,,,,,,,,,,,,,,,,,,,"2009-06-11"
"72243012960","2019-09-17T06:00:00","FM-12","4",,,,,,,,,,,,,,,,,,,,,,,,,,,,,,,,,,,,,,,"74","77",,"||RA","+0.00","5","90","29.90","8","29.77","9.94","75","060",,"11",,,,,,,,,,,,,,,,,,,,,,,,,,,,,,,,,,,,,"SYN09872243 11366 80610 10250 20233 30082 40124 55001 60011 761// 91153 333 10344 20239 70013 555 91712=","FM-12","4",,,,,,,,,,,,,,,,,,,,,,,,,,,,"2009-06-11"
"72243012960","2019-09-17T06:53:00","FM-15","7",,,,,,,,,,,,,,,,,,,,,,,,,,,,,,,,,,,,,,"29.92","74","77","0.00",,,,"90","29.91","BKN:07 8 BKN:07 21 OVC:08 110","29.81","7.00","75","070",,"11",,,,,,,,,,,,,,,,,,,,,,,,,,,,,,,,,,,,,"MET13409/17/19 06:53:02 METAR KIAH 171253Z 07010KT 7SM BKN008 BKN021 OVC110 25/23 A2992 RMK AO2 RAE1154 SLP130 VCSH E-S P0000 T02500233 (WS)","FM-15","7",,,,,,,,,,,,,,,,,,,,,,,,,,,,"2009-06-11"
"72243012960","2019-09-17T07:10:00","FM-16","7",,,,,,,,,,,,,,,,,,,,,,,,,,,,,,,,,,,,,,"29.92","74","77","T","+RA:02 BR:1 |RA |RA",,,"90",,"BKN:07 8 OVC:08 20","29.81","1.00","75","090",,"11",,,,,,,,,,,,,,,,,,,,,,,,,,,,,,,,,,,,,"MET11609/17/19 07:10:02 SPECI KIAH 171310Z 09010KT 1SM +RA BR BKN008 OVC020 25/23 A2992 RMK AO2 RAB02 P0000 T02500233 (WS)","FM-16","7",,,,,,,,,,,,,,,,,,,,,,,,,,,,"2009-06-11"
"72243012960","2019-09-17T07:23:00","FM-16","7",,,,,,,,,,,,,,,,,,,,,,,,,,,,,,,,,,,,,,"29.91","74","77","0.04","-RA:02 BR:1 |RA |RA",,,"90",,"BKN:07 8 BKN:07 25 OVC:08 50","29.80","5.00","75","070",,"10",,,,,,,,,,,,,,,,,,,,,,,,,,,,,,,,,,,,,"MET12309/17/19 07:23:02 SPECI KIAH 171323Z 07009KT 5SM -RA BR BKN008 BKN025 OVC050 25/23 A2991 RMK AO2 RAB02 P0004 T02500233 (WS)","FM-16","7",,,,,,,,,,,,,,,,,,,,,,,,,,,,"2009-06-11"
"72243012960","2019-09-17T07:53:00","FM-15","7",,,,,,,,,,,,,,,,,,,,,,,,,,,,,,,,,,,,,,"29.91","74","77","0.06","-RA:02 |RA |RA",,,"90","29.91","BKN:07 6 BKN:07 15 OVC:08 50","29.80","7.00","75","070",,"13",,,,,,,,,,,,,,,,,,,,,,,,,,,,,,,,,,,,,"MET12709/17/19 07:53:02 METAR KIAH 171353Z 07011KT 7SM -RA BKN006 BKN015 OVC050 25/23 A2991 RMK AO2 RAB02 SLP127 P0006 T02500233 (WS)","FM-15","7",,,,,,,,,,,,,,,,,,,,,,,,,,,,"2009-06-11"
"72243012960","2019-09-17T08:53:00","FM-15","7",,,,,,,,,,,,,,,,,,,,,,,,,,,,,,,,,,,,,,"29.92","75","77","T",,"-0.02","1","94","29.92","BKN:07 7 OVC:08 14","29.81","7.00","76","080",,"11",,,,,,,,,,,,,,,,,,,,,,,,,,,,,,,,,,,,,"MET12809/17/19 08:53:02 METAR KIAH 171453Z 08010KT 7SM BKN007 OVC014 25/24 A2992 RMK AO2 RAE26 SLP132 P0000 60006 T02500239 51008 (WS)","FM-15","7",,,,,,,,,,,,,,,,,,,,,,,,,,,,"2009-06-11"
"72243012960","2019-09-17T09:53:00","FM-15","7",,,,,,,,,,,,,,,,,,,,,,,,,,,,,,,,,,,,,,"29.93","74","76","0.03","|RA |RA",,,"94","29.92","BKN:07 8 BKN:07 65 BKN:07 90","29.82","7.00","75","090",,"11",,,,,,,,,,,,,,,,,,,,,,,,,,,,,,,,,,,,,"MET12709/17/19 09:53:02 METAR KIAH 171553Z 09010KT 7SM -RA BKN008 BKN065 BKN090 24/23 A2993 RMK AO2 RAB16 SLP133 P0003 T02440233 (WS)","FM-15","7",,,,,,,,,,,,,,,,,,,,,,,,,,,,"2009-06-11"
"72243012960","2019-09-17T10:34:00","FM-16","7",,,,,,,,,,,,,,,,,,,,,,,,,,,,,,,,,,,,,,"29.93","73","75","0.04","|RA |RA",,,"94",,"SCT:04 8 BKN:07 32 BKN:07 100","29.82","5.00","74","090",,"14",,,,,,,,,,,,,,,,,,,,,,,,,,,,,,,,,,,,,"MET11609/17/19 10:34:02 SPECI KIAH 171634Z 09012KT 5SM RA BR SCT008 BKN032 BKN100 24/23 A2993 RMK AO2 P0004 T02390228 (WS)","FM-16","7",,,,,,,,,,,,,,,,,,,,,,,,,,,,"2009-06-11"
"72243012960","2019-09-17T10:53:00","FM-15","7",,,,,,,,,,,,,,,,,,,,,,,,,,,,,,,,,,,,,,"29.94","73","76","0.05","|RA |RA",,,"91","29.93","FEW:02 8 BKN:07 30 BKN:07 100","29.83","7.00","74","050",,"9",,,,,,,,,,,,,,,,,,,,,,,,,,,,,,,,,,,,,"MET12109/17/19 10:53:02 METAR KIAH 171653Z 05008KT 7SM -RA FEW008 BKN030 BKN100 24/23 A2994 RMK AO2 SLP137 P0005 T02440228 (WS)","FM-15","7",,,,,,,,,,,,,,,,,,,,,,,,,,,,"2009-06-11"
"72243012960","2019-09-17T11:21:00","FM-16","7",,,,,,,,,,,,,,,,,,,,,,,,,,,,,,,,,,,,,,"29.93","74","77","T",,,,"90",,"BKN:07 8 BKN:07 30 OVC:08 60","29.82","7.00","75","060",,"10",,,,,,,,,,,,,,,,,,,,,,,,,,,,,,,,,,,,,"MET11609/17/19 11:21:02 SPECI KIAH 171721Z 06009KT 7SM BKN008 BKN030 OVC060 25/23 A2993 RMK AO2 RAE02 P0000 T02500233 (WS)","FM-16","7",,,,,,,,,,,,,,,,,,,,,,,,,,,,"2009-06-11"
"72243012960","2019-09-17T11:53:00","FM-15","7",,,,,,,,,,,,,,,,,,,,,,,,,,,,,,,,,,,,,,"29.92","75","80","T",,"-0.00","0","85","29.92","BKN:07 9 BKN:07 30 OVC:08 60","29.81","7.00","77","080",,"11",,,,,,,,,,,,,,,,,,,,,,,,,,,,,,,,,,,,,"MET14709/17/19 11:53:02 METAR KIAH 171753Z 08010KT 7SM BKN009 BKN030 OVC060 27/24 A2992 RMK AO2 RAE02 SLP133 P0000 60014 T02670239 10267 20239 50001 (WS)","FM-15","7",,,,,,,,,,,,,,,,,,,,,,,,,,,,"2009-06-11"
"72243012960","2019-09-17T12:00:00","FM-12","4",,,,,,,,,,,,,,,,,,,,,,,,,,,,,,,,,,,,,,,"75","80",,,"0.00","9","85","29.92","8","29.79","6.84","77","080",,"11",,,,,,,,,,,,,,,,,,,,,,,,,,,,,,,,,,,,,"SYN08672243 12361 80810 10267 20239 30088 40133 50001 60041 91753 333 10267 20239 555 91718=","FM-12","4",,,,,,,,,,,,,,,,,,,,,,,,,,,,"2009-06-11"
"72243012960","2019-09-17T12:15:00","FM-16","7",,,,,,,,,,,,,,,,,,,,,,,,,,,,,,,,,,,,,,"29.92","75","81",,,,,"82",,"BKN:07 10 OVC:08 30","29.81","7.00","77","090",,"9",,,,,,,,,,,,,,,,,,,,,,,,,,,,,,,,,,,,,"MET09709/17/19 12:15:02 SPECI KIAH 171815Z 09008KT 7SM BKN010 OVC030 27/24 A2992 RMK AO2 T02720239 (WS)","FM-16","7",,,,,,,,,,,,,,,,,,,,,,,,,,,,"2009-06-11"
"72243012960","2019-09-17T12:53:00","FM-15","7",,,,,,,,,,,,,,,,,,,,,,,,,,,,,,,,,,,,,,"29.90","75","80","T","-RA:02 |RA |RA",,,"85","29.90","BKN:07 12 OVC:08 30","29.79","7.00","77","090","23","14",,,,,,,,,,,,,,,,,,,,,,,,,,,,,,,,,,,,,"MET13409/17/19 12:53:02 METAR KIAH 171853Z 09012G20KT 7SM -RA BKN012 OVC030 27/24 A2990 RMK AO2 RAB23 SLP125 VIS N-NE 3 P0000 T02670239 (WS)","FM-15","7",,,,,,,,,,,,,,,,,,,,,,,,,,,,"2009-06-11"
"72243012960","2019-09-17T13:53:00","FM-15","7",,,,,,,,,,,,,,,,,,,,,,,,,,,,,,,,,,,,,,"29.87","75","80","0.01",,,,"85","29.86","BKN:07 11 BKN:07 32 OVC:08 160","29.76","10.00","77","080",,"13",,,,,,,,,,,,,,,,,,,,,,,,,,,,,,,,,,,,,"MET12409/17/19 13:53:02 METAR KIAH 171953Z 08011KT 10SM BKN011 BKN032 OVC160 27/24 A2987 RMK AO2 RAE48 SLP113 P0001 T02670239 (WS)","FM-15","7",,,,,,,,,,,,,,,,,,,,,,,,,,,,"2009-06-11"
"72243012960","2019-09-17T14:53:00","FM-15","7",,,,,,,,,,,,,,,,,,,,,,,,,,,,,,,,,,,,,,"29.84","75","82","0.00",,"+0.08","8","79","29.84","BKN:07 14 BKN:07 40 OVC:08 160","29.73","10.00","77","070","23","17",,,,,,,,,,,,,,,,,,,,,,,,,,,,,,,,,,,,,"MET12709/17/19 14:53:02 METAR KIAH 172053Z 07015G20KT 10SM BKN014 BKN040 OVC160 28/24 A2984 RMK AO2 SLP105 60001 T02780239 58027 (MS)","FM-15","7",,,,,,,,,,,,,,,,,,,,,,,,,,,,"2009-06-11"
"72243012960","2019-09-17T15:35:00","FM-16","7",,,,,,,,,,,,,,,,,,,,,,,,,,,,,,,,,,,,,,"29.83","73","80","T","-RA:02 |RA |RA",,,"79",,"BKN:07 19 BKN:07 44 OVC:08 160","29.72","10.00","75","070",,"17",,,,,,,,,,,,,,,,,,,,,,,,,,,,,,,,,,,,,"MET12109/17/19 15:35:02 SPECI KIAH 172135Z 07015KT 10SM -RA BKN019 BKN044 OVC160 27/23 A2983 RMK AO2 RAB17 P0000 T02670228 (MS)","FM-16","7",,,,,,,,,,,,,,,,,,,,,,,,,,,,"2009-06-11"
"72243012960","2019-09-17T15:53:00","FM-15","7",,,,,,,,,,,,,,,,,,,,,,,,,,,,,,,,,,,,,,"29.82","74","79","T","|RA |RA",,,"85","29.82","SCT:04 25 BKN:07 44 BKN:07 70","29.71","9.00","76","080",,"17",,,,,,,,,,,,,,,,,,,,,,,,,,,,,,,,,,,,,"MET13509/17/19 15:53:02 METAR KIAH 172153Z 08015KT 9SM -RA SCT025 BKN044 BKN070 26/23 A2982 RMK AO2 RAB17 SLP099 VIS S 2 P0000 T02610233 (MS)","FM-15","7",,,,,,,,,,,,,,,,,,,,,,,,,,,,"2009-06-11"
"72243012960","2019-09-17T16:19:00","FM-16","7",,,,,,,,,,,,,,,,,,,,,,,,,,,,,,,,,,,,,,"29.83","74","77","0.01","|RA |RA",,,"90",,"FEW:02 9 SCT:04 20 BKN:07 44","29.72","3.00","75","080","26","18",,,,,,,,,,,,,,,,,,,,,,,,,,,,,,,,,,,,,"MET13809/17/19 16:19:02 SPECI KIAH 172219Z 08016G23KT 3SM -RA BR FEW009 SCT020 BKN044 25/23 A2983 RMK AO2 PK WND 07029/2206 P0001 T02500233 (MS)","FM-16","7",,,,,,,,,,,,,,,,,,,,,,,,,,,,"2009-06-11"
"72243012960","2019-09-17T16:51:00","FM-16","6",,,,,,,,,,,,,,,,,,,,,,,,,,,,,,,,,,,,,,"29.82","73","77",,"RA:02 BR:1 |RA |RA",,,"89",,"FEW:02 11 BKN:07 20 OVC:08 40","29.71","4.00","74","070",,"14",,,,,,,,,,,,,,,,,,,,,,,,,,,,,,,,,,,,,"MET12909/17/19 16:51:02 SPECI KIAH 172251Z 07012KT 4SM RA BR FEW011 BKN020 OVC040 25/23 A2982 RMK AO2 PK WND 07029/2206 P0004 FIBI (MS)","FM-16","6",,,,,,,,,,,,,,,,,,,,,,,,,,,,"2009-06-11"
"72243012960","2019-09-17T16:53:00","FM-15","7",,,,,,,,,,,,,,,,,,,,,,,,,,,,,,,,,,,,,,"29.82","74","77","0.04","-RA:02 BR:1 |RA |RA",,,"90","29.82","FEW:02 11 BKN:07 20 OVC:08 40","29.71","4.00","75","070",,"16",,,,,,,,,,,,,,,,,,,,,,,,,,,,,,,,,,,,,"MET14209/17/19 16:53:02 METAR KIAH 172253Z 07014KT 4SM -RA BR FEW011 BKN020 OVC040 25/23 A2982 RMK AO2 PK WND 07029/2206 SLP097 P0004 T02500233 (MS)","FM-15","7",,,,,,,,,,,,,,,,,,,,,,,,,,,,"2009-06-11"
"72243012960","2019-09-17T17:53:00","FM-15","7",,,,,,,,,,,,,,,,,,,,,,,,,,,,,,,,,,,,,,"29.81","74","77","0.03","-RA:02 |RA |RA","+0.04","6","90","29.81","FEW:02 11 BKN:07 23 OVC:08 40","29.70","8.00","75","060","26","18",,,,,,,,,,,,,,,,,,,,,,,,,,,,,,,,,,,,,"MET14809/17/19 17:53:02 METAR KIAH 172353Z 06016G23KT 8SM -RA FEW011 BKN023 OVC040 25/23 A2981 RMK AO2 SLP094 P0002 60007 T02500233 10278 20250 56012 (MS)","FM-15","7",,,,,,,,,,,,,,,,,,,,,,,,,,,,"2009-06-11"
"72243012960","2019-09-17T18:00:00","FM-12","4",,,,,,,,,,,,,,,,,,,,,,,,,,,,,,,,,,,,,,,"74","77",,"||RA","+0.04","6","90","29.81","15","29.68","7.46","75","060",,"18",,,,,,,,,,,,,,,,,,,,,,,,,,,,,,,,,,,,,"SYN09872243 11462 80616 10250 20233 30051 40094 56012 60021 761// 92353 333 10278 20239 91023 555 91800=","FM-12","4",,,,,,,,,,,,,,,,,,,,,,,,,,,,"2009-06-11"
"72243012960","2019-09-17T18:53:00","FM-15","7",,,,,,,,,,,,,,,,,,,,,,,,,,,,,,,,,,,,,,"29.80","73","76","0.03","-RA:02 |RA |RA",,,"91","29.80","SCT:04 11 BKN:07 22 OVC:08 43","29.69","7.00","74","080","24","16",,,,,,,,,,,,,,,,,,,,,,,,,,,,,,,,,,,,,"MET11909/17/19 18:53:01 METAR KIAH 180053Z 08014G21KT 7SM -RA SCT011 BKN022 OVC043 24/23 A2980 RMK AO2 SLP092 P0004 T02440228","FM-15","7",,,,,,,,,,,,,,,,,,,,,,,,,,,,"2009-06-11"
"72243012960","2019-09-17T19:51:00","FM-16","6",,,,,,,,,,,,,,,,,,,,,,,,,,,,,,,,,,,,,,"29.82","73","75",,"-RA:02 |RA |RA",,,"94",,"BKN:07 10 OVC:08 25","29.71","7.00","74","080","32","24",,,,,,,,,,,,,,,,,,,,,,,,,,,,,,,,,,,,,"MET12509/17/19 19:51:03 SPECI KIAH 180151Z 08021G28KT 7SM -RA BKN010 OVC025 24/23 A2982 RMK AO2 PK WND 07028/0149 P0005 $ FIBI (MS)","FM-16","6",,,,,,,,,,,,,,,,,,,,,,,,,,,,"2009-06-11"
"72243012960","2019-09-17T19:53:00","FM-15","7",,,,,,,,,,,,,,,,,,,,,,,,,,,,,,,,,,,,,,"29.81","73","76","0.06","-RA:02 |RA |RA",,,"91","29.81","BKN:07 10 OVC:08 25","29.70","7.00","74","080","32","20",,,,,,,,,,,,,,,,,,,,,,,,,,,,,,,,,,,,,"MET13209/17/19 19:53:01 METAR KIAH 180153Z 08017G28KT 7SM -RA BKN010 OVC025 24/23 A2981 RMK AO2 PK WND 07028/0149 SLP095 P0005 T02440228 $","FM-15","7",,,,,,,,,,,,,,,,,,,,,,,,,,,,"2009-06-11"
"72243012960","2019-09-17T20:53:00","FM-15","7",,,,,,,,,,,,,,,,,,,,,,,,,,,,,,,,,,,,,,"29.83","73","76","0.01","RA:02 |RA |RA","-0.02","3","91","29.83","BKN:07 10 OVC:08 27","29.72","7.00","74","110",,"20",,,,,,,,,,,,,,,,,,,,,,,,,,,,,,,,,,,,,"MET14009/17/19 20:53:01 METAR KIAH 180253Z 11017KT 7SM RA BKN010 OVC027 24/23 A2983 RMK AO2 PK WND 10028/0214 SLP100 P0002 60011 T02440228 53006 $","FM-15","7",,,,,,,,,,,,,,,,,,,,,,,,,,,,"2009-06-11"
"72243012960","2019-09-17T21:53:00","FM-15","7",,,,,,,,,,,,,,,,,,,,,,,,,,,,,,,,,,,,,,"29.82","73","78","0.03","RA:02 BR:1 |RA |RA",,,"85","29.82","BKN:07 10 OVC:08 28","29.71","5.00","75","120","29","20",,,,,,,,,,,,,,,,,,,,,,,,,,,,,,,,,,,,,"MET13409/17/19 21:53:02 METAR KIAH 180353Z 12017G25KT 5SM RA BR BKN010 OVC028 26/23 A2982 RMK AO2 PK WND 12027/0341 SLP098 P0002 T02560228 $","FM-15","7",,,,,,,,,,,,,,,,,,,,,,,,,,,,"2009-06-11"
"72243012960","2019-09-17T22:15:00","FM-16","7",,,,,,,,,,,,,,,,,,,,,,,,,,,,,,,,,,,,,,"29.82","74","76","0.04","+RA:02 BR:1 |RA |RA",,,"94",,"BKN:07 8 OVC:08 20","29.71","4.00","75","120",,"15",,,,,,,,,,,,,,,,,,,,,,,,,,,,,,,,,,,,,"MET12509/17/19 22:15:02 SPECI KIAH 180415Z 12013KT 4SM +RA BR BKN008 OVC020 24/23 A2982 RMK AO2 PK WND 13026/0357 P0004 T02440233 $","FM-16","7",,,,,,,,,,,,,,,,,,,,,,,,,,,,"2009-06-11"
"72243012960","2019-09-17T22:53:00","FM-15","7",,,,,,,,,,,,,,,,,,,,,,,,,,,,,,,,,,,,,,"29.82","74","76","0.14","RA:02 BR:1 |RA |RA",,,"94","29.82","BKN:07 8 OVC:08 16","29.71","5.00","75","130","28","21",,,,,,,,,,,,,,,,,,,,,,,,,,,,,,,,,,,,,"MET13409/17/19 22:53:01 METAR KIAH 180453Z 13018G24KT 5SM RA BR BKN008 OVC016 24/23 A2982 RMK AO2 PK WND 12026/0417 SLP099 P0014 T02440233 /","FM-15","7",,,,,,,,,,,,,,,,,,,,,,,,,,,,"2009-06-11"
"72243012960","2019-09-17T23:53:00","FM-15","7",,,,,,,,,,,,,,,,,,,,,,,,,,,,,,,,,,,,,,"29.82","74","76","0.06","-RA:02 BR:1 |RA |RA","+0.01","6","94","29.82","BKN:07 8 OVC:08 17","29.71","4.00","75","140",,"20",,,,,,,,,,,,,,,,,,,,,,,,,,,,,,,,,,,,,"MET14809/17/19 23:53:02 METAR KIAH 180553Z 14017KT 4SM -RA BR BKN008 OVC017 24/23 A2982 RMK AO2 SLP098 P0006 60033 T02440233 10256 20244 402780239 56002 $","FM-15","7",,,,,,,,,,,,,,,,,,,,,,,,,,,,"2009-06-11"
"72243012960","2019-09-17T23:59:00","SOD  ","6",,,,,,,,,,,,,,,,"79",,,"29.75",,"13.3","14","-0.7","0","82","75","070","33","0.60","0","0.0","080","26","RA BR",,,,,,,,,,,,,,,,,,,,,,,,,,,,,,,,,,,,,,,,,,,,,,,,,,,,,,,,"SOD75624 HR PRECIPITATION (IN): 0.60 SNOW DEPTH (IN):0     24 HR SNOWFALL (IN):0.0  WEATHER(CODE):1  24 HR MAX TEMP (F): 8224 HR MIN TEMP (F): 75AVERAGE STATION PRESSURE:29.745 MINIMUM SEA LEVEL PRESSURE:29.80 TIME OF OCCURRENCE:1937 PEAK WIND SPEED (MPH): 33 PEAK WIND DIR (DEG): 70 PEAK WIND TIME (LST):      FASTEST 2MIN SPEED (MPH): 26FASTEST 2MIN DIR (DEG): 80 FASTEST 2MIN TIME (LST):     AVERAGE WIND SPEED (MPH):13.3 24 HR AVG TEMP (F): 79DEPART FROM NORMAL: -1  HEATING DEGREE DAYS:  0 COOLING DEGREE DAYS: 14 LATEST DAY MAX TEMP (0700-1900 LST):82  LATEST NIGHT MIN TEMP(1900-0800 LST):75 HOURLY INCREMENTAL PRECIPITATION VALUES (IN):.00 0.00 0.00 T    0.05 T    0.00 0.06 T    0.03 0.05 T    T    0.01 0.00 T    0.04 0.03 0.03 0.06 0.01 0.03 0.14 0.06","SOD  ","6",,,,,,,,,,,,,,,,,,,,,,,,,"0607","1824",,"2009-06-11"
"72243012960","2019-09-18T00:00:00","FM-12","4",,,,,,,,,,,,,,,,,,,,,,,,,,,,,,,,,,,,,,,"74","76",,"||RA","+0.01","6","94","29.82","8","29.69","3.73","75","140",,"20",,,,,,,,,,,,,,,,,,,,,,,,,,,,,,,,,,,,,"SYN09872243 11356 81417 10244 20233 30055 40098 56002 60081 761// 90553 333 10256 20239 96010 555 91806=","FM-12","4",,,,,,,,,,,,,,,,,,,,,,,,,,,,"2009-06-11"
"72243012960","2019-09-18T00:53:00","FM-15","6",,,,,,,,,,,,,,,,,,,,,,,,,,,,,,,,,,,,,,"29.83","74","76","0.12","RA:02 BR:1 |RA |RA",,,"94","29.82","SCT:04 6 BKN:07 14 OVC:08 34","29.72","2.00","75","150",,"16",,,,,,,,,,,,,,,,,,,,,,,,,,,,,,,,,,,,,"MET12509/18/19 00:53:02 METAR KIAH 180653Z 15014KT 2SM RA BR SCT006 BKN014 OVC034 24/23 A2983 RMK AO2 SLP099 P0011 T02440233 $ (CB)","FM-15","6",,,,,,,,,,,,,,,,,,,,,,,,,,,,"2009-06-11"
"72243012960","2019-09-18T01:13:00","FM-16","6",,,,,,,,,,,,,,,,,,,,,,,,,,,,,,,,,,,,,,"29.82","74","76",,"+RA:02 BR:1 |RA |RA",,,"94",,"BKN:07 6 BKN:07 14 OVC:08 33","29.71","2.00","75","160",,"11",,,,,,,,,,,,,,,,,,,,,,,,,,,,,,,,,,,,,"MET11909/18/19 01:13:02 SPECI KIAH 180713Z 16010KT 2SM +RA BR BKN006 BKN014 OVC033 24/23 A2982 RMK AO2 P0011 T02440233 $ (CB)","FM-16","6",,,,,,,,,,,,,,,,,,,,,,,,,,,,"2009-06-11"
"72243012960","2019-09-18T01:53:00","FM-15","6",,,,,,,,,,,,,,,,,,,,,,,,,,,,,,,,,,,,,,"29.82","74","76","0.39","+RA:02 BR:1 |RA |RA",,,"94","29.82","BKN:07 6 BKN:07 15 OVC:08 28","29.71","2.00","75","170",,"9",,,,,,,,,,,,,,,,,,,,,,,,,,,,,,,,,,,,,"MET12609/18/19 01:53:02 METAR KIAH 180753Z 17008KT 2SM +RA BR BKN006 BKN015 OVC028 24/23 A2982 RMK AO2 SLP097 P0038 T02440233 $ (CB)","FM-15","6",,,,,,,,,,,,,,,,,,,,,,,,,,,,"2009-06-11"
"72243012960","2019-09-18T02:16:00","FM-16","6",,,,,,,,,,,,,,,,,,,,,,,,,,,,,,,,,,,,,,"29.82","74","76",,"-RA:02 BR:1 |RA |RA",,,"94",,"BKN:07 6 BKN:07 13 OVC:08 25","29.71","4.00","75","170",,"5",,,,,,,,,,,,,,,,,,,,,,,,,,,,,,,,,,,,,"MET11909/18/19 02:16:02 SPECI KIAH 180816Z 17004KT 4SM -RA BR BKN006 BKN013 OVC025 24/23 A2982 RMK AO2 P0006 T02440233 $ (CB)","FM-16","6",,,,,,,,,,,,,,,,,,,,,,,,,,,,"2009-06-11"
"72243012960","2019-09-18T02:53:00","FM-15","6",,,,,,,,,,,,,,,,,,,,,,,,,,,,,,,,,,,,,,"29.82","74","76","0.05","-RA:02 BR:1 |RA |RA","+0.01","8","94","29.81","BKN:07 5 BKN:07 13 OVC:08 29","29.71","5.00","75","230",,"5",,,,,,,,,,,,,,,,,,,,,,,,,,,,,,,,,,,,,"MET13809/18/19 02:53:02 METAR KIAH 180853Z 23004KT 5SM -RA BR BKN005 BKN013 OVC029 24/23 A2982 RMK AO2 SLP096 P0008 60057 T02440233 58002 $ (CB)","FM-15","6",,,,,,,,,,,,,,,,,,,,,,,,,,,,"2009-06-11"
"72243012960","2019-09-18T03:29:00","FM-16","6",,,,,,,,,,,,,,,,,,,,,,,,,,,,,,,,,,,,,,"29.81","74","76",,"-RA:02 |RA |RA",,,"94",,"SCT:04 5 BKN:07 14 OVC:08 40","29.70","8.00","75","170",,"7",,,,,,,,,,,,,,,,,,,,,,,,,,,,,,,,,,,,,"MET12509/18/19 03:29:02 SPECI KIAH 180929Z 17006KT 8SM -RA SCT005 BKN014 OVC040 24/23 A2981 RMK AO2 RAE08B27 P0000 T02440233 $ (CB)","FM-16","6",,,,,,,,,,,,,,,,,,,,,,,,,,,,"2009-06-11"
"72243012960","2019-09-18T03:53:00","FM-15","7",,,,,,,,,,,,,,,,,,,,,,,,,,,,,,,,,,,,,,"29.82","74","76","0.01","-RA:02 |RA |RA",,,"94","29.81","BKN:07 10 OVC:08 20","29.71","10.00","75","180",,"7",,,,,,,,,,,,,,,,,,,,,,,,,,,,,,,,,,,,,"MET12609/18/19 03:53:02 METAR KIAH 180953Z 18006KT 10SM -RA BKN010 OVC020 24/23 A2982 RMK AO2 RAE08B27 SLP096 P0001 T02440233 $ (CB)","FM-15","7",,,,,,,,,,,,,,,,,,,,,,,,,,,,"2009-06-11"
"72243012960","2019-09-18T04:53:00","FM-15","7",,,,,,,,,,,,,,,,,,,,,,,,,,,,,,,,,,,,,,"29.83","74","76","0.02",,,,"94","29.83","BKN:07 10 OVC:08 15","29.72","10.00","75","200",,"7",,,,,,,,,,,,,,,,,,,,,,,,,,,,,,,,,,,,,"MET11909/18/19 04:53:02 METAR KIAH 181053Z 20006KT 10SM BKN010 OVC015 24/23 A2983 RMK AO2 RAE44 SLP100 P0002 T02440233 $ (CB)","FM-15","7",,,,,,,,,,,,,,,,,,,,,,,,,,,,"2009-06-11"
"72243012960","2019-09-18T05:53:00","FM-15","7",,,,,,,,,,,,,,,,,,,,,,,,,,,,,,,,,,,,,,"29.84","74","76","0.02","-RA:02 |RA |RA","-0.02","3","94","29.83","SCT:04 7 OVC:08 11","29.73","7.00","75","190",,"8",,,,,,,,,,,,,,,,,,,,,,,,,,,,,,,,,,,,,"MET15209/18/19 05:53:02 METAR KIAH 181153Z 19007KT 7SM -RA SCT007 OVC011 24/23 A2984 RMK AO2 RAB1057 SLP103 P0001 60061 70115 T02440233 10244 20244 53007 (CB)","FM-15","7",,,,,,,,,,,,,,,,,,,,,,,,,,,,"2009-06-11"
"72243012960","2019-09-18T06:00:00","FM-12","4",,,,,,,,,,,,,,,,,,,,,,,,,,,,,,,,,,,,,,,"74","76",,"||RA","-0.02","3","94","29.83","8","29.71","6.84","75","190",,"8",,,,,,,,,,,,,,,,,,,,,,,,,,,,,,,,,,,,,"SYN09872243 11361 81907 10244 20233 30061 40103 53007 60151 761// 91153 333 10278 20244 70292 555 91812=","FM-12","4",,,,,,,,,,,,,,,,,,,,,,,,,,,,"2009-06-11"
"72243012960","2019-09-18T06:24:00","FM-16","7",,,,,,,,,,,,,,,,,,,,,,,,,,,,,,,,,,,,,,"29.84","74","76","0.02","RA:02 BR:1 |RA |RA",,,"94",,"BKN:07 7 OVC:08 15","29.73","1.50","75","200",,"7",,,,,,,,,,,,,,,,,,,,,,,,,,,,,,,,,,,,,"MET11309/18/19 06:24:02 SPECI KIAH 181224Z 20006KT 1 1/2SM RA BR BKN007 OVC015 24/23 A2984 RMK AO2 P0002 T02440233 (WS)","FM-16","7",,,,,,,,,,,,,,,,,,,,,,,,,,,,"2009-06-11"
"72243012960","2019-09-18T06:53:00","FM-15","7",,,,,,,,,,,,,,,,,,,,,,,,,,,,,,,,,,,,,,"29.85","74","76","0.19","+RA:02 BR:1 |RA |RA",,,"94","29.84","BKN:07 5 OVC:08 15","29.74","1.00","75","170",,"10",,,,,,,,,,,,,,,,,,,,,,,,,,,,,,,,,,,,,"MET11709/18/19 06:53:02 METAR KIAH 181253Z 17009KT 1SM +RA BR BKN005 OVC015 24/23 A2985 RMK AO2 SLP106 P0011 T02440233 (WS)","FM-15","7",,,,,,,,,,,,,,,,,,,,,,,,,,,,"2009-06-11"
"72243012960","2019-09-18T07:33:00","FM-16","7",,,,,,,,,,,,,,,,,,,,,,,,,,,,,,,,,,,,,,"29.85","74","76","0.32","RA:02 BR:1 |RA |RA",,,"94",,"BKN:07 5 OVC:08 12","29.74","3.00","75","220",,"6",,,,,,,,,,,,,,,,,,,,,,,,,,,,,,,,,,,,,"MET10909/18/19 07:33:02 SPECI KIAH 181333Z 22005KT 3SM RA BR BKN005 OVC012 24/23 A2985 RMK AO2 P0032 T02440233 (WS)","FM-16","7",,,,,,,,,,,,,,,,,,,,,,,,,,,,"2009-06-11"
"72243012960","2019-09-18T07:53:00","FM-15","7",,,,,,,,,,,,,,,,,,,,,,,,,,,,,,,,,,,,,,"29.86","73","76","0.26","-RA:02 BR:1 |RA |RA",,,"91","29.85","SCT:04 5 BKN:07 10 OVC:08 20","29.75","5.00","74","200","17","10",,,,,,,,,,,,,,,,,,,,,,,,,,,,,,,,,,,,,"MET12709/18/19 07:53:02 METAR KIAH 181353Z 20009G15KT 5SM -RA BR SCT005 BKN010 OVC020 24/23 A2986 RMK AO2 SLP110 P0035 T02440228 (WS)","FM-15","7",,,,,,,,,,,,,,,,,,,,,,,,,,,,"2009-06-11"
"72243012960","2019-09-18T08:36:00","FM-16","7",,,,,,,,,,,,,,,,,,,,,,,,,,,,,,,,,,,,,,"29.87","74","76","0.04","RA:02 BR:1 |RA |RA",,,"94",,"SCT:04 7 BKN:07 12 OVC:08 18","29.76","2.00","75","200",,"9",,,,,,,,,,,,,,,,,,,,,,,,,,,,,,,,,,,,,"MET11609/18/19 08:36:02 SPECI KIAH 181436Z 20008KT 2SM RA BR SCT007 BKN012 OVC018 24/23 A2987 RMK AO2 P0004 T02440233 (WS)","FM-16","7",,,,,,,,,,,,,,,,,,,,,,,,,,,,"2009-06-11"
"72243012960","2019-09-18T08:53:00","FM-15","7",,,,,,,,,,,,,,,,,,,,,,,,,,,,,,,,,,,,,,"29.87","74","76","0.06","-RA:02 BR:1 |RA |RA","-0.03","3","94","29.87","BKN:07 9 OVC:08 18","29.76","3.00","75","200",,"8",,,,,,,,,,,,,,,,,,,,,,,,,,,,,,,,,,,,,"MET12909/18/19 08:53:02 METAR KIAH 181453Z 20007KT 3SM -RA BR BKN009 OVC018 24/23 A2987 RMK AO2 SLP114 P0006 60052 T02440233 53011 (WS)","FM-15","7",,,,,,,,,,,,,,,,,,,,,,,,,,,,"2009-06-11"
"72243012960","2019-09-18T09:30:00","FM-16","7",,,,,,,,,,,,,,,,,,,,,,,,,,,,,,,,,,,,,,"29.88","74","76","0.06","+RA:02 BR:1 |RA |RA",,,"94",,"OVC:08 8","29.77","1.50","75","220",,"10",,,,,,,,,,,,,,,,,,,,,,,,,,,,,,,,,,,,,"MET10709/18/19 09:30:02 SPECI KIAH 181530Z 22009KT 1 1/2SM +RA BR OVC008 24/23 A2988 RMK AO2 P0006 T02440233 (WS)","FM-16","7",,,,,,,,,,,,,,,,,,,,,,,,,,,,"2009-06-11"
"72243012960","2019-09-18T09:53:00","FM-15","7",,,,,,,,,,,,,,,,,,,,,,,,,,,,,,,,,,,,,,"29.89","74","76","0.26","+RA:02 BR:1 |RA |RA",,,"94","29.88","OVC:08 6","29.78","1.00","75","210",,"7",,,,,,,,,,,,,,,,,,,,,,,,,,,,,,,,,,,,,"MET11009/18/19 09:53:02 METAR KIAH 181553Z 21006KT 1SM +RA BR OVC006 24/23 A2989 RMK AO2 SLP120 P0020 T02440233 (WS)","FM-15","7",,,,,,,,,,,,,,,,,,,,,,,,,,,,"2009-06-11"
"72243012960","2019-09-18T10:37:00","FM-16","7",,,,,,,,,,,,,,,,,,,,,,,,,,,,,,,,,,,,,,"29.89","74","76","0.43","RA:02 BR:1 |RA |RA",,,"94",,"BKN:07 8 BKN:07 19 OVC:08 55","29.78","2.00","75","210",,"6",,,,,,,,,,,,,,,,,,,,,,,,,,,,,,,,,,,,,"MET11609/18/19 10:37:02 SPECI KIAH 181637Z 21005KT 2SM RA BR BKN008 BKN019 OVC055 24/23 A2989 RMK AO2 P0043 T02440233 (WS)","FM-16","7",,,,,,,,,,,,,,,,,,,,,,,,,,,,"2009-06-11"
"72243012960","2019-09-18T10:53:00","FM-15","7",,,,,,,,,,,,,,,,,,,,,,,,,,,,,,,,,,,,,,"29.89","74","76","0.39","-RA:02 |RA |RA",,,"94","29.89","BKN:07 10 BKN:07 19 OVC:08 50","29.78","7.00","75","VRB",,"5",,,,,,,,,,,,,,,,,,,,,,,,,,,,,,,,,,,,,"MET12109/18/19 10:53:02 METAR KIAH 181653Z VRB04KT 7SM -RA BKN010 BKN019 OVC050 24/23 A2989 RMK AO2 SLP122 P0045 T02440233 (WS)","FM-15","7",,,,,,,,,,,,,,,,,,,,,,,,,,,,"2009-06-11"
"72243012960","2019-09-18T11:33:00","FM-16","7",,,,,,,,,,,,,,,,,,,,,,,,,,,,,,,,,,,,,,"29.89","75","77","0.01","-RA:02 |RA |RA",,,"94",,"FEW:02 8 BKN:07 15 OVC:08 85","29.78","10.00","76","190",,"7",,,,,,,,,,,,,,,,,,,,,,,,,,,,,,,,,,,,,"MET11509/18/19 11:33:02 SPECI KIAH 181733Z 19006KT 10SM -RA FEW008 BKN015 OVC085 25/24 A2989 RMK AO2 P0001 T02500239 (WS)","FM-16","7",,,,,,,,,,,,,,,,,,,,,,,,,,,,"2009-06-11"
"72243012960","2019-09-18T11:53:00","FM-15","7",,,,,,,,,,,,,,,,,,,,,,,,,,,,,,,,,,,,,,"29.88","75","78","0.01","-RA:02 |RA |RA","-0.01","0","90","29.88","FEW:02 9 BKN:07 15 OVC:08 85","29.77","10.00","76","190",,"5",,,,,,,,,,,,,,,,,,,,,,,,,,,,,,,,,,,,,"MET14609/18/19 11:53:02 METAR KIAH 181753Z 19004KT 10SM -RA FEW009 BKN015 OVC085 26/24 A2988 RMK AO2 SLP119 P0001 60118 T02560239 10256 20239 50004 (WS)","FM-15","7",,,,,,,,,,,,,,,,,,,,,,,,,,,,"2009-06-11"
"72243012960","2019-09-18T12:00:00","FM-12","4",,,,,,,,,,,,,,,,,,,,,,,,,,,,,,,,,,,,,,,"75","78",,"||RA","0.01","9","90","29.88","8","29.75","9.94","76","190",,"5",,,,,,,,,,,,,,,,,,,,,,,,,,,,,,,,,,,,,"SYN09272243 11366 81904 10256 20239 30075 40119 50004 60301 761// 91753 333 10256 20239 555 91818=","FM-12","4",,,,,,,,,,,,,,,,,,,,,,,,,,,,"2009-06-11"
"72243012960","2019-09-18T12:51:00","FM-16","6",,,,,,,,,,,,,,,,,,,,,,,,,,,,,,,,,,,,,,"29.87","75","79",,,,,"89",,"BKN:07 12 OVC:08 85","29.76","10.00","76","200",,"6",,,,,,,,,,,,,,,,,,,,,,,,,,,,,,,,,,,,,"MET11309/18/19 12:51:02 SPECI KIAH 181851Z 20005KT 10SM BKN012 OVC085 26/24 A2987 RMK AO2 RAE1755B28E47 P0001 FIBI (WS)","FM-16","6",,,,,,,,,,,,,,,,,,,,,,,,,,,,"2009-06-11"
"72243012960","2019-09-18T12:53:00","FM-15","7",,,,,,,,,,,,,,,,,,,,,,,,,,,,,,,,,,,,,,"29.87","75","79","0.01",,,,"88","29.87","BKN:07 12 OVC:08 85","29.76","10.00","76","200",,"6",,,,,,,,,,,,,,,,,,,,,,,,,,,,,,,,,,,,,"MET12509/18/19 12:53:02 METAR KIAH 181853Z 20005KT 10SM BKN012 OVC085 26/24 A2987 RMK AO2 RAE1755B28E47 SLP115 P0001 T02610239 (WS)","FM-15","7",,,,,,,,,,,,,,,,,,,,,,,,,,,,"2009-06-11"
"72243012960","2019-09-18T13:19:00","FM-16","7",,,,,,,,,,,,,,,,,,,,,,,,,,,,,,,,,,,,,,"29.87","76","80","T","-RA:02 |RA |RA",,,"87",,"SCT:04 12 BKN:07 47 OVC:08 80","29.76","10.00","77","190",,"3",,,,,,,,,,,,,,,,,,,,,,,,,,,,,,,,,,,,,"MET12109/18/19 13:19:02 SPECI KIAH 181919Z 19003KT 10SM -RA SCT012 BKN047 OVC080 27/24 A2987 RMK AO2 RAB01 P0000 T02670244 (WS)","FM-16","7",,,,,,,,,,,,,,,,,,,,,,,,,,,,"2009-06-11"
"72243012960","2019-09-18T13:53:00","FM-15","7",,,,,,,,,,,,,,,,,,,,,,,,,,,,,,,,,,,,,,"29.85","76","80","0.01","|RA |RA",,,"87","29.85","SCT:04 21 BKN:07 28 BKN:07 80","29.74","10.00","77","210",,"3",,,,,,,,,,,,,,,,,,,,,,,,,,,,,,,,,,,,,"MET14009/18/19 13:53:02 METAR KIAH 181953Z 21003KT 10SM -RA SCT021 BKN028 BKN080 27/24 A2985 RMK AO2 RAB01 SLP108 MDT CU SE-S P0001 T02670244 (WS)","FM-15","7",,,,,,,,,,,,,,,,,,,,,,,,,,,,"2009-06-11"
"72243012960","2019-09-18T14:53:00","FM-15","7",,,,,,,,,,,,,,,,,,,,,,,,,,,,,,,,,,,,,,"29.84","76","83","T",,"+0.04","6","79","29.84","FEW:02 12 BKN:07 22 BKN:07 65","29.73","10.00","78","350",,"3",,,,,,,,,,,,,,,,,,,,,,,,,,,,,,,,,,,,,"MET18509/18/19 14:53:02 METAR KIAH 182053Z 35003KT 10SM FEW012 BKN022 BKN065 28/24 A2984 RMK AO2 RAE1957B30E44 SLP105 VCSH NE-SE-SW CB DSNT NE AND SE-SW MOV E P0000 60002 T02830244 56013 (MM)","FM-15","7",,,,,,,,,,,,,,,,,,,,,,,,,,,,"2009-06-11"
"72243012960","2019-09-18T15:40:00","FM-16","7",,,,,,,,,,,,,,,,,,,,,,,,,,,,,,,,,,,,,,"29.84","76","82","T","|RA |RA",,,"82",,"FEW:02 10 SCT:04 25 BKN:07 40","29.73","10.00","78","070",,"3",,,,,,,,,,,,,,,,,,,,,,,,,,,,,,,,,,,,,"MET15209/18/19 15:40:02 SPECI KIAH 182140Z 07003KT 10SM -RA FEW010 SCT025 BKN040 28/24 A2984 RMK AO2 LTG DSNT S RAB30 CB DSNT SE-SW MOV E P0000 T02780244 (MM)","FM-16","7",,,,,,,,,,,,,,,,,,,,,,,,,,,,"2009-06-11"
"72243012960","2019-09-18T15:53:00","FM-15","7",,,,,,,,,,,,,,,,,,,,,,,,,,,,,,,,,,,,,,"29.83","77","82","T",,,,"85","29.83","FEW:02 8 SCT:04 25 BKN:07 40","29.72","10.00","78","050",,"5",,,,,,,,,,,,,,,,,,,,,,,,,,,,,,,,,,,,,"MET16309/18/19 15:53:02 METAR KIAH 182153Z 05004KT 10SM FEW008 SCT025 BKN040 28/25 A2983 RMK AO2 LTG DSNT E-S RAB30E44 SLP101 CB DSNT NE-SE-SW MOV E P0000 T02780250 (MM)","FM-15","7",,,,,,,,,,,,,,,,,,,,,,,,,,,,"2009-06-11"
"72243012960","2019-09-18T16:53:00","FM-15","7",,,,,,,,,,,,,,,,,,,,,,,,,,,,,,,,,,,,,,"29.83","76","81","T",,,,"85","29.83","FEW:02 9 BKN:07 35 BKN:07 60","29.72","10.00","77","050",,"7",,,,,,,,,,,,,,,,,,,,,,,,,,,,,,,,,,,,,"MET19609/18/19 16:53:02 METAR KIAH 182253Z 05006KT 10SM FEW009 BKN035 BKN060 27/24 A2983 RMK AO2 LTG DSNT SE-SW RAB27E50 SLP102 VCSH W-NW OCNL LTGICCG DSNT SE-SW CB DSNT SE-SW MOV E P0000 T02720244 (MM)","FM-15","7",,,,,,,,,,,,,,,,,,,,,,,,,,,,"2009-06-11"
"72243012960","2019-09-18T17:11:00","FM-16","7",,,,,,,,,,,,,,,,,,,,,,,,,,,,,,,,,,,,,,"29.85","76","81","0.01","|RA |RA",,,"85",,"FEW:02 8 SCT:04 20 BKN:07 35","29.74","1.25","77","140",,"3",,,,,,,,,,,,,,,,,,,,,,,,,,,,,,,,,,,,,"MET15909/18/19 17:11:02 SPECI KIAH 182311Z 14003KT 1 1/4SM +RA FEW008 SCT020 BKN035 27/24 A2985 RMK AO2 LTG DSNT SE-SW RAB05 CB DSNT SE-SW MOV E P0001 T02720244 (MM)","FM-16","7",,,,,,,,,,,,,,,,,,,,,,,,,,,,"2009-06-11"
"72243012960","2019-09-18T17:24:00","FM-16","7",,,,,,,,,,,,,,,,,,,,,,,,,,,,,,,,,,,,,,"29.85","77","79","0.19","|RA |RA",,,"94",,"FEW:02 5 SCT:04 20 BKN:07 35","29.74","4.00","78","150",,"7",,,,,,,,,,,,,,,,,,,,,,,,,,,,,,,,,,,,,"MET17309/18/19 17:24:02 SPECI KIAH 182324Z 15006KT 4SM -RA BR FEW005 SCT020 BKN035 26/25 A2985 RMK AO2 LTG DSNT SE-SW RAB05 VIS SE-S 1 1/2 CB DSNT SE-SW MOV E P0019 T02610250 (MM)","FM-16","7",,,,,,,,,,,,,,,,,,,,,,,,,,,,"2009-06-11"
"72243012960","2019-09-18T17:53:00","FM-15","7",,,,,,,,,,,,,,,,,,,,,,,,,,,,,,,,,,,,,,"29.85","77","80","0.19",,"-0.00","3","90","29.84","FEW:02 5 SCT:04 20 BKN:07 33","29.74","7.00","78","110",,"3",,,,,,,,,,,,,,,,,,,,,,,,,,,,,,,,,,,,,"MET19409/18/19 17:53:02 METAR KIAH 182353Z 11003KT 7SM FEW005 SCT020 BKN033 27/25 A2985 RMK AO2 LTG DSNT SE-W RAB05E26 SLP106 VCSH E-SE CB DSNT SE-SW MOV E P0019 60021 T02670250 10283 20256 53001 (MM)","FM-15","7",,,,,,,,,,,,,,,,,,,,,,,,,,,,"2009-06-11"
"72243012960","2019-09-18T18:00:00","FM-12","4",,,,,,,,,,,,,,,,,,,,,,,,,,,,,,,,,,,,,,,"77","80",,,"-0.00","3","90","29.84","5","29.72","6.84","78","110",,"3",,,,,,,,,,,,,,,,,,,,,,,,,,,,,,,,,,,,,"SYN08672243 12261 81103 10267 20250 30065 40106 53001 60051 92353 333 10283 20244 555 91900=","FM-12","4",,,,,,,,,,,,,,,,,,,,,,,,,,,,"2009-06-11"
"72243012960","2019-09-18T18:25:00","FM-16","6",,,,,,,,,,,,,,,,,,,,,,,,,,,,,,,,,,,,,,"29.84","76","79",,,,,"90",,"FEW:02 6 BKN:07 27 BKN:07 80","29.73","7.00","77","150",,"8",,,,,,,,,,,,,,,,,,,,,,,,,,,,,,,,,,,,,"MET15309/18/19 18:25:03 SPECI KIAH 190025Z 15007KT 7SM FEW006 BKN027 BKN080 26/24 A2984 RMK AO2 LTG DSNT E AND SE VCSH NW-NE CB DSNT SE-SW MOV E T02610244 (MM)","FM-16","6",,,,,,,,,,,,,,,,,,,,,,,,,,,,"2009-06-11"
"72243012960","2019-09-18T18:28:00","FM-16","7",,,,,,,,,,,,,,,,,,,,,,,,,,,,,,,,,,,,,,"29.85","77","79",,,,,"94",,"FEW:02 6 BKN:07 27 BKN:07 80","29.74","7.00","78","140",,"7",,,,,,,,,,,,,,,,,,,,,,,,,,,,,,,,,,,,,"MET15109/18/19 18:28:01 SPECI KIAH 190028Z 14006KT 7SM FEW006 BKN027 BKN080 26/25 A2985 RMK AO2 LTG DSNT E AND S VCSH NW-N-NE CB DSNT E-SE-SW MOV E T02610250","FM-16","7",,,,,,,,,,,,,,,,,,,,,,,,,,,,"2009-06-11"
"72243012960","2019-09-18T18:53:00","FM-15","7",,,,,,,,,,,,,,,,,,,,,,,,,,,,,,,,,,,,,,"29.85","76","78","0.00",,,,"93","29.85","FEW:02 6 BKN:07 23 BKN:07 80","29.74","7.00","77","110",,"7",,,,,,,,,,,,,,,,,,,,,,,,,,,,,,,,,,,,,"MET14909/18/19 18:53:01 METAR KIAH 190053Z 11006KT 7SM FEW006 BKN023 BKN080 26/24 A2985 RMK AO2 LTG DSNT S SLP109 VCSH NE-E CB DSNT E-SE-SW MOV E T02560244","FM-15","7",,,,,,,,,,,,,,,,,,,,,,,,,,,,"2009-06-11"
"72243012960","2019-09-18T19:10:00","FM-16","7",,,,,,,,,,,,,,,,,,,,,,,,,,,,,,,,,,,,,,"29.85","75","78",,"|TS |RA",,,"90",,"FEW:02s 6s BKN:07s 23s","29.74","10.00","76","130",,"8",,,,,,,,,,,,,,,,,,,,,,,,,,,,,,,,,,,,,"MET14209/18/19 19:10:01 SPECI KIAH 190110Z 13007KT 10SM TS FEW006 BKN023CB BKN0 26/24 A2985 RMK AO2 TSB10 FRQ LTGICCCCG S-SW TS S-SW MOV E T02560239","FM-16","7",,,,,,,,,,,,,,,,,,,,,,,,,,,,"2009-06-11"
"72243012960","2019-09-18T19:34:00","FM-16","7",,,,,,,,,,,,,,,,,,,,,,,,,,,,,,,,,,,,,,"29.86","75","78",,,,,"90",,"FEW:02 6 SCT:04 20 BKN:07 40","29.75","10.00","76","160",,"7",,,,,,,,,,,,,,,,,,,,,,,,,,,,,,,,,,,,,"MET12609/18/19 19:34:01 SPECI KIAH 190134Z 16006KT 10SM FEW006 SCT020 BKN040 26/24 A2986 RMK AO2 TSB10E33 TS DSIPT VCSH SW T02560239","FM-16","7",,,,,,,,,,,,,,,,,,,,,,,,,,,,"2009-06-11"
"72243012960","2019-09-18T19:53:00","FM-15","7",,,,,,,,,,,,,,,,,,,,,,,,,,,,,,,,,,,,,,"29.86","75","78","T","|RA |RA",,,"90","29.85","FEW:02 6 SCT:04 20 SCT:04 40","29.75","10.00","76","140",,"9",,,,,,,,,,,,,,,,,,,,,,,,,,,,,,,,,,,,,"MET15909/18/19 19:53:01 METAR KIAH 190153Z 14008KT 10SM -RA FEW006 SCT020 SCT040 26/24 A2986 RMK AO2 LTG DSNT E RAB48 TSB10E33 SLP110 CB DSNT E MOV E P0000 T02560239","FM-15","7",,,,,,,,,,,,,,,,,,,,,,,,,,,,"2009-06-11"
"72243012960","2019-09-18T20:53:00","FM-15","7",,,,,,,,,,,,,,,,,,,,,,,,,,,,,,,,,,,,,,"29.86","75","78","T",,"-0.01","1","90","29.86","FEW:02 15 BKN:07 40 BKN:07 130","29.75","10.00","76","170",,"3",,,,,,,,,,,,,,,,,,,,,,,,,,,,,,,,,,,,,"MET13109/18/19 20:53:01 METAR KIAH 190253Z 17003KT 10SM FEW015 BKN040 BKN130 26/24 A2986 RMK AO2 RAE04 SLP111 P0000 60000 T02560239 51004","FM-15","7",,,,,,,,,,,,,,,,,,,,,,,,,,,,"2009-06-11"
"72243012960","2019-09-18T21:12:00","FM-16","7",,,,,,,,,,,,,,,,,,,,,,,,,,,,,,,,,,,,,,"29.86","75","78",,,,,"90",,"FEW:02 5 SCT:04 21 BKN:07 40","29.75","10.00","76","000",,"0",,,,,,,,,,,,,,,,,,,,,,,,,,,,,,,,,,,,,"MET10009/18/19 21:12:01 SPECI KIAH 190312Z 00000KT 10SM FEW005 SCT021 BKN040 26/24 A2986 RMK AO2 T02560239","FM-16","7",,,,,,,,,,,,,,,,,,,,,,,,,,,,"2009-06-11"
"72243012960","2019-09-18T21:53:00","FM-15","7",,,,,,,,,,,,,,,,,,,,,,,,,,,,,,,,,,,,,,"29.85","76","76","T",,,,"100","29.85","FEW:02 5 BKN:07 18 BKN:07 50","29.74","10.00","76","000",,"0",,,,,,,,,,,,,,,,,,,,,,,,,,,,,,,,,,,,,"MET13509/18/19 21:53:02 METAR KIAH 190353Z 00000KT 10SM FEW005 BKN018 BKN050 24/24 A2985 RMK AO2 RAB23E35 SLP109 VCSH NW-N-NE P0000 T02440244","FM-15","7",,,,,,,,,,,,,,,,,,,,,,,,,,,,"2009-06-11"
"72243012960","2019-09-18T22:51:00","FM-16","6",,,,,,,,,,,,,,,,,,,,,,,,,,,,,,,,,,,,,,"29.85","75","79",,"-RA:02 |RA |RA",,,"89",,"FEW:02 5 BKN:07 13 OVC:08 60","29.74","7.00","76","330",,"3",,,,,,,,,,,,,,,,,,,,,,,,,,,,,,,,,,,,,"MET11509/18/19 22:51:03 SPECI KIAH 190451Z 33003KT 7SM -RA FEW005 BKN013 OVC060 26/24 A2985 RMK AO2 RAB36 P0000 FIBI (CB)","FM-16","6",,,,,,,,,,,,,,,,,,,,,,,,,,,,"2009-06-11"
"72243012960","2019-09-18T22:53:00","FM-15","7",,,,,,,,,,,,,,,,,,,,,,,,,,,,,,,,,,,,,,"29.85","76","78","T","-RA:02 |RA |RA",,,"93","29.85","FEW:02 5 BKN:07 13 OVC:08 60","29.74","7.00","77","330",,"5",,,,,,,,,,,,,,,,,,,,,,,,,,,,,,,,,,,,,"MET12209/18/19 22:53:02 METAR KIAH 190453Z 33004KT 7SM -RA FEW005 BKN013 OVC060 26/24 A2985 RMK AO2 RAB36 SLP107 P0000 T02560244","FM-15","7",,,,,,,,,,,,,,,,,,,,,,,,,,,,"2009-06-11"
"72243012960","2019-09-18T23:53:00","FM-15","7",,,,,,,,,,,,,,,,,,,,,,,,,,,,,,,,,,,,,,"29.84","76","78","T",,"+0.02","7","93","29.84","FEW:02 5 BKN:07 14 BKN:07 28","29.73","7.00","77","240",,"3",,,,,,,,,,,,,,,,,,,,,,,,,,,,,,,,,,,,,"MET18309/18/19 23:53:02 METAR KIAH 190553Z 24003KT 7SM FEW005 BKN014 BKN028 26/24 A2984 RMK AO2 LTG DSNT E RAE12 SLP105 CB DSNT NE-SE MOV E P0000 60000 T02560244 10267 20244 402830239 57006","FM-15","7",,,,,,,,,,,,,,,,,,,,,,,,,,,,"2009-06-11"
"72243012960","2019-09-18T23:59:00","SOD  ","6",,,,,,,,,,,,,,,,"79",,,"29.73",,"6.3","14","-0.5","0","83","75","150","25","1.99","0","0.0","150","18","RA BR TS",,,,,,,,,,,,,,,,,,,,,,,,,,,,,,,,,,,,,,,,,,,,,,,,,,,,,,,,"SOD78124 HR PRECIPITATION (IN): 1.99 SNOW DEPTH (IN):0     24 HR SNOWFALL (IN):0.0  WEATHER(CODE):13  24 HR MAX TEMP (F): 8324 HR MIN TEMP (F): 75AVERAGE STATION PRESSURE:29.735 MINIMUM SEA LEVEL PRESSURE:29.81 TIME OF OCCURRENCE:0428 PEAK WIND SPEED (MPH): 25 PEAK WIND DIR (DEG):150 PEAK WIND TIME (LST):      FASTEST 2MIN SPEED (MPH): 18FASTEST 2MIN DIR (DEG):150 FASTEST 2MIN TIME (LST):     AVERAGE WIND SPEED (MPH): 6.3 24 HR AVG TEMP (F): 79DEPART FROM NORMAL:  0  SKY COVER SR-SS (TENTHS): 1HEATING DEGREE DAYS:  0 COOLING DEGREE DAYS: 14 LATEST DAY MAX TEMP (0700-1900 LST):83  LATEST NIGHT MIN TEMP(1900-0800 LST):75 HOURLY INCREMENTAL PRECIPITATION VALUES (IN):.12 0.39 0.05 0.01 0.02 0.02 0.19 0.26 0.06 0.26 0.39 0.01 0.01 0.01 T    T    T    0.19 0.00 T    T    T    T    T","SOD  ","6",,,,,,,,,,,,,,,,,,,,,,,,,"0607","1823",,"2009-06-11"
"72243012960","2019-09-19T00:00:00","FM-12","4",,,,,,,,,,,,,,,,,,,,,,,,,,,,,,,,,,,,,,,"76","78",,,"+0.02","7","93","29.84","5","29.71","6.84","77","240",,"3",,,,,,,,,,,,,,,,,,,,,,,,,,,,,,,,,,,,,"SYN08672243 12261 82403 10256 20244 30061 40105 57006 69901 90553 333 10267 20244 555 91906=","FM-12","4",,,,,,,,,,,,,,,,,,,,,,,,,,,,"2009-06-11"
"72243012960","2019-09-19T00:16:00","FM-16","7",,,,,,,,,,,,,,,,,,,,,,,,,,,,,,,,,,,,,,"29.85","77","80",,,,,"90",,"SCT:04 15 BKN:07 30 BKN:07 55","29.74","8.00","78","000",,"0",,,,,,,,,,,,,,,,,,,,,,,,,,,,,,,,,,,,,"MET15709/19/19 00:16:02 SPECI KIAH 190616Z 00000KT 8SM SCT015 BKN030 BKN055 27/25 A2985 RMK AO2 LTG DSNT N-E OCNL LTGICCC DSNT N-E CB DSNT N-E MOV E T02670250 (CB)","FM-16","7",,,,,,,,,,,,,,,,,,,,,,,,,,,,"2009-06-11"
"72243012960","2019-09-19T00:45:00","FM-16","7",,,,,,,,,,,,,,,,,,,,,,,,,,,,,,,,,,,,,,"29.84","77","80",,"TS:7 |TS TS |",,,"90",,"BKN:07 10 OVC:08 55","29.73","8.00","78","210",,"6",,,,,,,,,,,,,,,,,,,,,,,,,,,,,,,,,,,,,"MET15609/19/19 00:45:02 SPECI KIAH 190645Z 21005KT 8SM TS BKN010CB OVC055 27/25 A2984 RMK AO2 LTG DSNT NE AND E TSB45 OCNL LTGICCC N-E TS N-E MOV E T02670250 (CB)","FM-16","7",,,,,,,,,,,,,,,,,,,,,,,,,,,,"2009-06-11"
"72243012960","2019-09-19T00:53:00","FM-15","7",,,,,,,,,,,,,,,,,,,,,,,,,,,,,,,,,,,,,,"29.83","77","79","0.00","TS:7 |TS TS |",,,"94","29.83","BKN:07 10 OVC:08 55","29.72","8.00","78","VRB",,"7",,,,,,,,,,,,,,,,,,,,,,,,,,,,,,,,,,,,,"MET15809/19/19 00:53:02 METAR KIAH 190653Z VRB06KT 8SM TS BKN010CB OVC055 26/25 A2983 RMK AO2 LTG DSNT N-E TSB45 SLP102 OCNL LTGICCC N-E TS N-E MOV E T02610250 (CB)","FM-15","7",,,,,,,,,,,,,,,,,,,,,,,,,,,,"2009-06-11"
"72243012960","2019-09-19T01:26:00","FM-16","7",,,,,,,,,,,,,,,,,,,,,,,,,,,,,,,,,,,,,,"29.84","77","80",,,,,"90",,"SCT:04 15 BKN:07 60 BKN:07 90","29.73","8.00","78","220",,"7",,,,,,,,,,,,,,,,,,,,,,,,,,,,,,,,,,,,,"MET17109/19/19 01:26:02 SPECI KIAH 190726Z 22006KT 8SM SCT015 BKN060 BKN090 27/25 A2984 RMK AO2 LTG DSNT N-E TSE26 OCNL LTGIC DSNT N-E TS MOVD E CB DSNT N-E MOV E T02670250 (CB)","FM-16","7",,,,,,,,,,,,,,,,,,,,,,,,,,,,"2009-06-11"
"72243012960","2019-09-19T01:53:00","FM-15","7",,,,,,,,,,,,,,,,,,,,,,,,,,,,,,,,,,,,,,"29.84","77","80","0.00",,,,"90","29.84","SCT:04 12 BKN:07 24 BKN:07 95","29.73","8.00","78","250",,"5",,,,,,,,,,,,,,,,,,,,,,,,,,,,,,,,,,,,,"MET18509/19/19 01:53:02 METAR KIAH 190753Z 25004KT 8SM SCT012 BKN024 BKN095 27/25 A2984 RMK AO2 LTG DSNT NE AND E TSE26 SLP105 OCNL LTGIC DSNT NE-E TS MOVD E CB DSNT NE-E MOV E T02670250 (CB)","FM-15","7",,,,,,,,,,,,,,,,,,,,,,,,,,,,"2009-06-11"
"72243012960","2019-09-19T02:12:00","FM-16","7",,,,,,,,,,,,,,,,,,,,,,,,,,,,,,,,,,,,,,"29.83","77","80",,,,,"90",,"BKN:07 10 BKN:07 23 OVC:08 75","29.72","7.00","78","220",,"7",,,,,,,,,,,,,,,,,,,,,,,,,,,,,,,,,,,,,"MET14109/19/19 02:12:02 SPECI KIAH 190812Z 22006KT 7SM BKN010 BKN023 OVC075 27/25 A2983 RMK AO2 LTG DSNT NE AND E CB DSNT NE-E MOV E T02670250 (CB)","FM-16","7",,,,,,,,,,,,,,,,,,,,,,,,,,,,"2009-06-11"
"72243012960","2019-09-19T02:53:00","FM-15","7",,,,,,,,,,,,,,,,,,,,,,,,,,,,,,,,,,,,,,"29.83","78","80","0.00",,"+0.01","8","94","29.82","BKN:07 10 BKN:07 23 OVC:08 75","29.72","7.00","79","210",,"6",,,,,,,,,,,,,,,,,,,,,,,,,,,,,,,,,,,,,"MET15209/19/19 02:53:02 METAR KIAH 190853Z 21005KT 7SM BKN010 BKN023 OVC075 27/26 A2983 RMK AO2 LTG DSNT NE-SE SLP099 CB DSNT NE-SE MOV E T02670256 58005 (CB)","FM-15","7",,,,,,,,,,,,,,,,,,,,,,,,,,,,"2009-06-11"
"72243012960","2019-09-19T03:28:00","FM-16","7",,,,,,,,,,,,,,,,,,,,,,,,,,,,,,,,,,,,,,"29.80","77","80",,,,,"90",,"SCT:04 9 BKN:07 33 BKN:07 65","29.69","7.00","78","220",,"9",,,,,,,,,,,,,,,,,,,,,,,,,,,,,,,,,,,,,"MET14109/19/19 03:28:02 SPECI KIAH 190928Z 22008KT 7SM SCT009 BKN033 BKN065 27/25 A2980 RMK AO2 LTG DSNT NE AND E CB DSNT NE-E MOV E T02670250 (CB)","FM-16","7",,,,,,,,,,,,,,,,,,,,,,,,,,,,"2009-06-11"
"72243012960","2019-09-19T03:53:00","FM-15","7",,,,,,,,,,,,,,,,,,,,,,,,,,,,,,,,,,,,,,"29.80","77","81","0.00",,,,"88","29.80","SCT:04 9 SCT:04 30 BKN:07 65","29.69","7.00","78","220",,"10",,,,,,,,,,,,,,,,,,,,,,,,,,,,,,,,,,,,,"MET14209/19/19 03:53:02 METAR KIAH 190953Z 22009KT 7SM SCT009 SCT030 BKN065 27/25 A2980 RMK AO2 LTG DSNT N-E SLP091 CB DSNT N-E MOV E T02720250 (CB)","FM-15","7",,,,,,,,,,,,,,,,,,,,,,,,,,,,"2009-06-11"
"72243012960","2019-09-19T04:16:00","FM-16","7",,,,,,,,,,,,,,,,,,,,,,,,,,,,,,,,,,,,,,"29.81","78","81",,,,,"91",,"SCT:04 9 BKN:07 24 BKN:07 65","29.70","7.00","79","200","21","11",,,,,,,,,,,,,,,,,,,,,,,,,,,,,,,,,,,,,"MET13609/19/19 04:16:02 SPECI KIAH 191016Z 20010G18KT 7SM SCT009 BKN024 BKN065 27/26 A2981 RMK AO2 LTG DSNT N-E CB DSNT N MOV E T02720256 (CB)","FM-16","7",,,,,,,,,,,,,,,,,,,,,,,,,,,,"2009-06-11"
"72243012960","2019-09-19T04:53:00","FM-15","7",,,,,,,,,,,,,,,,,,,,,,,,,,,,,,,,,,,,,,"29.82","78","82","T",,,,"88","29.82","BKN:07 12 BKN:07 20 OVC:08 48","29.71","7.00","79","210",,"7",,,,,,,,,,,,,,,,,,,,,,,,,,,,,,,,,,,,,"MET14409/19/19 04:53:02 METAR KIAH 191053Z 21006KT 7SM BKN012 BKN020 OVC048 28/26 A2982 RMK AO2 LTG DSNT NW-E SLP097 CB DSNT NW-E MOV E T02780256 (CB)","FM-15","7",,,,,,,,,,,,,,,,,,,,,,,,,,,,"2009-06-11"
"72243012960","2019-09-19T05:35:00","FM-16","7",,,,,,,,,,,,,,,,,,,,,,,,,,,,,,,,,,,,,,"29.83","78","82","T","TS:7 |TS TS |",,,"88",,"BKN:07 13 BKN:07 39 OVC:08 70","29.72","7.00","79","250",,"9",,,,,,,,,,,,,,,,,,,,,,,,,,,,,,,,,,,,,"MET18309/19/19 05:35:02 SPECI KIAH 191135Z 25008KT 7SM TS BKN013CB BKN039 OVC070 28/26 A2983 RMK AO2 LTG DSNT NW-E RAB1056E07 TSB33 OCNL LTGICCC NW-N-E TS NW-N-E MOV SE P0000 T02780256 (CB)","FM-16","7",,,,,,,,,,,,,,,,,,,,,,,,,,,,"2009-06-11"
"72243012960","2019-09-19T05:53:00","FM-15","7",,,,,,,,,,,,,,,,,,,,,,,,,,,,,,,,,,,,,,"29.82","78","82","T","TS:7 |TS TS |","+0.01","6","88","29.81","BKN:07 13 BKN:07 39 OVC:08 70","29.71","7.00","79","VRB",,"9",,,,,,,,,,,,,,,,,,,,,,,,,,,,,,,,,,,,,"MET21509/19/19 05:53:02 METAR KIAH 191153Z 23008KT 7SM TS BKN013CB BKN039 OVC070 28/26 A2982 RMK AO2 LTG DSNT NW-E RAB1056E07 TSB33 SLP095 OCNL LTGICCC NW-N-E TS NW-N-E MOV SE P0000 60000 70139 T02780256 10278 20256 56004","FM-15","7",,,,,,,,,,,,,,,,,,,,,,,,,,,,"2009-06-11"
"72243012960","2019-09-19T06:00:00","FM-12","4",,,,,,,,,,,,,,,,,,,,,,,,,,,,,,,,,,,,,,,"78","82",,"||TS","+0.01","6","88","29.81","15","29.69","6.84","79","230",,"9",,,,,,,,,,,,,,,,,,,,,,,,,,,,,,,,,,,,,"SYN09872243 11461 82308 10278 20256 30055 40095 56004 69901 795// 91153 333 10283 20244 70353 555 91912=","FM-12","4",,,,,,,,,,,,,,,,,,,,,,,,,,,,"2009-06-11"
"72243012960","2019-09-19T06:53:00","FM-15","7",,,,,,,,,,,,,,,,,,,,,,,,,,,,,,,,,,,,,,"29.83","78","82","T","TS:7 -RA:02 BR:1 |RA TS |RA",,,"88","29.83","BKN:07 11 BKN:07 25 OVC:08 75","29.72","6.00","79","230",,"7",,,,,,,,,,,,,,,,,,,,,,,,,,,,,,,,,,,,,"MET18909/19/19 06:53:02 METAR KIAH 191253Z 23006KT 6SM -TSRA BR BKN011CB BKN025 OVC075 28/26 A2983 RMK AO2 LTG DSNT ALQDS RAB52 SLP100 OCNL LTGICCC NW-NE-E TS NW-NE-E MOV SE P0000 T02780256 (JAG)","FM-15","7",,,,,,,,,,,,,,,,,,,,,,,,,,,,"2009-06-11"
"72243012960","2019-09-19T07:53:00","FM-15","7",,,,,,,,,,,,,,,,,,,,,,,,,,,,,,,,,,,,,,"29.85","77","80","0.05","TS:7 RA:02 BR:1 |RA TS |RA",,,"90","29.85","BKN:07 11 BKN:07 18 OVC:08 75","29.74","4.00","78","VRB",,"5",,,,,,,,,,,,,,,,,,,,,,,,,,,,,,,,,,,,,"MET19209/19/19 07:53:02 METAR KIAH 191353Z VRB04KT 4SM TSRA BR BKN011 BKN018CB OVC075 27/25 A2985 RMK AO2 LTG DSNT N-SE SLP108 OCNL LTGICCC N-E-SE TS N-E-SE MOV SE BKN011 V SCT P0003 T02670250 (JAG)","FM-15","7",,,,,,,,,,,,,,,,,,,,,,,,,,,,"2009-06-11"
"72243012960","2019-09-19T08:02:00","FM-16","7",,,,,,,,,,,,,,,,,,,,,,,,,,,,,,,,,,,,,,"29.86","75","78","0.05","TS:7 +RA:02 BR:1 |RA TS |RA",,,"90",,"BKN:07 11 BKN:07 18 OVC:08 75","29.75","1.50","76","020",,"20",,,,,,,,,,,,,,,,,,,,,,,,,,,,,,,,,,,,,"MET19009/19/19 08:02:02 SPECI KIAH 191402Z 02017KT 1 1/2SM +TSRA BR BKN011 BKN018CB OVC075 26/24 A2986 RMK AO2 LTG DSNT N-SE OCNL LTGICCC N-E-SE TS N-E-SE MOV SE BKN011 V SCT P0005 T02560239 (JAG)","FM-16","7",,,,,,,,,,,,,,,,,,,,,,,,,,,,"2009-06-11"
"72243012960","2019-09-19T08:10:00","FM-16","7",,,,,,,,,,,,,,,,,,,,,,,,,,,,,,,,,,,,,,"29.85","74","76","0.28","TS:7 +RA:02 FG:2 |FG RA TS |RA",,,"94",,"SCT:04 6 BKN:07 11 OVC:08 18","29.74","0.50","75","040","43","36",,,,,,,,,,,,,,,,,,,,,,,,,,,,,,,,,,,,,"MET19809/19/19 08:10:02 SPECI KIAH 191410Z 04031G37KT 1/2SM +TSRA FG SCT006 BKN011CB OVC018 24/23 A2985 RMK AO2 PK WND 04037/1409 LTG DSNT ALQDS FRQ LTGICCCCG N-E-SE TS N-E-SE MOV SE P0028 T02440233 (JAG)","FM-16","7",,,,,,,,,,,,,,,,,,,,,,,,,,,,"2009-06-11"
"72243012960","2019-09-19T08:37:00","FM-16","7",,,,,,,,,,,,,,,,,,,,,,,,,,,,,,,,,,,,,,"29.86","74","75","2.24","TS:7 +RA:02 FG:2 |FG RA TS |RA",,,"96",,"SCT:04 6 BKN:07 11 OVC:08 18","29.75","0.25","74","050","37","26",,,,,,,,,,,,,,,,,,,,,,,,,,,,,,,,,,,,,"MET21409/19/19 08:37:02 SPECI KIAH 191437Z 05023G32KT 1/4SM +TSRA FG SCT006 BKN011CB OVC018 24/23 A2986 RMK AO2 PK WND 04037/1409 LTG DSNT NE-S CONS LTGICCCCGCA OHD AND ALQDS TS OHD AND ALQDS MOV SE P0224 T02390233 (JAG)","FM-16","7",,,,,,,,,,,,,,,,,,,,,,,,,,,,"2009-06-11"
"72243012960","2019-09-19T08:53:00","FM-15","7",,,,,,,,,,,,,,,,,,,,,,,,,,,,,,,,,,,,,,"29.92","*","*","3.86s","TS:7 +RA:02 FG:2 |FG RA TS |RA","-0.10","3","*","29.91","BKN:07 6 BKN:07 11 OVC:08 18","29.81","0.25","*","060","32","18",,,,,,,,,,,,,,,,,,,,,,,,,,,,,,,,,,,,,"MET22809/19/19 08:53:02 METAR KIAH 191453Z 06016G28KT 1/4SM +TSRA FG BKN006 BKN011CB OVC018 24/23 A2992 RMK AO2 PK WND 04037/1409 LTG DSNT ALQDS SLP130 CONS LTGICCCCGCA OHD AND ALQDS TS OHD AND ALQDS MOV SE P0340 60343 T02390228 53034","FM-15","7",,,,,,,,,,,,,,,,,,,,,,,,,,,,"2009-06-11"
"72243012960","2019-09-19T09:20:00","FM-16","7",,,,,,,,,,,,,,,,,,,,,,,,,,,,,,,,,,,,,,"29.93","73","75","2.08","TS:7 +RA:02 BR:1 |RA TS |RA",,,"94",,"BKN:07 7 BKN:07 13 OVC:08 22","29.82","0.75","74","170","22","11",,,,,,,,,,,,,,,,,,,,,,,,,,,,,,,,,,,,,"MET19709/19/19 09:20:02 SPECI KIAH 191520Z 17010G19KT 3/4SM +TSRA BR BKN007 BKN013CB OVC022 24/23 A2993 RMK AO2 LTG DSNT ALQDS CONS LTGICCCCGCA OHD AND ALQDS TS OHD AND ALQDS MOV SE P0208 T02390228 (JAG)","FM-16","7",,,,,,,,,,,,,,,,,,,,,,,,,,,,"2009-06-11"
"72243012960","2019-09-19T09:27:00","FM-16","7",,,,,,,,,,,,,,,,,,,,,,,,,,,,,,,,,,,,,,"29.91","73","75","2.33","TS:7 +RA:02 FG:2 |FG RA TS |RA",,,"94",,"BKN:07 7 BKN:07 13 OVC:08 22","29.80","0.50","74","220","31","21",,,,,,,,,,,,,,,,,,,,,,,,,,,,,,,,,,,,,"MET22009/19/19 09:27:02 SPECI KIAH 191527Z 22018G27KT 1/2SM +TSRA FG BKN007 BKN013CB OVC022 24/23 A2991 RMK AO2 PK WND 19027/1525 WSHFT 1510 LTG DSNT ALQDS CONS LTGICCCCGCA OHD AND ALQDS TS OHD AND ALQDS MOV SE P0233 T02390228","FM-16","7",,,,,,,,,,,,,,,,,,,,,,,,,,,,"2009-06-11"
"72243012960","2019-09-19T09:38:00","FM-16","6",,,,,,,,,,,,,,,,,,,,,,,,,,,,,,,,,,,,,,"29.93","72","75",,"TS:7 +RA:02 FG:2 |FG RA TS |RA",,,"89",,"BKN:07 7 BKN:07 13 OVC:08 22","29.82","0.50","73","220","21","9",,,,,,,,,,,,,,,,,,,,,,,,,,,,,,,,,,,,,"MET23109/19/19 09:38:02 SPECI KIAH 191538Z 22008G18KT 1/2SM +TSRA FG BKN007 BKN013CB OVC022 24/22 A2993 RMK AO2 PK WND 19027/1525 WSHFT 1519 LTG DSNT ALQDS CONS LTGICCCCGCA OHD AND ALQDS TS OHD AND ALQDS MOV SE P0272 T02390222 CNCL (JAG)","FM-16","6",,,,,,,,,,,,,,,,,,,,,,,,,,,,"2009-06-11"
"72243012960","2019-09-19T09:44:00","FM-16","7",,,,,,,,,,,,,,,,,,,,,,,,,,,,,,,,,,,,,,"29.93","73","75","2.84","TS:7 +RA:02 BR:1 |RA TS |RA",,,"94",,"SCT:04 7 BKN:07 14 OVC:08 25","29.82","1.00","74","200","18","13",,,,,,,,,,,,,,,,,,,,,,,,,,,,,,,,,,,,,"MET21709/19/19 09:44:02 SPECI KIAH 191544Z 20011G16KT 1SM +TSRA BR SCT007 BKN014CB OVC025 24/23 A2993 RMK AO2 PK WND 19027/1525 WSHFT 1519 LTG DSNT ALQDS FRQ LTGICCCCGCA OHD AND ALQDS TS OHD AND ALQDS MOV SE P0284 T02390228","FM-16","7",,,,,,,,,,,,,,,,,,,,,,,,,,,,"2009-06-11"
"72243012960","2019-09-19T09:53:00","FM-15","7",,,,,,,,,,,,,,,,,,,,,,,,,,,,,,,,,,,,,,"29.93","*","*","2.69","TS:7 +RA:02 BR:1 |RA TS |RA",,,"*","29.93","SCT:04 7 BKN:07 14 OVC:08 25","29.82","1.00","*","200",,"7",,,,,,,,,,,,,,,,,,,,,,,,,,,,,,,,,,,,,"MET22109/19/19 09:53:02 METAR KIAH 191553Z 20006KT 1SM +TSRA BR SCT007 BKN014CB OVC025 24/23 A2993 RMK AO2 PK WND 19027/1525 WSHFT 1519 LTG DSNT ALQDS SLP135 FRQ LTGICCCCGCA OHD AND ALQDS TS OHD AND ALQDS MOV SE P0299 T02440233","FM-15","7",,,,,,,,,,,,,,,,,,,,,,,,,,,,"2009-06-11"
"72243012960","2019-09-19T10:45:00","FM-16","7",,,,,,,,,,,,,,,,,,,,,,,,,,,,,,,,,,,,,,"29.93","71","74","0.86","TS:7 RA:02 BR:1 |RA TS |RA",,,"91",,"FEW:02 7 BKN:07 20 OVC:08 45","29.82","1.75","72","VRB",,"7",,,,,,,,,,,,,,,,,,,,,,,,,,,,,,,,,,,,,"MET19109/19/19 10:45:02 SPECI KIAH 191645Z VRB06KT 1 3/4SM TSRA BR FEW007 BKN020CB OVC045 23/22 A2993 RMK AO2 LTG DSNT ALQDS OCNL LTGICCC OHD AND ALQDS TS OHD AND ALQDS MOV SE P0086 T02330217 (JAG)","FM-16","7",,,,,,,,,,,,,,,,,,,,,,,,,,,,"2009-06-11"
"72243012960","2019-09-19T10:53:00","FM-15","7",,,,,,,,,,,,,,,,,,,,,,,,,,,,,,,,,,,,,,"29.94","72","74","0.77","TS:7 +RA:02 BR:1 |RA TS |RA",,,"94","29.93","FEW:02 7 BKN:07 20 OVC:08 45","29.83","1.75","73","280",,"5",,,,,,,,,,,,,,,,,,,,,,,,,,,,,,,,,,,,,"MET19909/19/19 10:53:02 METAR KIAH 191653Z 28004KT 1 3/4SM +TSRA BR FEW007 BKN020CB OVC045 23/22 A2994 RMK AO2 LTG DSNT ALQDS SLP137 OCNL LTGICCC OHD AND ALQDS TS OHD AND ALQDS MOV SE P0088 T02330222 (JAG)","FM-15","7",,,,,,,,,,,,,,,,,,,,,,,,,,,,"2009-06-11"
"72243012960","2019-09-19T11:47:00","FM-16","7",,,,,,,,,,,,,,,,,,,,,,,,,,,,,,,,,,,,,,"29.92","72","73","0.68","TS:7 -RA:02 BR:1 |RA TS |RA",,,"94",,"FEW:02 7 BKN:07 22 OVC:08 45","29.81","2.50","72","VRB",,"3",,,,,,,,,,,,,,,,,,,,,,,,,,,,,,,,,,,,,"MET17209/19/19 11:47:02 SPECI KIAH 191747Z VRB03KT 2 1/2SM -TSRA BR FEW007 BKN022CB OVC045 23/22 A2992 RMK AO2 LTG DSNT ALQDS OCNL LTGICCC NE-SE-SW TS NE-SE-SW MOV SE P0068 (JAG)","FM-16","7",,,,,,,,,,,,,,,,,,,,,,,,,,,,"2009-06-11"
"72243012960","2019-09-19T11:53:00","FM-15","7",,,,,,,,,,,,,,,,,,,,,,,,,,,,,,,,,,,,,,"29.93","71","74","0.73","TS:7 +RA:02 BR:1 |RA TS |RA","-0.01","0","91","29.92","FEW:02 7 BKN:07 22 OVC:08 45","29.82","2.50","72","000",,"0",,,,,,,,,,,,,,,,,,,,,,,,,,,,,,,,,,,,,"MET21309/19/19 11:53:02 METAR KIAH 191753Z 00000KT 2 1/2SM +TSRA BR FEW007 BKN022CB OVC045 23/22 A2993 RMK AO2 LTG DSNT ALQDS SLP133 OCNL LTGICCC NE-SE-SW TS NE-SE-SW MOV SE P0069 60799 T02330217 10278 20233 50003 (JAG)","FM-15","7",,,,,,,,,,,,,,,,,,,,,,,,,,,,"2009-06-11"
"72243012960","2019-09-19T12:00:00","FM-12","4",,,,,,,,,,,,,,,,,,,,,,,,,,,,,,,,,,,,,,,"71","74",,,"0.01","9","91","29.92","8","29.80","2.49","72","000",,"0",,,,,,,,,,,,,,,,,,,,,,,,,,,,,,,,,,,,,"SYN09872243 11340 80000 10233 20217 30092 40133 50003 62031 710// 91753 333 10278 20233 96010 555 91918=","FM-12","4",,,,,,,,,,,,,,,,,,,,,,,,,,,,"2009-06-11"
"72243012960","2019-09-19T12:31:00","FM-16","7",,,,,,,,,,,,,,,,,,,,,,,,,,,,,,,,,,,,,,"29.94","72","74","0.44","TS:7 +RA:02 BR:1 |RA TS |RA",,,"94",,"FEW:02 7 BKN:07 13 OVC:08 22","29.83","1.75","73","140",,"7",,,,,,,,,,,,,,,,,,,,,,,,,,,,,,,,,,,,,"MET17709/19/19 12:31:02 SPECI KIAH 191831Z 14006KT 1 3/4SM +TSRA BR FEW007 BKN013CB OVC022 23/22 A2994 RMK AO2 LTG DSNT S AND SW OCNL LTGICCC S-SW TS S-SW MOV SE P0044 T02330222 (JAG)","FM-16","7",,,,,,,,,,,,,,,,,,,,,,,,,,,,"2009-06-11"
"72243012960","2019-09-19T12:53:00","FM-15","7",,,,,,,,,,,,,,,,,,,,,,,,,,,,,,,,,,,,,,"29.93","72","74","0.65","RA:02 |RA |RA",,,"94","29.93","SCT:04 6 BKN:07 23 OVC:08 32","29.82","1.50","73","160",,"14",,,,,,,,,,,,,,,,,,,,,,,,,,,,,,,,,,,,,"MET17309/19/19 12:53:02 METAR KIAH 191853Z 16012KT 1 1/2SM RA SCT006 BKN023 OVC032 23/22 A2993 RMK AO2 LTG DSNT S AND SW TSE53 SLP136 TS MOVD SE CB DSNT S-SW P0069 T02330222 (JAG)","FM-15","7",,,,,,,,,,,,,,,,,,,,,,,,,,,,"2009-06-11"
"72243012960","2019-09-19T13:27:00","FM-16","7",,,,,,,,,,,,,,,,,,,,,,,,,,,,,,,,,,,,,,"29.93","72","74","0.20","-RA:02 BR:1 |RA |RA",,,"94",,"SCT:04 23 BKN:07 35 OVC:08 70","29.82","2.00","73","180",,"9",,,,,,,,,,,,,,,,,,,,,,,,,,,,,,,,,,,,,"MET14909/19/19 13:27:02 SPECI KIAH 191927Z 18008KT 2SM -RA BR SCT023 BKN035 OVC070 23/22 A2993 RMK AO2 LTG DSNT SE AND S CB DSNT SE-S P0020 T02330222 (JAG)","FM-16","7",,,,,,,,,,,,,,,,,,,,,,,,,,,,"2009-06-11"
"72243012960","2019-09-19T13:53:00","FM-15","7",,,,,,,,,,,,,,,,,,,,,,,,,,,,,,,,,,,,,,"29.91","72","75","0.34","-RA:02 BR:1 |RA |RA",,,"90","29.91","SCT:04 28 BKN:07 45 OVC:08 80","29.80","2.00","73","140",,"13",,,,,,,,,,,,,,,,,,,,,,,,,,,,,,,,,,,,,"MET15609/19/19 13:53:02 METAR KIAH 191953Z 14011KT 2SM -RA BR SCT028 BKN045 OVC080 24/22 A2991 RMK AO2 LTG DSNT S AND SW SLP129 CB DSNT S-SW P0034 T02390222 (JAG)","FM-15","7",,,,,,,,,,,,,,,,,,,,,,,,,,,,"2009-06-11"
"72243012960","2019-09-19T14:26:00","FM-16","7",,,,,,,,,,,,,,,,,,,,,,,,,,,,,,,,,,,,,,"29.90","72","74","0.15","-RA:02 |RA |RA",,,"94",,"FEW:02 8 SCT:04 45 OVC:08 80","29.79","4.00","73","140",,"11",,,,,,,,,,,,,,,,,,,,,,,,,,,,,,,,,,,,,"MET14609/19/19 14:26:02 SPECI KIAH 192026Z 14010KT 4SM -RA FEW008 SCT045 OVC080 23/22 A2990 RMK AO2 LTG DSNT S AND SW CB DSNT S-SW P0015 T02330222 (JAG)","FM-16","7",,,,,,,,,,,,,,,,,,,,,,,,,,,,"2009-06-11"
"72243012960","2019-09-19T14:53:00","FM-15","7",,,,,,,,,,,,,,,,,,,,,,,,,,,,,,,,,,,,,,"29.89","72","74","0.09","-RA:02 |RA |RA","+0.04","8","94","29.89","FEW:02 8 SCT:04 50 OVC:08 80","29.78","5.00","73","140",,"14",,,,,,,,,,,,,,,,,,,,,,,,,,,,,,,,,,,,,"MET13409/19/19 14:53:02 METAR KIAH 192053Z 14012KT 5SM -RA FEW008 SCT050 OVC080 23/22 A2989 RMK AO2 SLP121 P0016 60119 T02330222 58012 (JAG)","FM-15","7",,,,,,,,,,,,,,,,,,,,,,,,,,,,"2009-06-11"
"72243012960","2019-09-19T15:53:00","FM-15","7",,,,,,,,,,,,,,,,,,,,,,,,,,,,,,,,,,,,,,"29.88","72","74","0.02","-RA:02 |RA |RA",,,"94","29.88","FEW:02 8 SCT:04 50 OVC:08 80","29.77","7.00","73","160",,"16",,,,,,,,,,,,,,,,,,,,,,,,,,,,,,,,,,,,,"MET12909/19/19 15:53:02 METAR KIAH 192153Z 16014KT 7SM -RA FEW008 SCT050 OVC080 23/22 A2988 RMK AO2 SLP119 BINOVC P0002 T02330222 (JAG)","FM-15","7",,,,,,,,,,,,,,,,,,,,,,,,,,,,"2009-06-11"
"72243012960","2019-09-19T16:53:00","FM-15","7",,,,,,,,,,,,,,,,,,,,,,,,,,,,,,,,,,,,,,"29.88","72","75","T",,,,"90","29.87","FEW:02 8 BKN:07 80 OVC:08 120","29.77","7.00","73","140",,"14",,,,,,,,,,,,,,,,,,,,,,,,,,,,,,,,,,,,,"MET14509/19/19 16:53:02 METAR KIAH 192253Z 14012KT 7SM FEW008 BKN080 OVC120 24/22 A2988 RMK AO2 RAE52 SLP116 VCSH NW AND E BINOVC P0000 T02390222 (JAG)","FM-15","7",,,,,,,,,,,,,,,,,,,,,,,,,,,,"2009-06-11"
"72243012960","2019-09-19T17:53:00","FM-15","7",,,,,,,,,,,,,,,,,,,,,,,,,,,,,,,,,,,,,,"29.90","72","75","T",,"-0.01","3","90","29.90","FEW:02 8 BKN:07 80 OVC:08 120","29.79","7.00","73","140",,"10",,,,,,,,,,,,,,,,,,,,,,,,,,,,,,,,,,,,,"MET17209/19/19 17:53:02 METAR KIAH 192353Z 14009KT 7SM FEW008 BKN080 OVC120 24/22 A2990 RMK AO2 RAB40E52 SLP124 VCSH NW AND E BINOVC P0000 60121 T02390222 10239 20233 53002 (JAG)","FM-15","7",,,,,,,,,,,,,,,,,,,,,,,,,,,,"2009-06-11"
"72243012960","2019-09-19T18:00:00","FM-12","4",,,,,,,,,,,,,,,,,,,,,,,,,,,,,,,,,,,,,,,"72","75",,,"-0.01","3","90","29.90","8","29.77","6.84","73","140",,"10",,,,,,,,,,,,,,,,,,,,,,,,,,,,,,,,,,,,,"SYN08672243 12361 81409 10239 20222 30082 40124 53002 60311 92353 333 10278 20233 555 92000=","FM-12","4",,,,,,,,,,,,,,,,,,,,,,,,,,,,"2009-06-11"
"72243012960","2019-09-19T18:53:00","FM-15","7",,,,,,,,,,,,,,,,,,,,,,,,,,,,,,,,,,,,,,"29.89","72","75","0.00",,,,"90","29.89","FEW:02 9 SCT:04 80 BKN:07 110","29.78","10.00","73","120",,"6",,,,,,,,,,,,,,,,,,,,,,,,,,,,,,,,,,,,,"MET11509/19/19 18:53:01 METAR KIAH 200053Z 12005KT 10SM FEW009 SCT080 BKN110 24/22 A2989 RMK AO2 SLP121 VCSH SW T02390222","FM-15","7",,,,,,,,,,,,,,,,,,,,,,,,,,,,"2009-06-11"
"72243012960","2019-09-19T19:53:00","FM-15","7",,,,,,,,,,,,,,,,,,,,,,,,,,,,,,,,,,,,,,"29.90","73","75","0.00",,,,"94","29.90","FEW:02 9 SCT:04 80 BKN:07 110","29.79","10.00","74","120",,"7",,,,,,,,,,,,,,,,,,,,,,,,,,,,,,,,,,,,,"MET10709/19/19 19:53:01 METAR KIAH 200153Z 12006KT 10SM FEW009 SCT080 BKN110 24/23 A2990 RMK AO2 SLP124 T02390228","FM-15","7",,,,,,,,,,,,,,,,,,,,,,,,,,,,"2009-06-11"
"72243012960","2019-09-19T20:53:00","FM-15","7",,,,,,,,,,,,,,,,,,,,,,,,,,,,,,,,,,,,,,"29.91","74","76","0.01",,"-0.01","3","94","29.91","FEW:02 26 SCT:04 60 BKN:07 110","29.80","10.00","75","130",,"7",,,,,,,,,,,,,,,,,,,,,,,,,,,,,,,,,,,,,"MET14209/19/19 20:53:01 METAR KIAH 200253Z 13006KT 10SM FEW026 SCT060 BKN110 24/23 A2991 RMK AO2 RAB01E33 SLP128 VCSH SE P0001 60001 T02440233 53004","FM-15","7",,,,,,,,,,,,,,,,,,,,,,,,,,,,"2009-06-11"
"72243012960","2019-09-19T21:53:00","FM-15","7",,,,,,,,,,,,,,,,,,,,,,,,,,,,,,,,,,,,,,"29.92","74","77","0.00",,,,"90","29.92","FEW:02 20 FEW:02 60 BKN:07 120","29.81","10.00","75","140",,"6",,,,,,,,,,,,,,,,,,,,,,,,,,,,,,,,,,,,,"MET10709/19/19 21:53:02 METAR KIAH 200353Z 14005KT 10SM FEW020 FEW060 BKN120 25/23 A2992 RMK AO2 SLP132 T02500233","FM-15","7",,,,,,,,,,,,,,,,,,,,,,,,,,,,"2009-06-11"
"72243012960","2019-09-19T22:53:00","FM-15","7",,,,,,,,,,,,,,,,,,,,,,,,,,,,,,,,,,,,,,"29.93","75","78","0.00",,,,"90","29.93","SCT:04 140 OVC:08 200","29.82","10.00","76","150",,"5",,,,,,,,,,,,,,,,,,,,,,,,,,,,,,,,,,,,,"MET10009/19/19 22:53:02 METAR KIAH 200453Z 15004KT 10SM SCT140 OVC200 26/24 A2993 RMK AO2 SLP134 T02560239","FM-15","7",,,,,,,,,,,,,,,,,,,,,,,,,,,,"2009-06-11"
"72243012960","2019-09-19T23:53:00","FM-15","7",,,,,,,,,,,,,,,,,,,,,,,,,,,,,,,,,,,,,,"29.93","75","79","0.00",,"-0.02","1","88","29.93","BKN:07 140 BKN:07 200","29.82","10.00","76","150",,"6",,,,,,,,,,,,,,,,,,,,,,,,,,,,,,,,,,,,,"MET13409/19/19 23:53:02 METAR KIAH 200553Z 15005KT 10SM BKN140 BKN200 26/24 A2993 RMK AO2 SLP134 60001 T02610239 10261 20239 402780233 51006","FM-15","7",,,,,,,,,,,,,,,,,,,,,,,,,,,,"2009-06-11"
"72243012960","2019-09-19T23:59:00","SOD  ","6",,,,,,,,,,,,,,,,"78",,,"29.78",,"8.4","13","-1.2","0","82","74","040s","42s","9.21","0","0.0","040","36","TS RA FG BR",,,,,,,,,,,,,,,,,,,,,,,,,,,,,,,,,,,,,,,,,,,,,,,,,,,,,,,,"SOD75824 HR PRECIPITATION (IN): 9.21 SNOW DEPTH (IN):0     24 HR SNOWFALL (IN):0.0  WEATHER(CODE):123  24 HR MAX TEMP (F): 8224 HR MIN TEMP (F): 74AVERAGE STATION PRESSURE:29.775 MINIMUM SEA LEVEL PRESSURE:29.80 TIME OF OCCURRENCE:0613 PEAK WIND SPEED (MPH): 42 PEAK WIND DIR (DEG): 40 PEAK WIND TIME (LST):      FASTEST 2MIN SPEED (MPH): 36FASTEST 2MIN DIR (DEG): 40 FASTEST 2MIN TIME (LST):     AVERAGE WIND SPEED (MPH): 8.4 24 HR AVG TEMP (F): 78DEPART FROM NORMAL: -1  HEATING DEGREE DAYS:  0 COOLING DEGREE DAYS: 13 LATEST DAY MAX TEMP (0700-1900 LST):82  LATEST NIGHT MIN TEMP(1900-0800 LST):76 HOURLY INCREMENTAL PRECIPITATION VALUES (IN):.00 0.00 0.00 0.00 T    T    T    0.05 3.86 2.69 0.77 0.73 0.65 0.34 0.09 0.02 T    T    0.00 0.00 0.01 0.00 0.00 0.00","SOD  ","6",,,,,,,,,,,,,,,,,,,,,,,,,"0608","1822",,"2009-06-11"
"72243012960","2019-09-20T00:00:00","FM-12","4",,,,,,,,,,,,,,,,,,,,,,,,,,,,,,,,,,,,,,,"75","79",,,"-0.02","1","88","29.93",,"29.80","9.94","76","150",,"6",,,,,,,,,,,,,,,,,,,,,,,,,,,,,,,,,,,,,"SYN08672243 12966 61505 10261 20239 30092 40134 51006 69931 90553 333 10278 20239 555 92006=","FM-12","4",,,,,,,,,,,,,,,,,,,,,,,,,,,,"2009-06-11"
"72243012960","2019-09-20T00:53:00","FM-15","7",,,,,,,,,,,,,,,,,,,,,,,,,,,,,,,,,,,,,,"29.94","76","79","0.00",,,,"90","29.93","FEW:02 20 BKN:07 120 OVC:08 250","29.83","10.00","77","150",,"5",,,,,,,,,,,,,,,,,,,,,,,,,,,,,,,,,,,,,"MET11209/20/19 00:53:02 METAR KIAH 200653Z 15004KT 10SM FEW020 BKN120 OVC250 26/24 A2994 RMK AO2 SLP137 T02610244 (CB)","FM-15","7",,,,,,,,,,,,,,,,,,,,,,,,,,,,"2009-06-11"
"72243012960","2019-09-20T01:53:00","FM-15","7",,,,,,,,,,,,,,,,,,,,,,,,,,,,,,,,,,,,,,"29.93","76","80","0.00",,,,"87","29.93","FEW:02 17 BKN:07 130 OVC:08 250","29.82","10.00","77","140",,"5",,,,,,,,,,,,,,,,,,,,,,,,,,,,,,,,,,,,,"MET11209/20/19 01:53:02 METAR KIAH 200753Z 14004KT 10SM FEW017 BKN130 OVC250 27/24 A2993 RMK AO2 SLP136 T02670244 (CB)","FM-15","7",,,,,,,,,,,,,,,,,,,,,,,,,,,,"2009-06-11"
"72243012960","2019-09-20T02:53:00","FM-15","7",,,,,,,,,,,,,,,,,,,,,,,,,,,,,,,,,,,,,,"29.93","77","79","0.00",,"-0.00","0","94","29.93","SCT:04 18 BKN:07 30 BKN:07 50","29.82","10.00","78","140",,"3",,,,,,,,,,,,,,,,,,,,,,,,,,,,,,,,,,,,,"MET11809/20/19 02:53:02 METAR KIAH 200853Z 14003KT 10SM SCT018 BKN030 BKN050 26/25 A2993 RMK AO2 SLP135 T02610250 50001 (CB)","FM-15","7",,,,,,,,,,,,,,,,,,,,,,,,,,,,"2009-06-11"
"72243012960","2019-09-20T03:29:00","FM-16","7",,,,,,,,,,,,,,,,,,,,,,,,,,,,,,,,,,,,,,"29.93","77","79",,,,,"94",,"BKN:07 20 BKN:07 50 BKN:07 130","29.82","8.00","78","130",,"5",,,,,,,,,,,,,,,,,,,,,,,,,,,,,,,,,,,,,"MET10409/20/19 03:29:02 SPECI KIAH 200929Z 13004KT 8SM BKN020 BKN050 BKN130 26/25 A2993 RMK AO2 T02610250 (CB)","FM-16","7",,,,,,,,,,,,,,,,,,,,,,,,,,,,"2009-06-11"
"72243012960","2019-09-20T03:51:00","FM-16","6",,,,,,,,,,,,,,,,,,,,,,,,,,,,,,,,,,,,,,"29.94","75","79",,,,,"89",,"SCT:04 20 BKN:07 130","29.83","8.00","76","120",,"6",,,,,,,,,,,,,,,,,,,,,,,,,,,,,,,,,,,,,"MET10209/20/19 03:51:02 SPECI KIAH 200951Z 12005KT 8SM SCT020 BKN130 26/24 A2994 RMK AO2 SCT V BKN FIBI (CB)","FM-16","6",,,,,,,,,,,,,,,,,,,,,,,,,,,,"2009-06-11"
"72243012960","2019-09-20T03:53:00","FM-15","7",,,,,,,,,,,,,,,,,,,,,,,,,,,,,,,,,,,,,,"29.94","76","78","0.00",,,,"93","29.93","SCT:04 20 BKN:07 130","29.83","8.00","77","120",,"6",,,,,,,,,,,,,,,,,,,,,,,,,,,,,,,,,,,,,"MET11409/20/19 03:53:02 METAR KIAH 200953Z 12005KT 8SM SCT020 BKN130 26/24 A2994 RMK AO2 SLP137 SCT V BKN T02560244 (CB)","FM-15","7",,,,,,,,,,,,,,,,,,,,,,,,,,,,"2009-06-11"
"72243012960","2019-09-20T04:53:00","FM-15","7",,,,,,,,,,,,,,,,,,,,,,,,,,,,,,,,,,,,,,"29.95","76","78","0.00",,,,"93","29.95","FEW:02 20 BKN:07 110 BKN:07 140","29.84","7.00","77","110",,"5",,,,,,,,,,,,,,,,,,,,,,,,,,,,,,,,,,,,,"MET11109/20/19 04:53:02 METAR KIAH 201053Z 11004KT 7SM FEW020 BKN110 BKN140 26/24 A2995 RMK AO2 SLP142 T02560244 (CB)","FM-15","7",,,,,,,,,,,,,,,,,,,,,,,,,,,,"2009-06-11"
"72243012960","2019-09-20T05:53:00","FM-15","7",,,,,,,,,,,,,,,,,,,,,,,,,,,,,,,,,,,,,,"29.96","77","79","0.00",,"-0.03","3","94","29.96","FEW:02 15 BKN:07 120 BKN:07 160","29.85","10.00","78","110",,"5",,,,,,,,,,,,,,,,,,,,,,,,,,,,,,,,,,,,,"MET13609/20/19 05:53:02 METAR KIAH 201153Z 11004KT 10SM FEW015 BKN120 BKN160 26/25 A2996 RMK AO2 SLP145 70921 T02610250 10267 20256 53010 (CB)","FM-15","7",,,,,,,,,,,,,,,,,,,,,,,,,,,,"2009-06-11"
"72243012960","2019-09-20T06:00:00","FM-12","4",,,,,,,,,,,,,,,,,,,,,,,,,,,,,,,,,,,,,,,"77","79",,,"-0.03","3","94","29.96","15","29.83","9.94","78","110",,"5",,,,,,,,,,,,,,,,,,,,,,,,,,,,,,,,,,,,,"SYN08672243 32466 61104 10261 20250 30102 40145 53010 91153 333 10278 20239 72339 555 92012=","FM-12","4",,,,,,,,,,,,,,,,,,,,,,,,,,,,"2009-06-11"
"72243012960","2019-09-20T06:53:00","FM-15","7",,,,,,,,,,,,,,,,,,,,,,,,,,,,,,,,,,,,,,"29.98","77","79","0.00",,,,"94","29.97","FEW:02 15 SCT:04 120 BKN:07 150","29.87","7.00","78","130",,"5",,,,,,,,,,,,,,,,,,,,,,,,,,,,,,,,,,,,,"MET11109/20/19 06:53:02 METAR KIAH 201253Z 13004KT 7SM FEW015 SCT120 BKN150 26/25 A2998 RMK AO2 SLP150 T02610250 (WS)","FM-15","7",,,,,,,,,,,,,,,,,,,,,,,,,,,,"2009-06-11"
"72243012960","2019-09-20T07:53:00","FM-15","7",,,,,,,,,,,,,,,,,,,,,,,,,,,,,,,,,,,,,,"29.99","78","83","0.00",,,,"85","29.99","SCT:04 20 SCT:04 120 BKN:07 150","29.88","10.00","79","140",,"9",,,,,,,,,,,,,,,,,,,,,,,,,,,,,,,,,,,,,"MET11209/20/19 07:53:02 METAR KIAH 201353Z 14008KT 10SM SCT020 SCT120 BKN150 28/26 A2999 RMK AO2 SLP155 T02830256 (WS)","FM-15","7",,,,,,,,,,,,,,,,,,,,,,,,,,,,"2009-06-11"
"72243012960","2019-09-20T08:53:00","FM-15","7",,,,,,,,,,,,,,,,,,,,,,,,,,,,,,,,,,,,,,"30.00","77","86","0.00",,"-0.04","1","75","30.00","SCT:04 20 BKN:07 150 BKN:07 250","29.89","10.00","80","150",,"13",,,,,,,,,,,,,,,,,,,,,,,,,,,,,,,,,,,,,"MET11809/20/19 08:53:02 METAR KIAH 201453Z 15011KT 10SM SCT020 BKN150 BKN250 30/25 A3000 RMK AO2 SLP158 T03000250 51014 (WS)","FM-15","7",,,,,,,,,,,,,,,,,,,,,,,,,,,,"2009-06-11"
"72243012960","2019-09-20T09:53:00","FM-15","7",,,,,,,,,,,,,,,,,,,,,,,,,,,,,,,,,,,,,,"30.01","76","87","0.00",,,,"70","30.01","SCT:04 20 BKN:07 35","29.90","10.00","79","180",,"9",,,,,,,,,,,,,,,,,,,,,,,,,,,,,,,,,,,,,"MET15709/20/19 09:53:02 METAR KIAH 201553Z 18008KT 10SM SCT020CB BKN035 BKN1 31/24 A3001 RMK AO2 SLP161 CB AND VCSH SW-NW MOV N CB AND SHRA DSNT E-S T03060244 (WS)","FM-15","7",,,,,,,,,,,,,,,,,,,,,,,,,,,,"2009-06-11"
"72243012960","2019-09-20T10:10:00","FM-16","7",,,,,,,,,,,,,,,,,,,,,,,,,,,,,,,,,,,,,,"30.01","77","86","T","TS:7 RA:02 |RA TS TS |RA",,,"75",,"SCT:04 20 BKN:07 35 OVC:08 100","29.90","2.00","80","220",,"9",,,,,,,,,,,,,,,,,,,,,,,,,,,,,,,,,,,,,"MET17009/20/19 10:10:02 SPECI KIAH 201610Z 22008KT 2SM TSRA SCT020CB BKN035 OVC100 30/25 A3001 RMK AO2 RAB10 TSB10 OCNL LTGCG W TS W MOV NW CB ALQDS MOV NW P0000 T03000250 (WS)","FM-16","7",,,,,,,,,,,,,,,,,,,,,,,,,,,,"2009-06-11"
"72243012960","2019-09-20T10:22:00","FM-16","7",,,,,,,,,,,,,,,,,,,,,,,,,,,,,,,,,,,,,,"30.01","74","78","T","TS:7 +RA:02 BR:1 |RA TS |RA",,,"87",,"BKN:07 20 BKN:07 35 OVC:08 100","29.90","2.00","75","140","23","16",,,,,,,,,,,,,,,,,,,,,,,,,,,,,,,,,,,,,"MET17809/20/19 10:22:02 SPECI KIAH 201622Z 14014G20KT 2SM +TSRA BR BKN020CB BKN035 OVC100 26/23 A3001 RMK AO2 RAB10 TSB10 WSHFT 16 OCNL LTGCG ALQDS TS ALQDS MOV NW P0000 T02560233 (WS)","FM-16","7",,,,,,,,,,,,,,,,,,,,,,,,,,,,"2009-06-11"
"72243012960","2019-09-20T10:41:00","FM-16","7",,,,,,,,,,,,,,,,,,,,,,,,,,,,,,,,,,,,,,"30.03","74","77","0.04","|RA |RA",,,"90",,"SCT:04 20 SCT:04 35","29.92","4.00","75","230",,"5",,,,,,,,,,,,,,,,,,,,,,,,,,,,,,,,,,,,,"MET17409/20/19 10:41:02 SPECI KIAH 201641Z 23004KT 4SM -RA BR SCT020CB SCT035 BKN1 25/23 A3003 RMK AO2 LTG DSNT E RAB10 TSB10E41 PRESRR CB SW-N MOV N CB DSNT E P0004 T02500233 (WS)","FM-16","7",,,,,,,,,,,,,,,,,,,,,,,,,,,,"2009-06-11"
"72243012960","2019-09-20T10:53:00","FM-15","7",,,,,,,,,,,,,,,,,,,,,,,,,,,,,,,,,,,,,,"30.03","74","79","0.04","|TS |RA",,,"85","30.03","SCT:04 20 BKN:07 35","29.92","10.00","76","240",,"6",,,,,,,,,,,,,,,,,,,,,,,,,,,,,,,,,,,,,"MET20209/20/19 10:53:02 METAR KIAH 201653Z 24005KT 10SM -TSRA SCT020CB BKN035 BKN1 26/23 A3003 RMK AO2 LTG DSNT NW-E RAB10 TSB10E41B53 SLP169 FRQ LTGCG NW-N TS NW-N MOV N CB DSNT E AND SW P0004 T02610233 (WS)","FM-15","7",,,,,,,,,,,,,,,,,,,,,,,,,,,,"2009-06-11"
"72243012960","2019-09-20T11:23:00","FM-16","7",,,,,,,,,,,,,,,,,,,,,,,,,,,,,,,,,,,,,,"30.02","75","80","0.01","|RA |RA",,,"85",,"SCT:04 20 BKN:07 30","29.91","10.00","77","070",,"9",,,,,,,,,,,,,,,,,,,,,,,,,,,,,,,,,,,,,"MET14509/20/19 11:23:02 SPECI KIAH 201723Z 07008KT 10SM -RA SCT020CB BKN030 BKN1 27/24 A3002 RMK AO2 LTG DSNT N TSE23 CB W-N MOV N P0001 T02670239 (WS)","FM-16","7",,,,,,,,,,,,,,,,,,,,,,,,,,,,"2009-06-11"
"72243012960","2019-09-20T11:53:00","FM-15","7",,,,,,,,,,,,,,,,,,,,,,,,,,,,,,,,,,,,,,"30.02","74","79","0.01","|RA |RA","-0.02","0","85","30.02","FEW:02 20 SCT:04 30 BKN:07 110","29.91","10.00","76","110",,"10",,,,,,,,,,,,,,,,,,,,,,,,,,,,,,,,,,,,,"MET17709/20/19 11:53:02 METAR KIAH 201753Z 11009KT 10SM -RA FEW020 SCT030 BKN110 26/23 A3002 RMK AO2 TSE23 SLP166 CB DSNT N AND SE-S MOV N P0001 60005 T02610233 10306 20250 50007 (WS)","FM-15","7",,,,,,,,,,,,,,,,,,,,,,,,,,,,"2009-06-11"
"72243012960","2019-09-20T12:00:00","FM-12","4",,,,,,,,,,,,,,,,,,,,,,,,,,,,,,,,,,,,,,,"74","79",,"||RA","0.02","9","85","30.02","26","29.89","9.94","76","110",,"10",,,,,,,,,,,,,,,,,,,,,,,,,,,,,,,,,,,,,"SYN09272243 11566 81109 10261 20233 30122 40166 50007 60011 761// 91753 333 10306 20233 555 92018=","FM-12","4",,,,,,,,,,,,,,,,,,,,,,,,,,,,"2009-06-11"
"72243012960","2019-09-20T12:53:00","FM-15","7",,,,,,,,,,,,,,,,,,,,,,,,,,,,,,,,,,,,,,"30.02","72","79","T","|RA |RA",,,"79","30.02","SCT:04 20 BKN:07 75","29.91","10.00","74","170",,"11",,,,,,,,,,,,,,,,,,,,,,,,,,,,,,,,,,,,,"MET13809/20/19 12:53:02 METAR KIAH 201853Z 17010KT 10SM -RA SCT020CB BKN075 BKN1 26/22 A3002 RMK AO2 SLP167 CB SW-NW MOV NW P0000 T02610222 (WS)","FM-15","7",,,,,,,,,,,,,,,,,,,,,,,,,,,,"2009-06-11"
"72243012960","2019-09-20T13:53:00","FM-15","7",,,,,,,,,,,,,,,,,,,,,,,,,,,,,,,,,,,,,,"29.99","74","84","0.00",,,,"72","29.98","FEW:02 20 SCT:04 75 SCT:04 110","29.88","10.00","77","120",,"9",,,,,,,,,,,,,,,,,,,,,,,,,,,,,,,,,,,,,"MET12609/20/19 13:53:02 METAR KIAH 201953Z 12008KT 10SM FEW020 SCT075 SCT110 29/23 A2999 RMK AO2 RAE1855 SLP153 P0000 T02890233 (WS)","FM-15","7",,,,,,,,,,,,,,,,,,,,,,,,,,,,"2009-06-11"
"72243012960","2019-09-20T14:53:00","FM-15","7",,,,,,,,,,,,,,,,,,,,,,,,,,,,,,,,,,,,,,"29.98","76","86","0.00",,"+0.04","8","72","29.98","SCT:04 30 BKN:07 95","29.87","10.00","79","130",,"16",,,,,,,,,,,,,,,,,,,,,,,,,,,,,,,,,,,,,"MET16009/20/19 14:53:02 METAR KIAH 202053Z 13014KT 10SM SCT030TCU BKN095 BKN 30/24 A2998 RMK AO2 LTG DSNT W SLP152 CB DSNT W MOV N TCU SW-W 60000 T03000244 58013 (MM)","FM-15","7",,,,,,,,,,,,,,,,,,,,,,,,,,,,"2009-06-11"
"72243012960","2019-09-20T15:38:00","FM-16","7",,,,,,,,,,,,,,,,,,,,,,,,,,,,,,,,,,,,,,"30.00","71","80","T","|TS |RA",,,"74",,"BKN:07 30 BKN:07 100","29.89","10.00","74","210","26","17",,,,,,,,,,,,,,,,,,,,,,,,,,,,,,,,,,,,,"MET17809/20/19 15:38:02 SPECI KIAH 202138Z 21015G23KT 10SM -TSRA BKN030CB BKN100 BKN1 27/22 A3000 RMK AO2 RAB36 TSB38 VIS SW-NW 2 OCNL LTGICCG SW-NW TS SW-NW MOV N P0000 T02670217 (MM)","FM-16","7",,,,,,,,,,,,,,,,,,,,,,,,,,,,"2009-06-11"
"72243012960","2019-09-20T15:51:00","FM-16","6",,,,,,,,,,,,,,,,,,,,,,,,,,,,,,,,,,,,,,"30.01","70","79",,"||RA",,,"74",,"BKN:07 30 BKN:07 100","29.90","10.00","73","260","31","9",,,,,,,,,,,,,,,,,,,,,,,,,,,,,,,,,,,,,"MET22109/20/19 15:51:02 SPECI KIAH 202151Z 26008G27KT 10SM TSRA BKN030CB BKN100 BKN1 26/21 A3001 RMK AO2 PK WND 21027/2143 WSHFT 2134 LTG DSNT S AND NW RAB36 TSB38 VIS SW-NW 2 OCNL LTGICCG SW-NW TS SW-NW MOV N P0013 $ FIBI (MM)","FM-16","6",,,,,,,,,,,,,,,,,,,,,,,,,,,,"2009-06-11"
"72243012960","2019-09-20T15:53:00","FM-15","7",,,,,,,,,,,,,,,,,,,,,,,,,,,,,,,,,,,,,,"30.01","70","78","0.14","|TS |RA",,,"76","30.01","SCT:04 25 BKN:07 50","29.90","7.00","73","240",,"9",,,,,,,,,,,,,,,,,,,,,,,,,,,,,,,,,,,,,"MET20609/20/19 15:53:02 METAR KIAH 202153Z 24008KT 7SM -TSRA SCT025CB BKN050 BKN1 26/21 A3001 RMK AO2 RAB36 TSB38 SLP161 PK WND 21027/2143 VIS S AND NW 2 OCNL LTGICCG S-W-NW TS S-W-NW MOV N P0014 T02560211 $ (MM)","FM-15","7",,,,,,,,,,,,,,,,,,,,,,,,,,,,"2009-06-11"
"72243012960","2019-09-20T15:57:00","FM-16","7",,,,,,,,,,,,,,,,,,,,,,,,,,,,,,,,,,,,,,"30.01","71","78","T","|TS |RA",,,"79",,"SCT:04 25 BKN:07 50","29.90","2.00","73","VRB",,"7",,,,,,,,,,,,,,,,,,,,,,,,,,,,,,,,,,,,,"MET16509/20/19 15:57:02 SPECI KIAH 202157Z VRB06KT 2SM TSRA SCT025CB BKN050 BKN1 26/22 A3001 RMK AO2 OCNL LTGICCG OHD AND S-NW TS OHD AND S-NW MOV N P0000 T02560217 $ (MM)","FM-16","7",,,,,,,,,,,,,,,,,,,,,,,,,,,,"2009-06-11"
"72243012960","2019-09-20T16:11:00","FM-16","7",,,,,,,,,,,,,,,,,,,,,,,,,,,,,,,,,,,,,,"30.01","71","75","0.32","TS:7 +RA:02 BR:1 |RA TS |RA",,,"88",,"BKN:07 25 BKN:07 100 OVC:08 250","29.90","1.25","72","160","30","21",,,,,,,,,,,,,,,,,,,,,,,,,,,,,,,,,,,,,"MET19609/20/19 16:11:02 SPECI KIAH 202211Z 16018G26KT 1 1/4SM +TSRA BR BKN025CB BKN100 OVC250 24/22 A3001 RMK AO2 PK WND 15026/2209 OCNL LTGICCG OHD AND S-NW TS OHD AND S-NW MOV N P0032 T02390217 $ (MM)","FM-16","7",,,,,,,,,,,,,,,,,,,,,,,,,,,,"2009-06-11"
"72243012960","2019-09-20T16:31:00","FM-16","7",,,,,,,,,,,,,,,,,,,,,,,,,,,,,,,,,,,,,,"30.00","71","76","0.60","TS:7 RA:02 |RA TS TS |RA",,,"85",,"SCT:04 25 BKN:07 70 OVC:08 250","29.89","2.50","73","140",,"18",,,,,,,,,,,,,,,,,,,,,,,,,,,,,,,,,,,,,"MET18509/20/19 16:31:02 SPECI KIAH 202231Z 14016KT 2 1/2SM TSRA SCT025CB BKN070 OVC250 24/22 A3000 RMK AO2 PK WND 15026/2209 OCNL LTGICCG N AND SE-S TS N AND SE-S MOV N P0060 T02440217 $ (MM)","FM-16","7",,,,,,,,,,,,,,,,,,,,,,,,,,,,"2009-06-11"
"72243012960","2019-09-20T16:53:00","FM-15","7",,,,,,,,,,,,,,,,,,,,,,,,,,,,,,,,,,,,,,"29.99","74","79","0.66","|RA |RA",,,"85","29.99","SCT:04 25 SCT:04 70 BKN:07 120","29.88","6.00","76","110",,"14",,,,,,,,,,,,,,,,,,,,,,,,,,,,,,,,,,,,,"MET16909/20/19 16:53:02 METAR KIAH 202253Z 11012KT 6SM RA SCT025 SCT070 BKN120 26/23 A2999 RMK AO2 TSE52 SLP155 TS DSIPT PK WND 15026/2209 VIS NW-N-NE 2 P0063 T02610233 $ (MM)","FM-15","7",,,,,,,,,,,,,,,,,,,,,,,,,,,,"2009-06-11"
"72243012960","2019-09-20T17:53:00","FM-15","7",,,,,,,,,,,,,,,,,,,,,,,,,,,,,,,,,,,,,,"30.00","74","79","0.03",,"-0.01","1","85","29.99","SCT:04 25 SCT:04 70","29.89","10.00","76","110",,"11",,,,,,,,,,,,,,,,,,,,,,,,,,,,,,,,,,,,,"MET17409/20/19 17:53:02 METAR KIAH 202353Z 11010KT 10SM SCT025CB SCT070 BKN1 26/23 A3000 RMK AO2 RAE47 SLP157 CB AND VCSH S-SW MOV NW P0006 60083 T02610233 10300 20239 51003 $ (MM)","FM-15","7",,,,,,,,,,,,,,,,,,,,,,,,,,,,"2009-06-11"
"72243012960","2019-09-20T18:00:00","FM-12","4",,,,,,,,,,,,,,,,,,,,,,,,,,,,,,,,,,,,,,,"74","79",,,"-0.01","1","85","29.99","26","29.87","9.94","76","110",,"11",,,,,,,,,,,,,,,,,,,,,,,,,,,,,,,,,,,,,"SYN08672243 12566 61110 10261 20233 30115 40157 51003 60211 92353 333 10306 20239 555 92100=","FM-12","4",,,,,,,,,,,,,,,,,,,,,,,,,,,,"2009-06-11"
"72243012960","2019-09-20T18:53:00","FM-15","7",,,,,,,,,,,,,,,,,,,,,,,,,,,,,,,,,,,,,,"30.01","73","79","0.00",,,,"82","30.01","SCT:04 17 SCT:04 75 BKN:07 120","29.90","10.00","75","000",,"0",,,,,,,,,,,,,,,,,,,,,,,,,,,,,,,,,,,,,"MET11709/20/19 18:53:01 METAR KIAH 210053Z 00000KT 10SM SCT017 SCT075 BKN120 26/23 A3001 RMK AO2 SLP161 VCSH NW T02610228 $","FM-15","7",,,,,,,,,,,,,,,,,,,,,,,,,,,,"2009-06-11"
"72243012960","2019-09-20T19:53:00","FM-15","7",,,,,,,,,,,,,,,,,,,,,,,,,,,,,,,,,,,,,,"30.02","74","78","0.00",,,,"87","30.01","SCT:04 20 SCT:04 80 BKN:07 140","29.91","10.00","75","110",,"8",,,,,,,,,,,,,,,,,,,,,,,,,,,,,,,,,,,,,"MET11609/20/19 19:53:01 METAR KIAH 210153Z 11007KT 10SM SCT020 SCT080 BKN140 26/23 A3002 RMK AO2 SLP163 VCSH N T02560233 $","FM-15","7",,,,,,,,,,,,,,,,,,,,,,,,,,,,"2009-06-11"
"72243012960","2019-09-20T20:53:00","FM-15","7",,,,,,,,,,,,,,,,,,,,,,,,,,,,,,,,,,,,,,"30.03","75","78","0.00",,"-0.03","2","90","30.02","FEW:02 20 FEW:02 90 BKN:07 150","29.92","10.00","76","120",,"6",,,,,,,,,,,,,,,,,,,,,,,,,,,,,,,,,,,,,"MET11509/20/19 20:53:01 METAR KIAH 210253Z 12005KT 10SM FEW020 FEW090 BKN150 26/24 A3003 RMK AO2 SLP167 T02560239 52011 $","FM-15","7",,,,,,,,,,,,,,,,,,,,,,,,,,,,"2009-06-11"
"72243012960","2019-09-20T21:53:00","FM-15","7",,,,,,,,,,,,,,,,,,,,,,,,,,,,,,,,,,,,,,"30.03","75","79","0.00",,,,"88","30.03","FEW:02 22 BKN:07 160 BKN:07 250","29.92","10.00","76","120",,"9",,,,,,,,,,,,,,,,,,,,,,,,,,,,,,,,,,,,,"MET10909/20/19 21:53:02 METAR KIAH 210353Z 12008KT 10SM FEW022 BKN160 BKN250 26/24 A3003 RMK AO2 SLP168 T02610239 $","FM-15","7",,,,,,,,,,,,,,,,,,,,,,,,,,,,"2009-06-11"
"72243012960","2019-09-20T22:53:00","FM-15","7",,,,,,,,,,,,,,,,,,,,,,,,,,,,,,,,,,,,,,"30.05","75","79","0.00",,,,"88","30.05","FEW:02 22 BKN:07 160 BKN:07 250","29.94","10.00","76","110",,"6",,,,,,,,,,,,,,,,,,,,,,,,,,,,,,,,,,,,,"MET10909/20/19 22:53:02 METAR KIAH 210453Z 11005KT 10SM FEW022 BKN160 BKN250 26/24 A3005 RMK AO2 SLP177 T02610239 $","FM-15","7",,,,,,,,,,,,,,,,,,,,,,,,,,,,"2009-06-11"
"72243012960","2019-09-20T23:53:00","FM-15","7",,,,,,,,,,,,,,,,,,,,,,,,,,,,,,,,,,,,,,"30.06","74","76","0.00",,"-0.03","1","94","30.06","FEW:02 24 FEW:02 160 BKN:07 250","29.95","10.00","75","130",,"3",,,,,,,,,,,,,,,,,,,,,,,,,,,,,,,,,,,,,"MET13709/20/19 23:53:02 METAR KIAH 210553Z 13003KT 10SM FEW024 FEW160 BKN250 24/23 A3006 RMK AO2 SLP178 T02440233 10267 20244 403060239 51010 $","FM-15","7",,,,,,,,,,,,,,,,,,,,,,,,,,,,"2009-06-11"
"72243012960","2019-09-20T23:59:00","SOD  ","6",,,,,,,,,,,,,,,,"81",,,"29.89",,"7.6","16","2.1","0","87","75","210","31","0.88","0","0.0","160","23","TS RA BR",,,,,,,,,,,,,,,,,,,,,,,,,,,,,,,,,,,,,,,,,,,,,,,,,,,,,,,,"SOD75724 HR PRECIPITATION (IN): 0.88 SNOW DEPTH (IN):0     24 HR SNOWFALL (IN):0.0  WEATHER(CODE):13  24 HR MAX TEMP (F): 8724 HR MIN TEMP (F): 75AVERAGE STATION PRESSURE:29.890 MINIMUM SEA LEVEL PRESSURE:29.92 TIME OF OCCURRENCE:0013 PEAK WIND SPEED (MPH): 31 PEAK WIND DIR (DEG):210 PEAK WIND TIME (LST):      FASTEST 2MIN SPEED (MPH): 23FASTEST 2MIN DIR (DEG):160 FASTEST 2MIN TIME (LST):     AVERAGE WIND SPEED (MPH): 7.6 24 HR AVG TEMP (F): 81DEPART FROM NORMAL:  2  HEATING DEGREE DAYS:  0 COOLING DEGREE DAYS: 16 LATEST DAY MAX TEMP (0700-1900 LST):87  LATEST NIGHT MIN TEMP(1900-0800 LST):75 HOURLY INCREMENTAL PRECIPITATION VALUES (IN):.00 0.00 0.00 0.00 0.00 0.00 0.00 0.00 0.00 0.00 0.04 0.01 T    0.00 0.00 0.14 0.66 0.03 0.00 0.00 0.00 0.00 0.00 0.00","SOD  ","6",,,,,,,,,,,,,,,,,,,,,,,,,"0609","1821",,"2009-06-11"
"72243012960","2019-09-21T00:00:00","FM-12","4",,,,,,,,,,,,,,,,,,,,,,,,,,,,,,,,,,,,,,,"74","76",,,"-0.03","1","94","30.06","26","29.93","9.94","75","130",,"3",,,,,,,,,,,,,,,,,,,,,,,,,,,,,,,,,,,,,"SYN08072243 32566 61303 10244 20233 30136 40178 51010 90553 333 10267 20244 555 92106=","FM-12","4",,,,,,,,,,,,,,,,,,,,,,,,,,,,"2009-06-11"
"72243012960","2019-09-21T00:53:00","FM-15","6",,,,,,,,,,,,,,,,,,,,,,,,,,,,,,,,,,,,,,"30.05","73","75","0.00",,,,"94","30.04","FEW:02 24 FEW:02 160 SCT:04 250","29.94","10.00","74","120",,"3",,,,,,,,,,,,,,,,,,,,,,,,,,,,,,,,,,,,,"MET11509/21/19 00:53:02 METAR KIAH 210653Z 12003KT 10SM FEW024 FEW160 SCT250 24/23 A3005 RMK AO2 SLP174 T02390228 $ (JAG)","FM-15","6",,,,,,,,,,,,,,,,,,,,,,,,,,,,"2009-06-11"
"72243012960","2019-09-21T01:53:00","FM-15","6",,,,,,,,,,,,,,,,,,,,,,,,,,,,,,,,,,,,,,"30.04","73","75","0.00",,,,"94","30.04","FEW:02 24 FEW:02 160 SCT:04 250","29.93","10.00","74","100",,"3",,,,,,,,,,,,,,,,,,,,,,,,,,,,,,,,,,,,,"MET11509/21/19 01:53:02 METAR KIAH 210753Z 10003KT 10SM FEW024 FEW160 SCT250 24/23 A3004 RMK AO2 SLP172 T02390228 $ (JAG)","FM-15","6",,,,,,,,,,,,,,,,,,,,,,,,,,,,"2009-06-11"
"72243012960","2019-09-21T02:53:00","FM-15","6",,,,,,,,,,,,,,,,,,,,,,,,,,,,,,,,,,,,,,"30.03","74","76","0.00",,"+0.03","8","94","30.02","FEW:02 24 SCT:04 250","29.92","9.00","75","100",,"7",,,,,,,,,,,,,,,,,,,,,,,,,,,,,,,,,,,,,"MET11309/21/19 02:53:02 METAR KIAH 210853Z 10006KT 9SM FEW024 SCT250 24/23 A3003 RMK AO2 SLP166 T02440233 58010 $ (JAG)","FM-15","6",,,,,,,,,,,,,,,,,,,,,,,,,,,,"2009-06-11"
"72243012960","2019-09-21T03:53:00","FM-15","6",,,,,,,,,,,,,,,,,,,,,,,,,,,,,,,,,,,,,,"30.03","74","76","0.00",,,,"94","30.02","FEW:02 24 SCT:04 250","29.92","10.00","75","130",,"3",,,,,,,,,,,,,,,,,,,,,,,,,,,,,,,,,,,,,"MET10809/21/19 03:53:02 METAR KIAH 210953Z 13003KT 10SM FEW024 SCT250 24/23 A3003 RMK AO2 SLP167 T02440233 $ (JAG)","FM-15","6",,,,,,,,,,,,,,,,,,,,,,,,,,,,"2009-06-11"
"72243012960","2019-09-21T04:53:00","FM-15","6",,,,,,,,,,,,,,,,,,,,,,,,,,,,,,,,,,,,,,"30.03","74","76","0.00",,,,"94","30.03","FEW:02 24 SCT:04 250","29.92","10.00","75","120",,"7",,,,,,,,,,,,,,,,,,,,,,,,,,,,,,,,,,,,,"MET10809/21/19 04:53:02 METAR KIAH 211053Z 12006KT 10SM FEW024 SCT250 24/23 A3003 RMK AO2 SLP170 T02440233 $ (JAG)","FM-15","6",,,,,,,,,,,,,,,,,,,,,,,,,,,,"2009-06-11"
"72243012960","2019-09-21T05:53:00","FM-15","7",,,,,,,,,,,,,,,,,,,,,,,,,,,,,,,,,,,,,,"30.05","73","75","0.00",,"-0.02","3","94","30.05","FEW:02 24 FEW:02 250","29.94","10.00","74","090",,"7",,,,,,,,,,,,,,,,,,,,,,,,,,,,,,,,,,,,,"MET13209/21/19 05:53:02 METAR KIAH 211153Z 09006KT 10SM FEW024 FEW250 24/23 A3005 RMK AO2 SLP175 70088 T02390228 10244 20239 53007 $ (JAG)","FM-15","7",,,,,,,,,,,,,,,,,,,,,,,,,,,,"2009-06-11"
"72243012960","2019-09-21T06:00:00","FM-12","4",,,,,,,,,,,,,,,,,,,,,,,,,,,,,,,,,,,,,,,"73","75",,,"-0.02","3","94","30.05","26","29.92","9.94","74","090",,"7",,,,,,,,,,,,,,,,,,,,,,,,,,,,,,,,,,,,,"SYN08672243 32566 20906 10239 20228 30132 40175 53007 91153 333 10306 20239 70224 555 92112=","FM-12","4",,,,,,,,,,,,,,,,,,,,,,,,,,,,"2009-06-11"
"72243012960","2019-09-21T06:53:00","FM-15","7",,,,,,,,,,,,,,,,,,,,,,,,,,,,,,,,,,,,,,"30.06","74","76","0.00",,,,"94","30.06","FEW:02 250","29.95","10.00","75","120",,"7",,,,,,,,,,,,,,,,,,,,,,,,,,,,,,,,,,,,,"MET10009/21/19 06:53:02 METAR KIAH 211253Z 12006KT 10SM FEW250 24/23 A3006 RMK AO2 SLP179 T02440233 $ (WS)","FM-15","7",,,,,,,,,,,,,,,,,,,,,,,,,,,,"2009-06-11"
"72243012960","2019-09-21T07:53:00","FM-15","7",,,,,,,,,,,,,,,,,,,,,,,,,,,,,,,,,,,,,,"30.08","75","79","0.00",,,,"88","30.08","FEW:02 24 FEW:02 250","29.97","10.00","76","100",,"8",,,,,,,,,,,,,,,,,,,,,,,,,,,,,,,,,,,,,"MET10709/21/19 07:53:02 METAR KIAH 211353Z 10007KT 10SM FEW024 FEW250 26/24 A3008 RMK AO2 SLP185 T02610239 $ (WS)","FM-15","7",,,,,,,,,,,,,,,,,,,,,,,,,,,,"2009-06-11"
"72243012960","2019-09-21T08:53:00","FM-15","7",,,,,,,,,,,,,,,,,,,,,,,,,,,,,,,,,,,,,,"30.09","76","83","0.00",,"-0.04","1","79","30.09","SCT:04 25","29.98","10.00","78","110",,"11",,,,,,,,,,,,,,,,,,,,,,,,,,,,,,,,,,,,,"MET10609/21/19 08:53:02 METAR KIAH 211453Z 11010KT 10SM SCT025 28/24 A3009 RMK AO2 SLP188 T02830244 51014 $ (WS)","FM-15","7",,,,,,,,,,,,,,,,,,,,,,,,,,,,"2009-06-11"
"72243012960","2019-09-21T09:31:00","FM-16","7",,,,,,,,,,,,,,,,,,,,,,,,,,,,,,,,,,,,,,"30.09","75","84",,,,,"74",,"BKN:07 20","29.98","10.00","78","120",,"11",,,,,,,,,,,,,,,,,,,,,,,,,,,,,,,,,,,,,"MET09309/21/19 09:31:02 SPECI KIAH 211531Z 12010KT 10SM BKN020 29/24 A3009 RMK AO2 T02890239 $ (WS)","FM-16","7",,,,,,,,,,,,,,,,,,,,,,,,,,,,"2009-06-11"
"72243012960","2019-09-21T09:53:00","FM-15","7",,,,,,,,,,,,,,,,,,,,,,,,,,,,,,,,,,,,,,"30.09","74","85","0.00",,,,"70","30.09","BKN:07 23","29.98","10.00","77","140",,"16",,,,,,,,,,,,,,,,,,,,,,,,,,,,,,,,,,,,,"MET10009/21/19 09:53:02 METAR KIAH 211553Z 14014KT 10SM BKN023 29/23 A3009 RMK AO2 SLP189 T02940233 $ (WS)","FM-15","7",,,,,,,,,,,,,,,,,,,,,,,,,,,,"2009-06-11"
"72243012960","2019-09-21T10:30:00","FM-16","7",,,,,,,,,,,,,,,,,,,,,,,,,,,,,,,,,,,,,,"30.09","73","87",,,,,"63",,"BKN:07 30","29.98","10.00","77","150",,"15",,,,,,,,,,,,,,,,,,,,,,,,,,,,,,,,,,,,,"MET09309/21/19 10:30:02 SPECI KIAH 211630Z 15013KT 10SM BKN030 31/23 A3009 RMK AO2 T03060228 $ (WS)","FM-16","7",,,,,,,,,,,,,,,,,,,,,,,,,,,,"2009-06-11"
"72243012960","2019-09-21T10:53:00","FM-15","7",,,,,,,,,,,,,,,,,,,,,,,,,,,,,,,,,,,,,,"30.09","72","88","0.00",,,,"59","30.08","SCT:04 32","29.98","10.00","77","120",,"16",,,,,,,,,,,,,,,,,,,,,,,,,,,,,,,,,,,,,"MET10009/21/19 10:53:02 METAR KIAH 211653Z 12014KT 10SM SCT032 31/22 A3009 RMK AO2 SLP187 T03110222 $ (WS)","FM-15","7",,,,,,,,,,,,,,,,,,,,,,,,,,,,"2009-06-11"
"72243012960","2019-09-21T11:53:00","FM-15","7",,,,,,,,,,,,,,,,,,,,,,,,,,,,,,,,,,,,,,"30.07","71","89","0.00",,"+0.01","8","55","30.07","SCT:04 35","29.96","10.00","76","130",,"16",,,,,,,,,,,,,,,,,,,,,,,,,,,,,,,,,,,,,"MET11809/21/19 11:53:02 METAR KIAH 211753Z 13014KT 10SM SCT035 32/22 A3007 RMK AO2 SLP182 T03170217 10317 20239 58005 $ (WS)","FM-15","7",,,,,,,,,,,,,,,,,,,,,,,,,,,,"2009-06-11"
"72243012960","2019-09-21T12:00:00","FM-12","4",,,,,,,,,,,,,,,,,,,,,,,,,,,,,,,,,,,,,,,"71","89",,,"+0.01","8","55","30.07","41","29.94","9.94","76","130",,"16",,,,,,,,,,,,,,,,,,,,,,,,,,,,,,,,,,,,,"SYN08072243 32666 41314 10317 20217 30139 40182 58005 91753 333 10317 20239 555 92118=","FM-12","4",,,,,,,,,,,,,,,,,,,,,,,,,,,,"2009-06-11"
"72243012960","2019-09-21T12:53:00","FM-15","7",,,,,,,,,,,,,,,,,,,,,,,,,,,,,,,,,,,,,,"30.05","71","89","0.00",,,,"55","30.05","SCT:04 35","29.94","10.00","76","130",,"13",,,,,,,,,,,,,,,,,,,,,,,,,,,,,,,,,,,,,"MET10009/21/19 12:53:02 METAR KIAH 211853Z 13011KT 10SM SCT035 32/22 A3005 RMK AO2 SLP175 T03170217 $ (WS)","FM-15","7",,,,,,,,,,,,,,,,,,,,,,,,,,,,"2009-06-11"
"72243012960","2019-09-21T13:53:00","FM-15","7",,,,,,,,,,,,,,,,,,,,,,,,,,,,,,,,,,,,,,"30.03","71","90","0.00",,,,"54","30.03","SCT:04 40","29.92","10.00","77","130","24","16",,,,,,,,,,,,,,,,,,,,,,,,,,,,,,,,,,,,,"MET10309/21/19 13:53:02 METAR KIAH 211953Z 13014G21KT 10SM SCT040 32/22 A3003 RMK AO2 SLP169 T03220217 $ (WS)","FM-15","7",,,,,,,,,,,,,,,,,,,,,,,,,,,,"2009-06-11"
"72243012960","2019-09-21T14:53:00","FM-15","7",,,,,,,,,,,,,,,,,,,,,,,,,,,,,,,,,,,,,,"30.02","72","88","0.00",,"+0.06","6","59","30.01","SCT:04 42","29.91","10.00","77","110",,"14",,,,,,,,,,,,,,,,,,,,,,,,,,,,,,,,,,,,,"MET12109/21/19 14:53:02 METAR KIAH 212053Z 11012KT 10SM SCT042 31/22 A3002 RMK AO2 SLP163 TCU DSNT SW-NW T03110222 56019 $ (MM)","FM-15","7",,,,,,,,,,,,,,,,,,,,,,,,,,,,"2009-06-11"
"72243012960","2019-09-21T15:53:00","FM-15","7",,,,,,,,,,,,,,,,,,,,,,,,,,,,,,,,,,,,,,"30.01","71","88","0.00",,,,"57","30.00","SCT:04 42","29.90","10.00","76","130",,"14",,,,,,,,,,,,,,,,,,,,,,,,,,,,,,,,,,,,,"MET11109/21/19 15:53:02 METAR KIAH 212153Z 13012KT 10SM SCT042 31/22 A3001 RMK AO2 SLP160 TCU DSNT S T03110217 $ (MM)","FM-15","7",,,,,,,,,,,,,,,,,,,,,,,,,,,,"2009-06-11"
"72243012960","2019-09-21T16:53:00","FM-15","7",,,,,,,,,,,,,,,,,,,,,,,,,,,,,,,,,,,,,,"30.00","71","86","0.00",,,,"61","29.99","FEW:02 35 SCT:04 250","29.89","10.00","76","130","24","18",,,,,,,,,,,,,,,,,,,,,,,,,,,,,,,,,,,,,"MET11009/21/19 16:53:02 METAR KIAH 212253Z 13016G21KT 10SM FEW035 SCT250 30/22 A3000 RMK AO2 SLP157 T03000217 $ (MM)","FM-15","7",,,,,,,,,,,,,,,,,,,,,,,,,,,,"2009-06-11"
"72243012960","2019-09-21T17:53:00","FM-15","7",,,,,,,,,,,,,,,,,,,,,,,,,,,,,,,,,,,,,,"30.00","70","84","0.00",,"+0.01","5","63","30.00","FEW:02 30 SCT:04 250","29.89","10.00","74","120",,"13",,,,,,,,,,,,,,,,,,,,,,,,,,,,,,,,,,,,,"MET12509/21/19 17:53:02 METAR KIAH 212353Z 12011KT 10SM FEW030 SCT250 29/21 A3000 RMK AO2 SLP159 T02890211 10322 20289 55005 $ (MM)","FM-15","7",,,,,,,,,,,,,,,,,,,,,,,,,,,,"2009-06-11"
"72243012960","2019-09-21T18:00:00","FM-12","4",,,,,,,,,,,,,,,,,,,,,,,,,,,,,,,,,,,,,,,"70","84",,,"+0.01","5","63","30.00","26","29.87","9.94","74","120",,"13",,,,,,,,,,,,,,,,,,,,,,,,,,,,,,,,,,,,,"SYN08072243 32566 41211 10289 20211 30115 40159 55005 92353 333 10322 20239 555 92200=","FM-12","4",,,,,,,,,,,,,,,,,,,,,,,,,,,,"2009-06-11"
"72243012960","2019-09-21T18:53:00","FM-15","7",,,,,,,,,,,,,,,,,,,,,,,,,,,,,,,,,,,,,,"30.00","72","82","0.00",,,,"72","30.00","FEW:02 25 FEW:02 250","29.89","10.00","75","140",,"13",,,,,,,,,,,,,,,,,,,,,,,,,,,,,,,,,,,,,"MET10209/21/19 18:53:01 METAR KIAH 220053Z 14011KT 10SM FEW025 FEW250 28/22 A3000 RMK AO2 SLP160 T02780222 $","FM-15","7",,,,,,,,,,,,,,,,,,,,,,,,,,,,"2009-06-11"
"72243012960","2019-09-21T19:53:00","FM-15","7",,,,,,,,,,,,,,,,,,,,,,,,,,,,,,,,,,,,,,"30.02","73","80","0.00",,,,"79","30.02","FEW:02 25","29.91","10.00","75","140",,"9",,,,,,,,,,,,,,,,,,,,,,,,,,,,,,,,,,,,,"MET09509/21/19 19:53:01 METAR KIAH 220153Z 14008KT 10SM FEW025 27/23 A3002 RMK AO2 SLP166 T02670228 $","FM-15","7",,,,,,,,,,,,,,,,,,,,,,,,,,,,"2009-06-11"
"72243012960","2019-09-21T20:53:00","FM-15","7",,,,,,,,,,,,,,,,,,,,,,,,,,,,,,,,,,,,,,"30.04","74","78","0.00",,"-0.04","3","87","30.03","FEW:02 20","29.93","10.00","75","120",,"8",,,,,,,,,,,,,,,,,,,,,,,,,,,,,,,,,,,,,"MET10109/21/19 20:53:01 METAR KIAH 220253Z 12007KT 10SM FEW020 26/23 A3004 RMK AO2 SLP170 T02560233 53012 $","FM-15","7",,,,,,,,,,,,,,,,,,,,,,,,,,,,"2009-06-11"
"72243012960","2019-09-21T21:53:00","FM-15","7",,,,,,,,,,,,,,,,,,,,,,,,,,,,,,,,,,,,,,"30.04","74","77","0.00",,,,"90","30.03","FEW:02 20","29.93","10.00","75","110",,"6",,,,,,,,,,,,,,,,,,,,,,,,,,,,,,,,,,,,,"MET09509/21/19 21:53:02 METAR KIAH 220353Z 11005KT 10SM FEW020 25/23 A3004 RMK AO2 SLP171 T02500233 $","FM-15","7",,,,,,,,,,,,,,,,,,,,,,,,,,,,"2009-06-11"
"72243012960","2019-09-21T22:53:00","FM-15","7",,,,,,,,,,,,,,,,,,,,,,,,,,,,,,,,,,,,,,"30.03","74","78","0.00",,,,"87","30.03","FEW:02 20","29.92","10.00","75","120",,"7",,,,,,,,,,,,,,,,,,,,,,,,,,,,,,,,,,,,,"MET09509/21/19 22:53:02 METAR KIAH 220453Z 12006KT 10SM FEW020 26/23 A3003 RMK AO2 SLP169 T02560233 $","FM-15","7",,,,,,,,,,,,,,,,,,,,,,,,,,,,"2009-06-11"
"72243012960","2019-09-21T23:53:00","FM-15","7",,,,,,,,,,,,,,,,,,,,,,,,,,,,,,,,,,,,,,"30.03","75","78","0.00",,"+0.01","8","90","30.02","SCT:04 23 SCT:04 250","29.92","10.00","76","170",,"3",,,,,,,,,,,,,,,,,,,,,,,,,,,,,,,,,,,,,"MET13009/21/19 23:53:02 METAR KIAH 220553Z 17003KT 10SM SCT023 SCT250 26/24 A3003 RMK AO2 SLP166 T02560239 10289 20244 403220239 58004 $","FM-15","7",,,,,,,,,,,,,,,,,,,,,,,,,,,,"2009-06-11"
"72243012960","2019-09-21T23:59:00","SOD  ","6",,,,,,,,,,,,,,,,"83",,,"29.92",,"10.0","18","4.4","0","90","75","120","25","0.00","0","0.0","130","21",,,,,,,,,,,,,,,,,,,,,,,,,,,,,,,,,,,,,,,,,,,,,,,,,,,,,,,,,"SOD73924 HR PRECIPITATION (IN): 0.00 SNOW DEPTH (IN):0     24 HR SNOWFALL (IN):0.0  24 HR MAX TEMP (F): 9024 HR MIN TEMP (F): 75AVERAGE STATION PRESSURE:29.920 MINIMUM SEA LEVEL PRESSURE:29.99 TIME OF OCCURRENCE:1823 PEAK WIND SPEED (MPH): 25 PEAK WIND DIR (DEG):120 PEAK WIND TIME (LST):      FASTEST 2MIN SPEED (MPH): 21FASTEST 2MIN DIR (DEG):130 FASTEST 2MIN TIME (LST):     AVERAGE WIND SPEED (MPH):10.0 24 HR AVG TEMP (F): 83DEPART FROM NORMAL:  5  HEATING DEGREE DAYS:  0 COOLING DEGREE DAYS: 18 LATEST DAY MAX TEMP (0700-1900 LST):90  LATEST NIGHT MIN TEMP(1900-0800 LST):75 HOURLY INCREMENTAL PRECIPITATION VALUES (IN):.00 0.00 0.00 0.00 0.00 0.00 0.00 0.00 0.00 0.00 0.00 0.00 0.00 0.00 0.00 0.00 0.00 0.00 0.00 0.00 0.00 0.00 0.00 0.00","SOD  ","6",,,,,,,,,,,,,,,,,,,,,,,,,"0609","1819",,"2009-06-11"
"72243012960","2019-09-22T00:00:00","FM-12","4",,,,,,,,,,,,,,,,,,,,,,,,,,,,,,,,,,,,,,,"75","78",,,"+0.01","8","90","30.02","26","29.90","9.94","76","170",,"3",,,,,,,,,,,,,,,,,,,,,,,,,,,,,,,,,,,,,"SYN08072243 32566 41703 10256 20239 30126 40166 58004 90553 333 10289 20239 555 92206=","FM-12","4",,,,,,,,,,,,,,,,,,,,,,,,,,,,"2009-06-11"
"72243012960","2019-09-22T00:53:00","FM-15","7",,,,,,,,,,,,,,,,,,,,,,,,,,,,,,,,,,,,,,"30.02","74","76",,,,,"94","30.02","FEW:02 23 SCT:04 250","29.91","10.00","75","130",,"3",,,,,,,,,,,,,,,,,,,,,,,,,,,,,,,,,,,,,"MET10209/22/19 00:53:02 METAR KIAH 220653Z 13003KT 10SM FEW023 SCT250 24/23 A3002 RMK AO2 SLP165 T02440233 $","FM-15","7",,,,,,,,,,,,,,,,,,,,,,,,,,,,"2009-06-11"
"72243012960","2019-09-22T01:53:00","FM-15","7",,,,,,,,,,,,,,,,,,,,,,,,,,,,,,,,,,,,,,"30.02","74","75",,,,,"96","30.02","FEW:02 23 SCT:04 250","29.91","10.00","74","000",,"0",,,,,,,,,,,,,,,,,,,,,,,,,,,,,,,,,,,,,"MET10209/22/19 01:53:02 METAR KIAH 220753Z 00000KT 10SM FEW023 SCT250 24/23 A3002 RMK AO2 SLP165 T02390233 $","FM-15","7",,,,,,,,,,,,,,,,,,,,,,,,,,,,"2009-06-11"
"72243012960","2019-09-22T02:53:00","FM-15","7",,,,,,,,,,,,,,,,,,,,,,,,,,,,,,,,,,,,,,"30.01","74","76",,,"+0.01","8","94","30.01","FEW:02 24 FEW:02 250","29.90","10.00","75","120",,"3",,,,,,,,,,,,,,,,,,,,,,,,,,,,,,,,,,,,,"MET10809/22/19 02:53:02 METAR KIAH 220853Z 12003KT 10SM FEW024 FEW250 24/23 A3001 RMK AO2 SLP161 T02440233 58005 $","FM-15","7",,,,,,,,,,,,,,,,,,,,,,,,,,,,"2009-06-11"
"72243012960","2019-09-22T03:53:00","FM-15","7",,,,,,,,,,,,,,,,,,,,,,,,,,,,,,,,,,,,,,"30.01","75","77",,,,,"94","30.00","FEW:02 24 FEW:02 250","29.90","10.00","76","120",,"3",,,,,,,,,,,,,,,,,,,,,,,,,,,,,,,,,,,,,"MET10209/22/19 03:53:02 METAR KIAH 220953Z 12003KT 10SM FEW024 FEW250 25/24 A3001 RMK AO2 SLP159 T02500239 $","FM-15","7",,,,,,,,,,,,,,,,,,,,,,,,,,,,"2009-06-11"
"72243012960","2019-09-22T04:53:00","FM-15","7",,,,,,,,,,,,,,,,,,,,,,,,,,,,,,,,,,,,,,"30.02","74","76",,,,,"94","30.01","SCT:04 24 SCT:04 250","29.91","10.00","75","020",,"3",,,,,,,,,,,,,,,,,,,,,,,,,,,,,,,,,,,,,"MET10209/22/19 04:53:02 METAR KIAH 221053Z 02003KT 10SM SCT024 SCT250 24/23 A3002 RMK AO2 SLP163 T02440233 $","FM-15","7",,,,,,,,,,,,,,,,,,,,,,,,,,,,"2009-06-11"
"72243012960","2019-09-22T05:23:00","FM-16","7",,,,,,,,,,,,,,,,,,,,,,,,,,,,,,,,,,,,,,"30.02","74","76",,,,,"94",,"BKN:07 24 BKN:07 250","29.91","10.00","75","040",,"5",,,,,,,,,,,,,,,,,,,,,,,,,,,,,,,,,,,,,"MET09509/22/19 05:23:02 SPECI KIAH 221123Z 04004KT 10SM BKN024 BKN250 24/23 A3002 RMK AO2 T02440233 $","FM-16","7",,,,,,,,,,,,,,,,,,,,,,,,,,,,"2009-06-11"
"72243012960","2019-09-22T05:53:00","FM-15","7",,,,,,,,,,,,,,,,,,,,,,,,,,,,,,,,,,,,,,"30.03","74","76",,,"-0.02","3","94","30.03","FEW:02 6 BKN:07 24 BKN:07 250","29.92","10.00","75","350",,"3",,,,,,,,,,,,,,,,,,,,,,,,,,,,,,,,,,,,,"MET14009/22/19 05:53:02 METAR KIAH 221153Z 35003KT 10SM FEW006 BKN024 BKN250 24/23 A3003 RMK AO2 SLP169 BKN024 V SCT T02440233 10256 20239 53007 $","FM-15","7",,,,,,,,,,,,,,,,,,,,,,,,,,,,"2009-06-11"
"72243012960","2019-09-22T06:00:00","FM-12","4",,,,,,,,,,,,,,,,,,,,,,,,,,,,,,,,,,,,,,,"74","76",,,"-0.02","3","94","30.03","5","29.90","9.94","75","350",,"3",,,,,,,,,,,,,,,,,,,,,,,,,,,,,,,,,,,,,"SYN08072243 32266 63503 10244 20233 30126 40169 53007 91153 333 10322 20239 555 92212=","FM-12","4",,,,,,,,,,,,,,,,,,,,,,,,,,,,"2009-06-11"
"72243012960","2019-09-22T06:53:00","FM-15","7",,,,,,,,,,,,,,,,,,,,,,,,,,,,,,,,,,,,,,"30.04","75","77",,,,,"94","30.03","FEW:02 6 SCT:04 19 SCT:04 250","29.93","7.00","76","050",,"3",,,,,,,,,,,,,,,,,,,,,,,,,,,,,,,,,,,,,"MET10809/22/19 06:53:02 METAR KIAH 221253Z 05003KT 7SM FEW006 SCT019 SCT250 25/24 A3004 RMK AO2 SLP171 T02500239 $","FM-15","7",,,,,,,,,,,,,,,,,,,,,,,,,,,,"2009-06-11"
"72243012960","2019-09-22T07:28:00","FM-16","7",,,,,,,,,,,,,,,,,,,,,,,,,,,,,,,,,,,,,,"30.05","76","78",,,,,"93",,"BKN:07 5 BKN:07 20","29.94","7.00","77","070",,"5",,,,,,,,,,,,,,,,,,,,,,,,,,,,,,,,,,,,,"MET09409/22/19 07:28:02 SPECI KIAH 221328Z 07004KT 7SM BKN005 BKN020 26/24 A3005 RMK AO2 T02560244 $","FM-16","7",,,,,,,,,,,,,,,,,,,,,,,,,,,,"2009-06-11"
"72243012960","2019-09-22T07:53:00","FM-15","7",,,,,,,,,,,,,,,,,,,,,,,,,,,,,,,,,,,,,,"30.05","76","79",,,,,"90","30.05","SCT:04 7 SCT:04 20","29.94","10.00","77","090",,"8",,,,,,,,,,,,,,,,,,,,,,,,,,,,,,,,,,,,,"MET10209/22/19 07:53:02 METAR KIAH 221353Z 09007KT 10SM SCT007 SCT020 26/24 A3005 RMK AO2 SLP175 T02610244 $","FM-15","7",,,,,,,,,,,,,,,,,,,,,,,,,,,,"2009-06-11"
"72243012960","2019-09-22T08:53:00","FM-15","7",,,,,,,,,,,,,,,,,,,,,,,,,,,,,,,,,,,,,,"30.05","77","83",,,"-0.02","1","82","30.04","SCT:04 8 SCT:04 25","29.94","10.00","79","120",,"8",,,,,,,,,,,,,,,,,,,,,,,,,,,,,,,,,,,,,"MET10809/22/19 08:53:02 METAR KIAH 221453Z 12007KT 10SM SCT008 SCT025 28/25 A3005 RMK AO2 SLP174 T02830250 51006 $","FM-15","7",,,,,,,,,,,,,,,,,,,,,,,,,,,,"2009-06-11"
"72243012960","2019-09-22T09:53:00","FM-15","7",,,,,,,,,,,,,,,,,,,,,,,,,,,,,,,,,,,,,,"30.05","76","85",,,,,"75","30.04","SCT:04 12 SCT:04 25","29.94","10.00","79","140",,"8",,,,,,,,,,,,,,,,,,,,,,,,,,,,,,,,,,,,,"MET11809/22/19 09:53:02 METAR KIAH 221553Z 14007KT 10SM SCT012 SCT025 29/24 A3005 RMK AO2 SLP174 SHRA E-SE MOV N T02940244 $","FM-15","7",,,,,,,,,,,,,,,,,,,,,,,,,,,,"2009-06-11"
"72243012960","2019-09-22T10:24:00","FM-16","7",,,,,,,,,,,,,,,,,,,,,,,,,,,,,,,,,,,,,,"30.04","75","88","T","-RA:02 |RA |RA",,,"66",,"FEW:02 12 BKN:07 28","29.93","10.00","79","140",,"10",,,,,,,,,,,,,,,,,,,,,,,,,,,,,,,,,,,,,"MET12809/22/19 10:24:02 SPECI KIAH 221624Z 14009KT 10SM -RA FEW012 BKN028 31/24 A3004 RMK AO2 RAB18 SHRA NE-SE MOV N P0000 T03110239 $","FM-16","7",,,,,,,,,,,,,,,,,,,,,,,,,,,,"2009-06-11"
"72243012960","2019-09-22T10:53:00","FM-15","7",,,,,,,,,,,,,,,,,,,,,,,,,,,,,,,,,,,,,,"30.03","76","87","T",,,,"70","30.03","BKN:07 28","29.92","10.00","79","120",,"7",,,,,,,,,,,,,,,,,,,,,,,,,,,,,,,,,,,,,"MET12409/22/19 10:53:02 METAR KIAH 221653Z 12006KT 10SM BKN028 31/24 A3003 RMK AO2 RAB18E27 SLP168 SHRA NE MOV N P0000 T03060244 $","FM-15","7",,,,,,,,,,,,,,,,,,,,,,,,,,,,"2009-06-11"
"72243012960","2019-09-22T11:29:00","FM-16","7",,,,,,,,,,,,,,,,,,,,,,,,,,,,,,,,,,,,,,"30.02","76","89",,,,,"65",,"BKN:07 32 BKN:07 250","29.91","10.00","80","150",,"3",,,,,,,,,,,,,,,,,,,,,,,,,,,,,,,,,,,,,"MET09509/22/19 11:29:02 SPECI KIAH 221729Z 15003KT 10SM BKN032 BKN250 32/24 A3002 RMK AO2 T03170244 $","FM-16","7",,,,,,,,,,,,,,,,,,,,,,,,,,,,"2009-06-11"
"72243012960","2019-09-22T11:53:00","FM-15","7",,,,,,,,,,,,,,,,,,,,,,,,,,,,,,,,,,,,,,"30.03","75","85","T","-RA:02 |RA |RA","+0.02","8","72","30.02","BKN:07 35 BKN:07 80 BKN:07 250","29.92","8.00","78","140",,"14",,,,,,,,,,,,,,,,,,,,,,,,,,,,,,,,,,,,,"MET14809/22/19 11:53:02 METAR KIAH 221753Z 14012KT 8SM -RA BKN035 BKN080 BKN250 29/24 A3003 RMK AO2 RAB47 SLP167 P0000 60000 T02940239 10322 20244 58007 $","FM-15","7",,,,,,,,,,,,,,,,,,,,,,,,,,,,"2009-06-11"
"72243012960","2019-09-22T11:59:00","FM-16","7",,,,,,,,,,,,,,,,,,,,,,,,,,,,,,,,,,,,,,"30.02","75","83","T","-RA:02 |RA |RA",,,"77",,"BKN:07 32 BKN:07 75 BKN:07 250","29.91","2.00","77","130","26","20",,,,,,,,,,,,,,,,,,,,,,,,,,,,,,,,,,,,,"MET11409/22/19 11:59:02 SPECI KIAH 221759Z 13017G23KT 2SM -RA BKN032 BKN075 BKN250 28/24 A3002 RMK AO2 P0000 T02830239 $","FM-16","7",,,,,,,,,,,,,,,,,,,,,,,,,,,,"2009-06-11"
"72243012960","2019-09-22T12:00:00","FM-12","4",,,,,,,,,,,,,,,,,,,,,,,,,,,,,,,,,,,,,,,"75","85",,"||RA","+0.02","8","72","30.02","41","29.90","7.46","78","140",,"14",,,,,,,,,,,,,,,,,,,,,,,,,,,,,,,,,,,,,"SYN09272243 11662 61412 10294 20239 30126 40167 58007 69901 761// 91753 333 10322 20244 555 92218=","FM-12","4",,,,,,,,,,,,,,,,,,,,,,,,,,,,"2009-06-11"
"72243012960","2019-09-22T12:06:00","FM-16","7",,,,,,,,,,,,,,,,,,,,,,,,,,,,,,,,,,,,,,"30.02","75","83","T","-RA:02 |RA |RA",,,"77",,"BKN:07 30 BKN:07 75 BKN:07 250","29.91","7.00","77","120",,"11",,,,,,,,,,,,,,,,,,,,,,,,,,,,,,,,,,,,,"MET13809/22/19 12:06:02 SPECI KIAH 221806Z 12010KT 7SM -RA BKN030 BKN075 BKN250 28/24 A3002 RMK AO2 VIS N 2 1/2 SHRA N NE-SE S P0000 T02830239 $","FM-16","7",,,,,,,,,,,,,,,,,,,,,,,,,,,,"2009-06-11"
"72243012960","2019-09-22T12:53:00","FM-15","7",,,,,,,,,,,,,,,,,,,,,,,,,,,,,,,,,,,,,,"30.00","75","82","T",,,,"79","30.00","BKN:07 38 BKN:07 80 BKN:07 250","29.89","9.00","77","120",,"11",,,,,,,,,,,,,,,,,,,,,,,,,,,,,,,,,,,,,"MET14309/22/19 12:53:02 METAR KIAH 221853Z 12010KT 9SM BKN038 BKN080 BKN250 28/24 A3000 RMK AO2 RAE13 SLP160 VIS SE 2 1/2 SHRA E SE P0000 T02780239 $","FM-15","7",,,,,,,,,,,,,,,,,,,,,,,,,,,,"2009-06-11"
"72243012960","2019-09-22T13:53:00","FM-15","7",,,,,,,,,,,,,,,,,,,,,,,,,,,,,,,,,,,,,,"29.99","75","87",,,,,"67","29.98","BKN:07 40 BKN:07 100 BKN:07 250","29.88","10.00","78","120",,"13",,,,,,,,,,,,,,,,,,,,,,,,,,,,,,,,,,,,,"MET13409/22/19 13:53:02 METAR KIAH 221953Z 12011KT 10SM BKN040TCU BKN100 BKN250 31/24 A2999 RMK AO2 SLP154 TCU AND VCSH NE MOV N T03060239 $","FM-15","7",,,,,,,,,,,,,,,,,,,,,,,,,,,,"2009-06-11"
"72243012960","2019-09-22T14:53:00","FM-15","7",,,,,,,,,,,,,,,,,,,,,,,,,,,,,,,,,,,,,,"29.97","75","87",,,"+0.06","6","67","29.97","SCT:04 35 SCT:04 100 BKN:07 250","29.86","10.00","78","120",,"14",,,,,,,,,,,,,,,,,,,,,,,,,,,,,,,,,,,,,"MET14309/22/19 14:53:02 METAR KIAH 222053Z 12012KT 10SM SCT035TCU SCT100 BKN250 31/24 A2997 RMK AO2 SLP148 TCU AND VCSH SW-NW 60000 T03060239 56019 $","FM-15","7",,,,,,,,,,,,,,,,,,,,,,,,,,,,"2009-06-11"
"72243012960","2019-09-22T15:18:00","FM-16","7",,,,,,,,,,,,,,,,,,,,,,,,,,,,,,,,,,,,,,"29.98","74","86",,"|TS |RA",,,"67",,"FEW:02s 5s SCT:04s 27s","29.87","10.00","78","130",,"14",,,,,,,,,,,,,,,,,,,,,,,,,,,,,,,,,,,,,"MET15509/22/19 15:18:02 SPECI KIAH 222118Z 13012KT 10SM TS FEW005 SCT027CB SCT1 30/23 A2998 RMK AO2 TSB17 VCSH SW-NW OCNL LTGICCG SW-W TS SW-W MOV NE T03000233 $","FM-16","7",,,,,,,,,,,,,,,,,,,,,,,,,,,,"2009-06-11"
"72243012960","2019-09-22T15:53:00","FM-15","6",,,,,,,,,,,,,,,,,,,,,,,,,,,,,,,,,,,,,,"29.98","73","82",,"||RA",,,"74","29.98","FEW:02s 5s SCT:04s 25s","29.87","10.00","76","250",,"11",,,,,,,,,,,,,,,,,,,,,,,,,,,,,,,,,,,,,"MET16209/22/19 15:53:02 METAR KIAH 222153Z 25010KT 10SM TS FEW005 SCT025CB SCT0 28/23 A2998 RMK AO2 TSB17 SLP153 VCSH SW-NW OCNL LTGICCG W-NW TS W-NW MOV NE T02780228 $","FM-15","6",,,,,,,,,,,,,,,,,,,,,,,,,,,,"2009-06-11"
"72243012960","2019-09-22T16:14:00","FM-16","6",,,,,,,,,,,,,,,,,,,,,,,,,,,,,,,,,,,,,,"29.98","73","80",,,,,"79",,"FEW:02s 10s BKN:07s 23s","29.87","10.00","75","290",,"9",,,,,,,,,,,,,,,,,,,,,,,,,,,,,,,,,,,,,"MET14309/22/19 16:14:02 SPECI KIAH 222214Z 29008KT 10SM FEW010 BKN023CB BKN0 27/23 A2998 RMK AO2 TSE13 TS DSIPT VCSH SW-NW CB SW-NW STNRY T02670228 $","FM-16","6",,,,,,,,,,,,,,,,,,,,,,,,,,,,"2009-06-11"
"72243012960","2019-09-22T16:53:00","FM-15","6",,,,,,,,,,,,,,,,,,,,,,,,,,,,,,,,,,,,,,"29.99","73","82","T",,,,"74","29.98","FEW:02 10 SCT:04 23","29.88","10.00","76","300",,"5",,,,,,,,,,,,,,,,,,,,,,,,,,,,,,,,,,,,,"MET15609/22/19 16:53:02 METAR KIAH 222253Z 30004KT 10SM FEW010 SCT023CB BKN0 28/23 A2999 RMK AO2 RAB28E37 TSE13 SLP153 VCSH SW-NW CB SW-NW STNRY P0000 T02780228 $","FM-15","6",,,,,,,,,,,,,,,,,,,,,,,,,,,,"2009-06-11"
"72243012960","2019-09-22T17:53:00","FM-15","6",,,,,,,,,,,,,,,,,,,,,,,,,,,,,,,,,,,,,,"29.99","75","80",,,"-0.02","1","85","29.98","FEW:02 25 FEW:02 40 SCT:04 80","29.88","10.00","77","000",,"0",,,,,,,,,,,,,,,,,,,,,,,,,,,,,,,,,,,,,"MET16909/22/19 17:53:02 METAR KIAH 222353Z 00000KT 10SM FEW025 FEW040 SCT080 27/24 A2999 RMK AO2 SLP154 VCSH NW TCU AND SHRA DSNT NE AND SW 60000 T02670239 10317 20267 51006 $","FM-15","6",,,,,,,,,,,,,,,,,,,,,,,,,,,,"2009-06-11"
"72243012960","2019-09-22T18:53:00","FM-15","6",,,,,,,,,,,,,,,,,,,,,,,,,,,,,,,,,,,,,,"29.99","76","81",,,,,"85","29.98","FEW:02 25 FEW:02 80 SCT:04 250","29.88","10.00","77","130",,"13",,,,,,,,,,,,,,,,,,,,,,,,,,,,,,,,,,,,,"MET12009/22/19 18:53:01 METAR KIAH 230053Z 13011KT 10SM FEW025 FEW080 SCT250 27/24 A2999 RMK AO2 SLP154 TCU DSNT S T02720244 $","FM-15","6",,,,,,,,,,,,,,,,,,,,,,,,,,,,"2009-06-11"
"72243012960","2019-09-22T19:53:00","FM-15","6",,,,,,,,,,,,,,,,,,,,,,,,,,,,,,,,,,,,,,"30.00","75","81",,,,,"82","30.00","FEW:02 20 FEW:02 100 SCT:04 250","29.89","10.00","77","130",,"10",,,,,,,,,,,,,,,,,,,,,,,,,,,,,,,,,,,,,"MET10909/22/19 19:53:01 METAR KIAH 230153Z 13009KT 10SM FEW020 FEW100 SCT250 27/24 A3000 RMK AO2 SLP160 T02720239 $","FM-15","6",,,,,,,,,,,,,,,,,,,,,,,,,,,,"2009-06-11"
"72243012960","2019-09-22T20:53:00","FM-15","6",,,,,,,,,,,,,,,,,,,,,,,,,,,,,,,,,,,,,,"30.03","74","80",,,"-0.04","3","82","30.02","FEW:02 250","29.92","10.00","76","140",,"9",,,,,,,,,,,,,,,,,,,,,,,,,,,,,,,,,,,,,"MET10109/22/19 20:53:01 METAR KIAH 230253Z 14008KT 10SM FEW250 27/23 A3003 RMK AO2 SLP167 T02670233 53014 $","FM-15","6",,,,,,,,,,,,,,,,,,,,,,,,,,,,"2009-06-11"
"72243012960","2019-09-22T23:59:00","SOD  ","O",,,,,,,,,,,,,,,,,,,,,,,,,,,,,,,,,,"RA TS",,,,,,,,,,,,,,,,,,,,,,,,,,,,,,,,,,,,,,,,,,,,,,,,,,,,,,,,,"SOD  ","O",,,,,,,,,,,,,,,,,,,,,,,,,"0610","1818",,"2009-06-11"
"72259003927","2019-09-17T00:00:00","FM-12","4",,,,,,,,,,,,,,,,,,,,,,,,,,,,,,,,,,,,,,,"66","81",,,"+0.00","8","61","29.92",,"29.34","9.94","71","140",,"6",,,,,,,,,,,,,,,,,,,,,,,,,,,,,,,,,,,,,"SYN08072259 32966 01405 10272 20189 39934 40131 58001 90553 333 10328 20256 555 91706=","FM-12","4",,,,,,,,,,,,,,,,,,,,,,,,,,,,"2009-05-27"
"72259003927","2019-09-17T00:53:00","FM-15","7",,,,,,,,,,,,,,,,,,,,,,,,,,,,,,,,,,,,,,"29.96","66","80","0.00",,,,"62","29.92","CLR:00","29.32","10.00","71","170",,"7",,,,,,,,,,,,,,,,,,,,,,,,,,,,,,,,,,,,,"MET09509/17/19 00:53:02 METAR KDFW 170653Z 17006KT 10SM CLR 27/19 A2996 RMK AO2 SLP133 T02670189 (WF)","FM-15","7",,,,,,,,,,,,,,,,,,,,,,,,,,,,"2009-05-27"
"72259003927","2019-09-17T01:53:00","FM-15","7",,,,,,,,,,,,,,,,,,,,,,,,,,,,,,,,,,,,,,"29.96","66","79","0.00",,,,"65","29.93","CLR:00","29.32","10.00","70","150",,"3",,,,,,,,,,,,,,,,,,,,,,,,,,,,,,,,,,,,,"MET09509/17/19 01:53:02 METAR KDFW 170753Z 15003KT 10SM CLR 26/19 A2996 RMK AO2 SLP136 T02610189 (WF)","FM-15","7",,,,,,,,,,,,,,,,,,,,,,,,,,,,"2009-05-27"
"72259003927","2019-09-17T02:53:00","FM-15","7",,,,,,,,,,,,,,,,,,,,,,,,,,,,,,,,,,,,,,"29.96","66","77","0.00",,"-0.01","0","69","29.93","FEW:02 220","29.32","10.00","70","150",,"5",,,,,,,,,,,,,,,,,,,,,,,,,,,,,,,,,,,,,"MET10409/17/19 02:53:02 METAR KDFW 170853Z 15004KT 10SM FEW220 25/19 A2996 RMK AO2 SLP135 T02500189 50003 (WF)","FM-15","7",,,,,,,,,,,,,,,,,,,,,,,,,,,,"2009-05-27"
"72259003927","2019-09-17T03:00:00","FM-12","4",,,,,,,,,,,,,,,,,,,,,,,,,,,,,,,,,,,,,,,"66","77",,,"0.01","9","69","29.93",,"29.35","9.94","70","150",,"5",,,,,,,,,,,,,,,,,,,,,,,,,,,,,,,,,,,,,"SYN06472259 32966 21504 10250 20189 39938 40135 50003 90853 555 91709=","FM-12","4",,,,,,,,,,,,,,,,,,,,,,,,,,,,"2009-05-27"
"72259003927","2019-09-17T03:53:00","FM-15","7",,,,,,,,,,,,,,,,,,,,,,,,,,,,,,,,,,,,,,"29.96","66","76","0.00",,,,"72","29.93","FEW:02 100","29.32","10.00","69","150",,"5",,,,,,,,,,,,,,,,,,,,,,,,,,,,,,,,,,,,,"MET09809/17/19 03:53:02 METAR KDFW 170953Z 15004KT 10SM FEW100 24/19 A2996 RMK AO2 SLP135 T02440189 (WF)","FM-15","7",,,,,,,,,,,,,,,,,,,,,,,,,,,,"2009-05-27"
"72259003927","2019-09-17T04:53:00","FM-15","7",,,,,,,,,,,,,,,,,,,,,,,,,,,,,,,,,,,,,,"29.97","66","75","0.00",,,,"74","29.94","CLR:00","29.33","10.00","69","000",,"0",,,,,,,,,,,,,,,,,,,,,,,,,,,,,,,,,,,,,"MET09509/17/19 04:53:02 METAR KDFW 171053Z 00000KT 10SM CLR 24/19 A2997 RMK AO2 SLP139 T02390189 (WF)","FM-15","7",,,,,,,,,,,,,,,,,,,,,,,,,,,,"2009-05-27"
"72259003927","2019-09-17T05:53:00","FM-15","7",,,,,,,,,,,,,,,,,,,,,,,,,,,,,,,,,,,,,,"29.97","67","75","0.00",,"-0.01","3","76","29.95","CLR:00","29.33","10.00","70","090",,"3",,,,,,,,,,,,,,,,,,,,,,,,,,,,,,,,,,,,,"MET11309/17/19 05:53:02 METAR KDFW 171153Z 09003KT 10SM CLR 24/19 A2997 RMK AO2 SLP141 T02390194 10278 20233 53005 (WF)","FM-15","7",,,,,,,,,,,,,,,,,,,,,,,,,,,,"2009-05-27"
"72259003927","2019-09-17T06:00:00","FM-12","4",,,,,,,,,,,,,,,,,,,,,,,,,,,,,,,,,,,,,,,"67","75",,,"-0.01","3","76","29.95",,"29.36","9.94","70","090",,"3",,,,,,,,,,,,,,,,,,,,,,,,,,,,,,,,,,,,,"SYN08072259 32966 00903 10239 20194 39941 40141 53005 91153 333 10356 20233 555 91712=","FM-12","4",,,,,,,,,,,,,,,,,,,,,,,,,,,,"2009-05-27"
"72259003927","2019-09-17T06:53:00","FM-15","7",,,,,,,,,,,,,,,,,,,,,,,,,,,,,,,,,,,,,,"29.99","68","76","0.00",,,,"77","29.96","FEW:02 300","29.35","10.00","71","090",,"3",,,,,,,,,,,,,,,,,,,,,,,,,,,,,,,,,,,,,"MET09809/17/19 06:53:02 METAR KDFW 171253Z 09003KT 10SM FEW300 24/20 A2999 RMK AO2 SLP145 T02440200 (WF)","FM-15","7",,,,,,,,,,,,,,,,,,,,,,,,,,,,"2009-05-27"
"72259003927","2019-09-17T07:53:00","FM-15","7",,,,,,,,,,,,,,,,,,,,,,,,,,,,,,,,,,,,,,"29.99","68","81","0.00",,,,"65","29.96","FEW:02 300","29.35","10.00","72","VRB",,"3",,,,,,,,,,,,,,,,,,,,,,,,,,,,,,,,,,,,,"MET09809/17/19 07:53:02 METAR KDFW 171353Z VRB03KT 10SM FEW300 27/20 A2999 RMK AO2 SLP145 T02720200 (NJ)","FM-15","7",,,,,,,,,,,,,,,,,,,,,,,,,,,,"2009-05-27"
"72259003927","2019-09-17T08:53:00","FM-15","7",,,,,,,,,,,,,,,,,,,,,,,,,,,,,,,,,,,,,,"29.99","69","83","0.00",,"-0.02","1","63","29.96","FEW:02 300","29.35","10.00","73","110",,"8",,,,,,,,,,,,,,,,,,,,,,,,,,,,,,,,,,,,,"MET10409/17/19 08:53:02 METAR KDFW 171453Z 11007KT 10SM FEW300 28/21 A2999 RMK AO2 SLP147 T02830206 51006 (NJ)","FM-15","7",,,,,,,,,,,,,,,,,,,,,,,,,,,,"2009-05-27"
"72259003927","2019-09-17T09:00:00","FM-12","4",,,,,,,,,,,,,,,,,,,,,,,,,,,,,,,,,,,,,,,"69","83",,,"-0.02","1","63","29.96",,"29.38","9.94","74","110",,"8",,,,,,,,,,,,,,,,,,,,,,,,,,,,,,,,,,,,,"SYN06472259 32966 21107 10283 20206 39948 40147 51006 91453 555 91715=","FM-12","4",,,,,,,,,,,,,,,,,,,,,,,,,,,,"2009-05-27"
"72259003927","2019-09-17T09:53:00","FM-15","7",,,,,,,,,,,,,,,,,,,,,,,,,,,,,,,,,,,,,,"30.00","69","86","0.00",,,,"57","29.97","FEW:02 300","29.36","10.00","74","080",,"8",,,,,,,,,,,,,,,,,,,,,,,,,,,,,,,,,,,,,"MET09809/17/19 09:53:02 METAR KDFW 171553Z 08007KT 10SM FEW300 30/21 A3000 RMK AO2 SLP149 T03000206 (NJ)","FM-15","7",,,,,,,,,,,,,,,,,,,,,,,,,,,,"2009-05-27"
"72259003927","2019-09-17T10:53:00","FM-15","7",,,,,,,,,,,,,,,,,,,,,,,,,,,,,,,,,,,,,,"29.99","68","88","0.00",,,,"52","29.96","FEW:02 40","29.35","10.00","74","140",,"8",,,,,,,,,,,,,,,,,,,,,,,,,,,,,,,,,,,,,"MET09809/17/19 10:53:02 METAR KDFW 171653Z 14007KT 10SM FEW040 31/20 A2999 RMK AO2 SLP146 T03110200 (NJ)","FM-15","7",,,,,,,,,,,,,,,,,,,,,,,,,,,,"2009-05-27"
"72259003927","2019-09-17T11:53:00","FM-15","7",,,,,,,,,,,,,,,,,,,,,,,,,,,,,,,,,,,,,,"29.97","67","91","0.00",,"+0.02","8","45","29.94","FEW:02 50","29.33","10.00","75","130",,"10",,,,,,,,,,,,,,,,,,,,,,,,,,,,,,,,,,,,,"MET11809/17/19 11:53:02 METAR KDFW 171753Z 13009KT 10SM FEW050 33/19 A2997 RMK AO2 SLP138 T03280194 10328 20233 58008 $ (NJ)","FM-15","7",,,,,,,,,,,,,,,,,,,,,,,,,,,,"2009-05-27"
"72259003927","2019-09-17T12:00:00","FM-12","4",,,,,,,,,,,,,,,,,,,,,,,,,,,,,,,,,,,,,,,"67","91",,,"+0.02","8","45","29.94","57","29.36","9.94","75","130",,"10",,,,,,,,,,,,,,,,,,,,,,,,,,,,,,,,,,,,,"SYN08072259 32766 21309 10328 20194 39941 40138 58008 91753 333 10328 20233 555 91718=","FM-12","4",,,,,,,,,,,,,,,,,,,,,,,,,,,,"2009-05-27"
"72259003927","2019-09-17T12:53:00","FM-15","7",,,,,,,,,,,,,,,,,,,,,,,,,,,,,,,,,,,,,,"29.94","67","92","0.00",,,,"44","29.91","SCT:04 50","29.30","10.00","75","100","16","9",,,,,,,,,,,,,,,,,,,,,,,,,,,,,,,,,,,,,"MET10709/17/19 12:53:02 METAR KDFW 171853Z 10008G14KT 10SM SCT050 33/19 A2994 RMK AO2 SLP129 T03330194 PNO $ (NJ)","FM-15","7",,,,,,,,,,,,,,,,,,,,,,,,,,,,"2009-05-27"
"72259003927","2019-09-17T13:53:00","FM-15","7",,,,,,,,,,,,,,,,,,,,,,,,,,,,,,,,,,,,,,"29.92","66","90","0.00",,,,"45","29.89","BKN:07 55","29.28","10.00","74","130",,"9",,,,,,,,,,,,,,,,,,,,,,,,,,,,,,,,,,,,,"MET10009/17/19 13:53:02 METAR KDFW 171953Z 13008KT 10SM BKN055 32/19 A2992 RMK AO2 SLP121 T03220189 $ (NJ)","FM-15","7",,,,,,,,,,,,,,,,,,,,,,,,,,,,"2009-05-27"
"72259003927","2019-09-17T15:07:00","FM-16","7",,,,,,,,,,,,,,,,,,,,,,,,,,,,,,,,,,,,,,"29.90","67","91",,,,,"45",,"SCT:04 55 BKN:07 65","29.26","10.00","75","130",,"14",,,,,,,,,,,,,,,,,,,,,,,,,,,,,,,,,,,,,"MET11309/17/19 15:07:02 SPECI KDFW 172107Z 13012KT 10SM SCT055 BKN065TCU 33/20 A2990 RMK AO2 TCU ALQDS T03280194 $ (GR)","FM-16","7",,,,,,,,,,,,,,,,,,,,,,,,,,,,"2009-05-27"
"72259003927","2019-09-17T15:53:00","FM-15","7",,,,,,,,,,,,,,,,,,,,,,,,,,,,,,,,,,,,,,"29.89","67","91","0.00",,,,"45","29.86","BKN:07 60 BKN:07 75","29.25","10.00","75","120","20","14",,,,,,,,,,,,,,,,,,,,,,,,,,,,,,,,,,,,,"MET12109/17/19 15:53:02 METAR KDFW 172153Z 12012G17KT 10SM BKN060TCU BKN075 33/19 A2989 RMK AO2 SLP112 TCU ALQDS T03280194 (GR)","FM-15","7",,,,,,,,,,,,,,,,,,,,,,,,,,,,"2009-05-27"
"72259003927","2019-09-17T16:53:00","FM-15","7",,,,,,,,,,,,,,,,,,,,,,,,,,,,,,,,,,,,,,"29.88","66","92","0.00",,,,"43","29.85","SCT:04 60","29.24","10.00","74","130",,"10",,,,,,,,,,,,,,,,,,,,,,,,,,,,,,,,,,,,,"MET11909/17/19 16:53:02 METAR KDFW 172253Z 13009KT 10SM SCT060TCU 33/19 A2988 RMK AO2 SLP109 TCU OHD DSNT SE-S T03330189 (GR)","FM-15","7",,,,,,,,,,,,,,,,,,,,,,,,,,,,"2009-05-27"
"72259003927","2019-09-17T17:53:00","FM-15","7",,,,,,,,,,,,,,,,,,,,,,,,,,,,,,,,,,,,,,"29.88","67","90","0.00",,"+0.02","6","47","29.85","BKN:07 60","29.24","10.00","74","140","20","14",,,,,,,,,,,,,,,,,,,,,,,,,,,,,,,,,,,,,"MET11909/17/19 17:53:02 METAR KDFW 172353Z 14012G17KT 10SM BKN060 32/19 A2988 RMK AO2 SLP109 T03220194 10344 20311 56007 (GR)","FM-15","7",,,,,,,,,,,,,,,,,,,,,,,,,,,,"2009-05-27"
"72259003927","2019-09-17T18:00:00","FM-12","4",,,,,,,,,,,,,,,,,,,,,,,,,,,,,,,,,,,,,,,"67","90",,,"+0.02","6","47","29.85","57","29.27","9.94","74","140",,"14",,,,,,,,,,,,,,,,,,,,,,,,,,,,,,,,,,,,,"SYN08672259 32766 61412 10322 20194 39911 40109 56007 92353 333 10344 20233 91017 555 91800=","FM-12","4",,,,,,,,,,,,,,,,,,,,,,,,,,,,"2009-05-27"
"72259003927","2019-09-17T18:53:00","FM-15","7",,,,,,,,,,,,,,,,,,,,,,,,,,,,,,,,,,,,,,"29.90","67","86","0.00",,,,"53","29.87","SCT:04 65","29.26","10.00","73","150",,"10",,,,,,,,,,,,,,,,,,,,,,,,,,,,,,,,,,,,,"MET09309/17/19 18:53:01 METAR KDFW 180053Z 15009KT 10SM SCT065 30/19 A2990 RMK AO2 SLP115 T03000194","FM-15","7",,,,,,,,,,,,,,,,,,,,,,,,,,,,"2009-05-27"
"72259003927","2019-09-17T19:53:00","FM-15","7",,,,,,,,,,,,,,,,,,,,,,,,,,,,,,,,,,,,,,"29.91","68","84","0.00",,,,"59","29.88","FEW:02 65","29.27","10.00","73","140",,"11",,,,,,,,,,,,,,,,,,,,,,,,,,,,,,,,,,,,,"MET09309/17/19 19:53:01 METAR KDFW 180153Z 14010KT 10SM FEW065 29/20 A2991 RMK AO2 SLP120 T02890200","FM-15","7",,,,,,,,,,,,,,,,,,,,,,,,,,,,"2009-05-27"
"72259003927","2019-09-17T20:53:00","FM-15","7",,,,,,,,,,,,,,,,,,,,,,,,,,,,,,,,,,,,,,"29.93","68","83","0.00",,"-0.05","3","61","29.90","SCT:04 90","29.29","10.00","73","150",,"6",,,,,,,,,,,,,,,,,,,,,,,,,,,,,,,,,,,,,"MET09909/17/19 20:53:01 METAR KDFW 180253Z 15005KT 10SM SCT090 28/20 A2993 RMK AO2 SLP125 T02830200 53016","FM-15","7",,,,,,,,,,,,,,,,,,,,,,,,,,,,"2009-05-27"
"72259003927","2019-09-17T21:00:00","FM-12","4",,,,,,,,,,,,,,,,,,,,,,,,,,,,,,,,,,,,,,,"68","83",,,"-0.05","3","61","29.90",,"29.32","9.94","73","150",,"6",,,,,,,,,,,,,,,,,,,,,,,,,,,,,,,,,,,,,"SYN06472259 32966 41505 10283 20200 39928 40125 53016 90253 555 91803=","FM-12","4",,,,,,,,,,,,,,,,,,,,,,,,,,,,"2009-05-27"
"72259003927","2019-09-17T21:53:00","FM-15","7",,,,,,,,,,,,,,,,,,,,,,,,,,,,,,,,,,,,,,"29.93","68","82","0.00",,,,"63","29.90","FEW:02 100","29.29","10.00","73","150",,"8",,,,,,,,,,,,,,,,,,,,,,,,,,,,,,,,,,,,,"MET09309/17/19 21:53:02 METAR KDFW 180353Z 15007KT 10SM FEW100 28/20 A2993 RMK AO2 SLP125 T02780200","FM-15","7",,,,,,,,,,,,,,,,,,,,,,,,,,,,"2009-05-27"
"72259003927","2019-09-17T22:53:00","FM-15","7",,,,,,,,,,,,,,,,,,,,,,,,,,,,,,,,,,,,,,"29.92","68","80","0.00",,,,"67","29.89","FEW:02 100","29.28","10.00","72","150",,"7",,,,,,,,,,,,,,,,,,,,,,,,,,,,,,,,,,,,,"MET09309/17/19 22:53:01 METAR KDFW 180453Z 15006KT 10SM FEW100 27/20 A2992 RMK AO2 SLP121 T02670200","FM-15","7",,,,,,,,,,,,,,,,,,,,,,,,,,,,"2009-05-27"
"72259003927","2019-09-17T23:53:00","FM-15","7",,,,,,,,,,,,,,,,,,,,,,,,,,,,,,,,,,,,,,"29.91","68","78","0.00",,"+0.02","8","71","29.88","CLR:00","29.27","10.00","71","130",,"3",,,,,,,,,,,,,,,,,,,,,,,,,,,,,,,,,,,,,"MET11809/17/19 23:53:02 METAR KDFW 180553Z 13003KT 10SM CLR 26/20 A2991 RMK AO2 SLP118 T02560200 10317 20256 403440233 58007","FM-15","7",,,,,,,,,,,,,,,,,,,,,,,,,,,,"2009-05-27"
"72259003927","2019-09-17T23:59:00","SOD  ","6",,,,,,,,,,,,,,,,"84",,,"29.29",,"6.9","19","6.2","0","94","74","140","21","0.00","0","0.0","140","18",,,,,,,,,,,,,,,,,,,,,,,,,,,,,,,,,,,,,,,,,,,,,,,,,,,,,,,,,"SOD73924 HR PRECIPITATION (IN): 0.00 SNOW DEPTH (IN):0     24 HR SNOWFALL (IN):0.0  24 HR MAX TEMP (F): 9424 HR MIN TEMP (F): 74AVERAGE STATION PRESSURE:29.290 MINIMUM SEA LEVEL PRESSURE:29.85 TIME OF OCCURRENCE:1813 PEAK WIND SPEED (MPH): 21 PEAK WIND DIR (DEG):140 PEAK WIND TIME (LST):      FASTEST 2MIN SPEED (MPH): 18FASTEST 2MIN DIR (DEG):140 FASTEST 2MIN TIME (LST):     AVERAGE WIND SPEED (MPH): 6.9 24 HR AVG TEMP (F): 84DEPART FROM NORMAL:  7  HEATING DEGREE DAYS:  0 COOLING DEGREE DAYS: 19 LATEST DAY MAX TEMP (0700-1900 LST):94  LATEST NIGHT MIN TEMP(1900-0800 LST):74 HOURLY INCREMENTAL PRECIPITATION VALUES (IN):.00 0.00 0.00 0.00 0.00 0.00 0.00 0.00 0.00 0.00 0.00 0.00 0.00 0.00 0.00 0.00 0.00 0.00 0.00 0.00 0.00 0.00 0.00 0.00","SOD  ","6",,,,,,,,,,,,,,,,,,,,,,,,,"0613","1832",,"2009-05-27"
"72259003927","2019-09-18T00:00:00","FM-12","4",,,,,,,,,,,,,,,,,,,,,,,,,,,,,,,,,,,,,,,"68","78",,,"+0.02","8","71","29.88",,"29.30","9.94","71","130",,"3",,,,,,,,,,,,,,,,,,,,,,,,,,,,,,,,,,,,,"SYN08072259 32966 01303 10256 20200 39921 40118 58007 90553 333 10317 20233 555 91806=","FM-12","4",,,,,,,,,,,,,,,,,,,,,,,,,,,,"2009-05-27"
"72259003927","2019-09-18T00:53:00","FM-15","6",,,,,,,,,,,,,,,,,,,,,,,,,,,,,,,,,,,,,,"29.91","68","78","0.00",,,,"71",,"CLR:00","29.27","10.00","71","130",,"5",,,,,,,,,,,,,,,,,,,,,,,,,,,,,,,,,,,,,"MET09409/18/19 00:53:02 METAR KDFW 180653Z 13004KT 10SM CLR 26/20 A2991 RMK AO2 SLPNO T02560200 (WF)","FM-15","6",,,,,,,,,,,,,,,,,,,,,,,,,,,,"2009-05-27"
"72259003927","2019-09-18T01:53:00","FM-15","6",,,,,,,,,,,,,,,,,,,,,,,,,,,,,,,,,,,,,,"29.91","68","78","0.00",,,,"71","29.88","FEW:02 250","29.27","10.00","71","000",,"0",,,,,,,,,,,,,,,,,,,,,,,,,,,,,,,,,,,,,"MET09809/18/19 01:53:02 METAR KDFW 180753Z 00000KT 10SM FEW250 26/20 A2991 RMK AO2 SLP117 T02560200 (WF)","FM-15","6",,,,,,,,,,,,,,,,,,,,,,,,,,,,"2009-05-27"
"72259003927","2019-09-18T02:53:00","FM-15","6",,,,,,,,,,,,,,,,,,,,,,,,,,,,,,,,,,,,,,"29.89","68","77","0.00",,"+0.02","8","74","29.86","FEW:02 250","29.25","10.00","71","120",,"7",,,,,,,,,,,,,,,,,,,,,,,,,,,,,,,,,,,,,"MET10409/18/19 02:53:02 METAR KDFW 180853Z 12006KT 10SM FEW250 25/20 A2989 RMK AO2 SLP112 T02500200 58006 (WF)","FM-15","6",,,,,,,,,,,,,,,,,,,,,,,,,,,,"2009-05-27"
"72259003927","2019-09-18T03:53:00","FM-15","7",,,,,,,,,,,,,,,,,,,,,,,,,,,,,,,,,,,,,,"29.89","69","77","0.00",,,,"77","29.86","FEW:02 250","29.25","10.00","72","150",,"8",,,,,,,,,,,,,,,,,,,,,,,,,,,,,,,,,,,,,"MET09809/18/19 03:53:02 METAR KDFW 180953Z 15007KT 10SM FEW250 25/21 A2989 RMK AO2 SLP113 T02500206 (WF)","FM-15","7",,,,,,,,,,,,,,,,,,,,,,,,,,,,"2009-05-27"
"72259003927","2019-09-18T04:53:00","FM-15","7",,,,,,,,,,,,,,,,,,,,,,,,,,,,,,,,,,,,,,"29.91","69","75","0.00",,,,"82","29.88","FEW:02 250","29.27","10.00","71","130",,"3",,,,,,,,,,,,,,,,,,,,,,,,,,,,,,,,,,,,,"MET09809/18/19 04:53:02 METAR KDFW 181053Z 13003KT 10SM FEW250 24/21 A2991 RMK AO2 SLP118 T02390206 (WF)","FM-15","7",,,,,,,,,,,,,,,,,,,,,,,,,,,,"2009-05-27"
"72259003927","2019-09-18T05:53:00","FM-15","7",,,,,,,,,,,,,,,,,,,,,,,,,,,,,,,,,,,,,,"29.92","69","74","0.00",,"-0.03","3","85","29.89","FEW:02 250","29.28","10.00","71","110",,"5",,,,,,,,,,,,,,,,,,,,,,,,,,,,,,,,,,,,,"MET11609/18/19 05:53:02 METAR KDFW 181153Z 11004KT 10SM FEW250 23/21 A2992 RMK AO2 SLP121 T02330206 10261 20233 53009 (WF)","FM-15","7",,,,,,,,,,,,,,,,,,,,,,,,,,,,"2009-05-27"
"72259003927","2019-09-18T06:00:00","FM-12","4",,,,,,,,,,,,,,,,,,,,,,,,,,,,,,,,,,,,,,,"69","74",,,"-0.03","3","85","29.89",,"29.31","9.94","71","110",,"5",,,,,,,,,,,,,,,,,,,,,,,,,,,,,,,,,,,,,"SYN08072259 32966 21104 10233 20206 39924 40121 53009 91153 333 10344 20233 555 91812=","FM-12","4",,,,,,,,,,,,,,,,,,,,,,,,,,,,"2009-05-27"
"72259003927","2019-09-18T06:53:00","FM-15","7",,,,,,,,,,,,,,,,,,,,,,,,,,,,,,,,,,,,,,"29.93","70","76","0.00",,,,"82","29.91","FEW:02 10 FEW:02 250","29.29","10.00","72","080",,"3",,,,,,,,,,,,,,,,,,,,,,,,,,,,,,,,,,,,,"MET10709/18/19 06:53:02 METAR KDFW 181253Z 08003KT 10SM FEW010 FEW250 24/21 A2993 RMK AO2 SLP127 T02440211 $ (NJ)","FM-15","7",,,,,,,,,,,,,,,,,,,,,,,,,,,,"2009-05-27"
"72259003927","2019-09-18T07:53:00","FM-15","7",,,,,,,,,,,,,,,,,,,,,,,,,,,,,,,,,,,,,,"29.94","70","79","0.00",,,,"74","29.91","FEW:02 15 FEW:02 250","29.30","10.00","73","090",,"6",,,,,,,,,,,,,,,,,,,,,,,,,,,,,,,,,,,,,"MET10709/18/19 07:53:02 METAR KDFW 181353Z 09005KT 10SM FEW015 FEW250 26/21 A2994 RMK AO2 SLP130 T02610211 $ (NJ)","FM-15","7",,,,,,,,,,,,,,,,,,,,,,,,,,,,"2009-05-27"
"72259003927","2019-09-18T08:53:00","FM-15","7",,,,,,,,,,,,,,,,,,,,,,,,,,,,,,,,,,,,,,"29.95","71","82","0.00",,"-0.03","1","69","29.92","FEW:02 17 FEW:02 250","29.31","10.00","74","050",,"7",,,,,,,,,,,,,,,,,,,,,,,,,,,,,,,,,,,,,"MET11109/18/19 08:53:02 METAR KDFW 181453Z 05006KT 10SM FEW017 FEW250 28/22 A2995 RMK AO2 SLP131 T02780217 51009 (NJ)","FM-15","7",,,,,,,,,,,,,,,,,,,,,,,,,,,,"2009-05-27"
"72259003927","2019-09-18T09:00:00","FM-12","4",,,,,,,,,,,,,,,,,,,,,,,,,,,,,,,,,,,,,,,"71","82",,,"-0.03","1","69","29.92","15","29.34","9.94","74","050",,"7",,,,,,,,,,,,,,,,,,,,,,,,,,,,,,,,,,,,,"SYN06472259 32466 20506 10278 20217 39934 40131 51009 91453 555 91815=","FM-12","4",,,,,,,,,,,,,,,,,,,,,,,,,,,,"2009-05-27"
"72259003927","2019-09-18T09:53:00","FM-15","7",,,,,,,,,,,,,,,,,,,,,,,,,,,,,,,,,,,,,,"29.95","70","84","0.00",,,,"63","29.92","SCT:04 22 SCT:04 250","29.31","10.00","74","VRB",,"5",,,,,,,,,,,,,,,,,,,,,,,,,,,,,,,,,,,,,"MET10509/18/19 09:53:02 METAR KDFW 181553Z VRB04KT 10SM SCT022 SCT250 29/21 A2995 RMK AO2 SLP133 T02890211 (NJ)","FM-15","7",,,,,,,,,,,,,,,,,,,,,,,,,,,,"2009-05-27"
"72259003927","2019-09-18T10:53:00","FM-15","7",,,,,,,,,,,,,,,,,,,,,,,,,,,,,,,,,,,,,,"29.94","70","87","0.00",,,,"57","29.91","SCT:04 31 SCT:04 250","29.30","10.00","75","050",,"10",,,,,,,,,,,,,,,,,,,,,,,,,,,,,,,,,,,,,"MET10509/18/19 10:53:02 METAR KDFW 181653Z 05009KT 10SM SCT031 SCT250 31/21 A2994 RMK AO2 SLP129 T03060211 (NJ)","FM-15","7",,,,,,,,,,,,,,,,,,,,,,,,,,,,"2009-05-27"
"72259003927","2019-09-18T11:53:00","FM-15","7",,,,,,,,,,,,,,,,,,,,,,,,,,,,,,,,,,,,,,"29.93","70","87","0.00",,"+0.02","8","57","29.90","SCT:04 37 SCT:04 250","29.29","10.00","75","VRB","16","6",,,,,,,,,,,,,,,,,,,,,,,,,,,,,,,,,,,,,"MET12609/18/19 11:53:02 METAR KDFW 181753Z VRB05G14KT 10SM SCT037 SCT250 31/21 A2993 RMK AO2 SLP124 T03060211 10317 20233 58007 (NJ)","FM-15","7",,,,,,,,,,,,,,,,,,,,,,,,,,,,"2009-05-27"
"72259003927","2019-09-18T12:00:00","FM-12","4",,,,,,,,,,,,,,,,,,,,,,,,,,,,,,,,,,,,,,,"70","87",,,"+0.02","8","57","29.90","41","29.32","9.94","75",,,"6",,,,,,,,,,,,,,,,,,,,,,,,,,,,,,,,,,,,,"SYN08672259 32666 4//05 10306 20211 39928 40124 58007 91753 333 10317 20233 91014 555 91818=","FM-12","4",,,,,,,,,,,,,,,,,,,,,,,,,,,,"2009-05-27"
"72259003927","2019-09-18T12:53:00","FM-15","7",,,,,,,,,,,,,,,,,,,,,,,,,,,,,,,,,,,,,,"29.90","69","90","0.00",,,,"50","29.87","SCT:04 41 SCT:04 250","29.26","10.00","75","VRB",,"9",,,,,,,,,,,,,,,,,,,,,,,,,,,,,,,,,,,,,"MET10509/18/19 12:53:02 METAR KDFW 181853Z 10008KT 10SM SCT041 SCT250 32/21 A2990 RMK AO2 SLP114 T03220206 (NJ)","FM-15","7",,,,,,,,,,,,,,,,,,,,,,,,,,,,"2009-05-27"
"72259003927","2019-09-18T13:53:00","FM-15","7",,,,,,,,,,,,,,,,,,,,,,,,,,,,,,,,,,,,,,"29.88","69","90","0.00",,,,"50","29.85","BKN:07 47","29.24","10.00","75","060",,"8",,,,,,,,,,,,,,,,,,,,,,,,,,,,,,,,,,,,,"MET09809/18/19 13:53:02 METAR KDFW 181953Z 06007KT 10SM BKN047 32/21 A2988 RMK AO2 SLP107 T03220206 (NJ)","FM-15","7",,,,,,,,,,,,,,,,,,,,,,,,,,,,"2009-05-27"
"72259003927","2019-09-18T14:53:00","FM-15","7",,,,,,,,,,,,,,,,,,,,,,,,,,,,,,,,,,,,,,"29.86","69","92","0.00",,"+0.06","6","47","29.83","SCT:04 50","29.22","10.00","76","070",,"8",,,,,,,,,,,,,,,,,,,,,,,,,,,,,,,,,,,,,"MET10409/18/19 14:53:02 METAR KDFW 182053Z 07007KT 10SM SCT050 33/21 A2986 RMK AO2 SLP102 T03330206 56022 (GR)","FM-15","7",,,,,,,,,,,,,,,,,,,,,,,,,,,,"2009-05-27"
"72259003927","2019-09-18T15:00:00","FM-12","4",,,,,,,,,,,,,,,,,,,,,,,,,,,,,,,,,,,,,,,"69","92",,,"+0.06","6","47","29.83","57","29.25","9.94","76","070",,"8",,,,,,,,,,,,,,,,,,,,,,,,,,,,,,,,,,,,,"SYN06472259 32766 40707 10333 20206 39904 40102 56022 92053 555 91821=","FM-12","4",,,,,,,,,,,,,,,,,,,,,,,,,,,,"2009-05-27"
"72259003927","2019-09-18T15:53:00","FM-15","7",,,,,,,,,,,,,,,,,,,,,,,,,,,,,,,,,,,,,,"29.85","68","92","0.00",,,,"46","29.82","SCT:04 49","29.21","10.00","75","090",,"6",,,,,,,,,,,,,,,,,,,,,,,,,,,,,,,,,,,,,"MET11809/18/19 15:53:02 METAR KDFW 182153Z 09005KT 10SM SCT049 33/20 A2985 RMK AO2 SLP098 CB TCU DSNT E MOV N T03330200 (GR)","FM-15","7",,,,,,,,,,,,,,,,,,,,,,,,,,,,"2009-05-27"
"72259003927","2019-09-18T16:53:00","FM-15","7",,,,,,,,,,,,,,,,,,,,,,,,,,,,,,,,,,,,,,"29.85","67","92","0.00",,,,"44","29.82","FEW:02 50","29.21","10.00","75","080",,"8",,,,,,,,,,,,,,,,,,,,,,,,,,,,,,,,,,,,,"MET13109/18/19 16:53:02 METAR KDFW 182253Z 08007KT 10SM FEW050 33/19 A2985 RMK AO2 SLP097 CB DSNT E MOV W TCU DSNT NE SE-S T03330194 (GR)","FM-15","7",,,,,,,,,,,,,,,,,,,,,,,,,,,,"2009-05-27"
"72259003927","2019-09-18T17:53:00","FM-15","7",,,,,,,,,,,,,,,,,,,,,,,,,,,,,,,,,,,,,,"29.85","68","90","0.00",,"+0.01","6","48","29.82","FEW:02 50","29.21","10.00","75","070",,"10",,,,,,,,,,,,,,,,,,,,,,,,,,,,,,,,,,,,,"MET15309/18/19 17:53:02 METAR KDFW 182353Z 07009KT 10SM FEW050 32/20 A2985 RMK AO2 SLP097 CB DSNT E-SE MOV SW TCU DSNT NE-SE-S T03220200 10339 20306 56005 (GR)","FM-15","7",,,,,,,,,,,,,,,,,,,,,,,,,,,,"2009-05-27"
"72259003927","2019-09-18T18:00:00","FM-12","4",,,,,,,,,,,,,,,,,,,,,,,,,,,,,,,,,,,,,,,"68","90",,,"+0.01","6","48","29.82","57","29.24","9.94","75","070",,"10",,,,,,,,,,,,,,,,,,,,,,,,,,,,,,,,,,,,,"SYN08072259 32766 20709 10322 20200 39901 40097 56005 92353 333 10339 20233 555 91900=","FM-12","4",,,,,,,,,,,,,,,,,,,,,,,,,,,,"2009-05-27"
"72259003927","2019-09-18T18:53:00","FM-15","7",,,,,,,,,,,,,,,,,,,,,,,,,,,,,,,,,,,,,,"29.86","70","84","0.00",,,,"63","29.83","FEW:02 50","29.22","10.00","74","100",,"13",,,,,,,,,,,,,,,,,,,,,,,,,,,,,,,,,,,,,"MET10309/18/19 18:53:01 METAR KDFW 190053Z 10011KT 10SM FEW050 29/21 A2986 RMK AO2 SLP103 CB DSIPTD T02890211","FM-15","7",,,,,,,,,,,,,,,,,,,,,,,,,,,,"2009-05-27"
"72259003927","2019-09-18T19:53:00","FM-15","7",,,,,,,,,,,,,,,,,,,,,,,,,,,,,,,,,,,,,,"29.88","70","83","0.00",,,,"65","29.85","FEW:02 50","29.24","10.00","74","100",,"5",,,,,,,,,,,,,,,,,,,,,,,,,,,,,,,,,,,,,"MET09309/18/19 19:53:01 METAR KDFW 190153Z 10004KT 10SM FEW050 28/21 A2988 RMK AO2 SLP110 T02830211","FM-15","7",,,,,,,,,,,,,,,,,,,,,,,,,,,,"2009-05-27"
"72259003927","2019-09-18T20:53:00","FM-15","7",,,,,,,,,,,,,,,,,,,,,,,,,,,,,,,,,,,,,,"29.90","71","81","0.00",,"-0.05","1","72","29.87","FEW:02 50","29.26","10.00","74","080",,"8",,,,,,,,,,,,,,,,,,,,,,,,,,,,,,,,,,,,,"MET09909/18/19 20:53:01 METAR KDFW 190253Z 08007KT 10SM FEW050 27/22 A2990 RMK AO2 SLP114 T02720217 51017","FM-15","7",,,,,,,,,,,,,,,,,,,,,,,,,,,,"2009-05-27"
"72259003927","2019-09-18T21:00:00","FM-12","4",,,,,,,,,,,,,,,,,,,,,,,,,,,,,,,,,,,,,,,"71","81",,,"-0.05","1","72","29.87","57","29.29","9.94","74","080",,"8",,,,,,,,,,,,,,,,,,,,,,,,,,,,,,,,,,,,,"SYN06472259 32766 20807 10272 20217 39918 40114 51017 90253 555 91903=","FM-12","4",,,,,,,,,,,,,,,,,,,,,,,,,,,,"2009-05-27"
"72259003927","2019-09-18T21:53:00","FM-15","7",,,,,,,,,,,,,,,,,,,,,,,,,,,,,,,,,,,,,,"29.90","71","79","0.00",,,,"77","29.87","FEW:02 50","29.26","10.00","74","080",,"3",,,,,,,,,,,,,,,,,,,,,,,,,,,,,,,,,,,,,"MET09309/18/19 21:53:02 METAR KDFW 190353Z 08003KT 10SM FEW050 26/22 A2990 RMK AO2 SLP116 T02610217","FM-15","7",,,,,,,,,,,,,,,,,,,,,,,,,,,,"2009-05-27"
"72259003927","2019-09-18T22:53:00","FM-15","7",,,,,,,,,,,,,,,,,,,,,,,,,,,,,,,,,,,,,,"29.90","71","79","0.00",,,,"77","29.87","FEW:02 22","29.26","10.00","74","100",,"6",,,,,,,,,,,,,,,,,,,,,,,,,,,,,,,,,,,,,"MET09309/18/19 22:53:02 METAR KDFW 190453Z 10005KT 10SM FEW022 26/22 A2990 RMK AO2 SLP116 T02610217","FM-15","7",,,,,,,,,,,,,,,,,,,,,,,,,,,,"2009-05-27"
"72259003927","2019-09-18T23:53:00","FM-15","7",,,,,,,,,,,,,,,,,,,,,,,,,,,,,,,,,,,,,,"29.89","70","78","0.00",,"+0.00","8","76","29.86","FEW:02 22","29.25","10.00","73","110",,"7",,,,,,,,,,,,,,,,,,,,,,,,,,,,,,,,,,,,,"MET12109/18/19 23:53:02 METAR KDFW 190553Z 11006KT 10SM FEW022 26/21 A2989 RMK AO2 SLP113 T02560211 10322 20256 403390233 58001","FM-15","7",,,,,,,,,,,,,,,,,,,,,,,,,,,,"2009-05-27"
"72259003927","2019-09-18T23:59:00","SOD  ","6",,,,,,,,,,,,,,,,"84",,,"29.25",,"6.5","19","6.6","0","93","74","100","25","0.00","0","0.0","100","21",,,,,,,,,,,,,,,,,,,,,,,,,,,,,,,,,,,,,,,,,,,,,,,,,,,,,,,,,"SOD73924 HR PRECIPITATION (IN): 0.00 SNOW DEPTH (IN):0     24 HR SNOWFALL (IN):0.0  24 HR MAX TEMP (F): 9324 HR MIN TEMP (F): 74AVERAGE STATION PRESSURE:29.250 MINIMUM SEA LEVEL PRESSURE:29.81 TIME OF OCCURRENCE:1806 PEAK WIND SPEED (MPH): 25 PEAK WIND DIR (DEG):100 PEAK WIND TIME (LST):      FASTEST 2MIN SPEED (MPH): 21FASTEST 2MIN DIR (DEG):100 FASTEST 2MIN TIME (LST):     AVERAGE WIND SPEED (MPH): 6.5 24 HR AVG TEMP (F): 84DEPART FROM NORMAL:  7  HEATING DEGREE DAYS:  0 COOLING DEGREE DAYS: 19 LATEST DAY MAX TEMP (0700-1900 LST):93  LATEST NIGHT MIN TEMP(1900-0800 LST):74 HOURLY INCREMENTAL PRECIPITATION VALUES (IN):.00 0.00 0.00 0.00 0.00 0.00 0.00 0.00 0.00 0.00 0.00 0.00 0.00 0.00 0.00 0.00 0.00 0.00 0.00 0.00 0.00 0.00 0.00 0.00","SOD  ","6",,,,,,,,,,,,,,,,,,,,,,,,,"0613","1830",,"2009-05-27"
"72259003927","2019-09-19T00:00:00","FM-12","4",,,,,,,,,,,,,,,,,,,,,,,,,,,,,,,,,,,,,,,"70","78",,,"+0.00","8","76","29.86","26","29.28","9.94","73","110",,"7",,,,,,,,,,,,,,,,,,,,,,,,,,,,,,,,,,,,,"SYN08072259 32566 21106 10256 20211 39914 40113 58001 90553 333 10322 20233 555 91906=","FM-12","4",,,,,,,,,,,,,,,,,,,,,,,,,,,,"2009-05-27"
"72259003927","2019-09-19T00:53:00","FM-15","7",,,,,,,,,,,,,,,,,,,,,,,,,,,,,,,,,,,,,,"29.89","70","77","0.00",,,,"79","29.86","FEW:02 22","29.25","10.00","72","110",,"7",,,,,,,,,,,,,,,,,,,,,,,,,,,,,,,,,,,,,"MET09809/19/19 00:53:02 METAR KDFW 190653Z 11006KT 10SM FEW022 25/21 A2989 RMK AO2 SLP112 T02500211 (WF)","FM-15","7",,,,,,,,,,,,,,,,,,,,,,,,,,,,"2009-05-27"
"72259003927","2019-09-19T01:53:00","FM-15","7",,,,,,,,,,,,,,,,,,,,,,,,,,,,,,,,,,,,,,"29.88","70","76","0.00",,,,"82","29.85","FEW:02 19","29.24","10.00","72","110",,"9",,,,,,,,,,,,,,,,,,,,,,,,,,,,,,,,,,,,,"MET09809/19/19 01:53:02 METAR KDFW 190753Z 11008KT 10SM FEW019 24/21 A2988 RMK AO2 SLP109 T02440211 (WF)","FM-15","7",,,,,,,,,,,,,,,,,,,,,,,,,,,,"2009-05-27"
"72259003927","2019-09-19T02:53:00","FM-15","7",,,,,,,,,,,,,,,,,,,,,,,,,,,,,,,,,,,,,,"29.87","70","75","0.00",,"+0.02","8","84","29.84","FEW:02 17","29.23","10.00","72","100",,"3",,,,,,,,,,,,,,,,,,,,,,,,,,,,,,,,,,,,,"MET10409/19/19 02:53:02 METAR KDFW 190853Z 10003KT 10SM FEW017 24/21 A2987 RMK AO2 SLP106 T02390211 58007 (WF)","FM-15","7",,,,,,,,,,,,,,,,,,,,,,,,,,,,"2009-05-27"
"72259003927","2019-09-19T03:00:00","FM-12","4",,,,,,,,,,,,,,,,,,,,,,,,,,,,,,,,,,,,,,,"70","75",,,"+0.02","8","84","29.84","15","29.26","9.94","72","100",,"3",,,,,,,,,,,,,,,,,,,,,,,,,,,,,,,,,,,,,"SYN06472259 32466 21003 10239 20211 39908 40106 58007 90853 555 91909=","FM-12","4",,,,,,,,,,,,,,,,,,,,,,,,,,,,"2009-05-27"
"72259003927","2019-09-19T03:14:00","FM-16","7",,,,,,,,,,,,,,,,,,,,,,,,,,,,,,,,,,,,,,"29.87","70","75",,,,,"84",,"BKN:07 18","29.23","10.00","72","100",,"5",,,,,,,,,,,,,,,,,,,,,,,,,,,,,,,,,,,,,"MET09109/19/19 03:14:02 SPECI KDFW 190914Z 10004KT 10SM BKN018 24/21 A2987 RMK AO2 T02390211 (WF)","FM-16","7",,,,,,,,,,,,,,,,,,,,,,,,,,,,"2009-05-27"
"72259003927","2019-09-19T03:53:00","FM-15","7",,,,,,,,,,,,,,,,,,,,,,,,,,,,,,,,,,,,,,"29.87","70","76","0.00",,,,"82","29.84","BKN:07 17","29.23","10.00","72","110",,"5",,,,,,,,,,,,,,,,,,,,,,,,,,,,,,,,,,,,,"MET09809/19/19 03:53:02 METAR KDFW 190953Z 11004KT 10SM BKN017 24/21 A2987 RMK AO2 SLP106 T02440211 (WF)","FM-15","7",,,,,,,,,,,,,,,,,,,,,,,,,,,,"2009-05-27"
"72259003927","2019-09-19T04:53:00","FM-15","7",,,,,,,,,,,,,,,,,,,,,,,,,,,,,,,,,,,,,,"29.88","70","76","0.00",,,,"82","29.85","BKN:07 18","29.24","10.00","72","030",,"6",,,,,,,,,,,,,,,,,,,,,,,,,,,,,,,,,,,,,"MET09809/19/19 04:53:02 METAR KDFW 191053Z 03005KT 10SM BKN018 24/21 A2988 RMK AO2 SLP108 T02440211 (WF)","FM-15","7",,,,,,,,,,,,,,,,,,,,,,,,,,,,"2009-05-27"
"72259003927","2019-09-19T05:53:00","FM-15","7",,,,,,,,,,,,,,,,,,,,,,,,,,,,,,,,,,,,,,"29.89","70","76","0.00",,"-0.01","3","82","29.86","FEW:02 17 OVC:08 24","29.25","10.00","72","060",,"8",,,,,,,,,,,,,,,,,,,,,,,,,,,,,,,,,,,,,"MET12309/19/19 05:53:02 METAR KDFW 191153Z 06007KT 10SM FEW017 OVC024 24/21 A2989 RMK AO2 SLP111 T02440211 10256 20239 53005 (WF)","FM-15","7",,,,,,,,,,,,,,,,,,,,,,,,,,,,"2009-05-27"
"72259003927","2019-09-19T06:00:00","FM-12","4",,,,,,,,,,,,,,,,,,,,,,,,,,,,,,,,,,,,,,,"70","76",,,"-0.01","3","82","29.86","15","29.28","9.94","72","060",,"8",,,,,,,,,,,,,,,,,,,,,,,,,,,,,,,,,,,,,"SYN08072259 32466 80607 10244 20211 39914 40111 53005 91153 333 10339 20239 555 91912=","FM-12","4",,,,,,,,,,,,,,,,,,,,,,,,,,,,"2009-05-27"
"72259003927","2019-09-19T06:53:00","FM-15","7",,,,,,,,,,,,,,,,,,,,,,,,,,,,,,,,,,,,,,"29.89","70","76","0.00",,,,"82","29.87","FEW:02 16 OVC:08 24","29.25","10.00","72","070",,"7",,,,,,,,,,,,,,,,,,,,,,,,,,,,,,,,,,,,,"MET10509/19/19 06:53:02 METAR KDFW 191253Z 07006KT 10SM FEW016 OVC024 24/21 A2989 RMK AO2 SLP114 T02440211 (NJ)","FM-15","7",,,,,,,,,,,,,,,,,,,,,,,,,,,,"2009-05-27"
"72259003927","2019-09-19T07:53:00","FM-15","7",,,,,,,,,,,,,,,,,,,,,,,,,,,,,,,,,,,,,,"29.90","70","77","0.00",,,,"79","29.88","BKN:07 15 OVC:08 23","29.26","10.00","72","060",,"8",,,,,,,,,,,,,,,,,,,,,,,,,,,,,,,,,,,,,"MET10509/19/19 07:53:02 METAR KDFW 191353Z 06007KT 10SM BKN015 OVC023 25/21 A2990 RMK AO2 SLP117 T02500211 (NJ)","FM-15","7",,,,,,,,,,,,,,,,,,,,,,,,,,,,"2009-05-27"
"72259003927","2019-09-19T08:06:00","FM-16","7",,,,,,,,,,,,,,,,,,,,,,,,,,,,,,,,,,,,,,"29.90","71","77",,,,,"82",,"BKN:07 14 OVC:08 22","29.26","10.00","73","050",,"10",,,,,,,,,,,,,,,,,,,,,,,,,,,,,,,,,,,,,"MET09809/19/19 08:06:02 SPECI KDFW 191406Z 05009KT 10SM BKN014 OVC022 25/22 A2990 RMK AO2 T02500217 (NJ)","FM-16","7",,,,,,,,,,,,,,,,,,,,,,,,,,,,"2009-05-27"
"72259003927","2019-09-19T08:17:00","FM-16","7",,,,,,,,,,,,,,,,,,,,,,,,,,,,,,,,,,,,,,"29.91","71","77",,,,,"82",,"FEW:02 10 BKN:07 22 OVC:08 31","29.27","10.00","73","060",,"7",,,,,,,,,,,,,,,,,,,,,,,,,,,,,,,,,,,,,"MET10509/19/19 08:17:02 SPECI KDFW 191417Z 06006KT 10SM FEW010 BKN022 OVC031 25/22 A2991 RMK AO2 T02500217 (NJ)","FM-16","7",,,,,,,,,,,,,,,,,,,,,,,,,,,,"2009-05-27"
"72259003927","2019-09-19T08:53:00","FM-15","7",,,,,,,,,,,,,,,,,,,,,,,,,,,,,,,,,,,,,,"29.91","71","78","T",,"-0.02","1","79","29.88","SCT:04 13 BKN:07 19 BKN:07 30","29.27","10.00","73","050",,"9",,,,,,,,,,,,,,,,,,,,,,,,,,,,,,,,,,,,,"MET13909/19/19 08:53:02 METAR KDFW 191453Z 05008KT 10SM SCT013 BKN019 BKN030 26/22 A2991 RMK AO2 RAB30E40 SLP119 P0000 60000 T02560217 51007 (NJ)","FM-15","7",,,,,,,,,,,,,,,,,,,,,,,,,,,,"2009-05-27"
"72259003927","2019-09-19T09:00:00","FM-12","4",,,,,,,,,,,,,,,,,,,,,,,,,,,,,,,,,,,,,,,"71","78",,,"-0.02","1","79","29.88","15","29.30","9.94","73","050",,"9",,,,,,,,,,,,,,,,,,,,,,,,,,,,,,,,,,,,,"SYN07072259 12466 60508 10256 20217 39921 40119 51007 69907 91453 555 91915=","FM-12","4",,,,,,,,,,,,,,,,,,,,,,,,,,,,"2009-05-27"
"72259003927","2019-09-19T09:53:00","FM-15","7",,,,,,,,,,,,,,,,,,,,,,,,,,,,,,,,,,,,,,"29.91","71","78","T",,,,"79","29.88","FEW:02 12 BKN:07 20 OVC:08 28","29.27","7.00","73","070",,"9",,,,,,,,,,,,,,,,,,,,,,,,,,,,,,,,,,,,,"MET12609/19/19 09:53:02 METAR KDFW 191553Z 07008KT 7SM FEW012 BKN020 OVC028 26/22 A2991 RMK AO2 RAB42E53 SLP119 P0000 T02560217 (NJ)","FM-15","7",,,,,,,,,,,,,,,,,,,,,,,,,,,,"2009-05-27"
"72259003927","2019-09-19T10:53:00","FM-15","7",,,,,,,,,,,,,,,,,,,,,,,,,,,,,,,,,,,,,,"29.91","72","77","T",,,,"85","29.88","SCT:04 12 BKN:07 21 OVC:08 29","29.27","9.00","74","050",,"8",,,,,,,,,,,,,,,,,,,,,,,,,,,,,,,,,,,,,"MET12809/19/19 10:53:02 METAR KDFW 191653Z 05007KT 9SM SCT012 BKN021 OVC029 25/22 A2991 RMK AO2 RAB1557E42 SLP120 P0000 T02500222 (NJ)","FM-15","7",,,,,,,,,,,,,,,,,,,,,,,,,,,,"2009-05-27"
"72259003927","2019-09-19T11:53:00","FM-15","7",,,,,,,,,,,,,,,,,,,,,,,,,,,,,,,,,,,,,,"29.90","70","80","T","-RA:02 |RA |RA","+0.00","8","71","29.88","FEW:02 18 BKN:07 29 OVC:08 37","29.26","10.00","73","070",,"15",,,,,,,,,,,,,,,,,,,,,,,,,,,,,,,,,,,,,"MET15209/19/19 11:53:02 METAR KDFW 191753Z 07013KT 10SM -RA FEW018 BKN029 OVC037 27/21 A2990 RMK AO2 RAB52 SLP118 P0000 60000 T02670211 10272 20239 58001 (NJ)","FM-15","7",,,,,,,,,,,,,,,,,,,,,,,,,,,,"2009-05-27"
"72259003927","2019-09-19T12:00:00","FM-12","4",,,,,,,,,,,,,,,,,,,,,,,,,,,,,,,,,,,,,,,"70","80",,"||RA","+0.00","8","71","29.88","15","29.29","9.94","73","070",,"15",,,,,,,,,,,,,,,,,,,,,,,,,,,,,,,,,,,,,"SYN09272259 11466 80713 10267 20211 39918 40118 58001 69901 761// 91753 333 10272 20239 555 91918=","FM-12","4",,,,,,,,,,,,,,,,,,,,,,,,,,,,"2009-05-27"
"72259003927","2019-09-19T12:51:00","FM-16","6",,,,,,,,,,,,,,,,,,,,,,,,,,,,,,,,,,,,,,"29.89","70","79",,,,,"74",,"SCT:04 20 OVC:08 30","29.25","10.00","73","070",,"10",,,,,,,,,,,,,,,,,,,,,,,,,,,,,,,,,,,,,"MET10509/19/19 12:51:02 SPECI KDFW 191851Z 07009KT 10SM SCT020 OVC030 26/21 A2989 RMK AO2 RAE23 P0000 FIBI (NJ)","FM-16","6",,,,,,,,,,,,,,,,,,,,,,,,,,,,"2009-05-27"
"72259003927","2019-09-19T12:53:00","FM-15","7",,,,,,,,,,,,,,,,,,,,,,,,,,,,,,,,,,,,,,"29.89","71","79","T",,,,"77","29.86","FEW:02 20 BKN:07 30 OVC:08 38","29.25","10.00","74","070",,"9",,,,,,,,,,,,,,,,,,,,,,,,,,,,,,,,,,,,,"MET12409/19/19 12:53:02 METAR KDFW 191853Z 07008KT 10SM FEW020 BKN030 OVC038 26/22 A2989 RMK AO2 RAE23 SLP112 P0000 T02610217 (NJ)","FM-15","7",,,,,,,,,,,,,,,,,,,,,,,,,,,,"2009-05-27"
"72259003927","2019-09-19T13:53:00","FM-15","7",,,,,,,,,,,,,,,,,,,,,,,,,,,,,,,,,,,,,,"29.87","70","82","0.00",,,,"67","29.84","FEW:02 20 SCT:04 30 OVC:08 41","29.23","10.00","74","050",,"10",,,,,,,,,,,,,,,,,,,,,,,,,,,,,,,,,,,,,"MET11909/19/19 13:53:02 METAR KDFW 191953Z 05009KT 10SM FEW020 SCT030 OVC041 28/21 A2987 RMK AO2 SLP106 SHRA E T02780211 (NJ)","FM-15","7",,,,,,,,,,,,,,,,,,,,,,,,,,,,"2009-05-27"
"72259003927","2019-09-19T14:53:00","FM-15","7",,,,,,,,,,,,,,,,,,,,,,,,,,,,,,,,,,,,,,"29.87","72","78","T",,"+0.04","6","82","29.84","FEW:02 25 OVC:08 41","29.23","10.00","74","150",,"5",,,,,,,,,,,,,,,,,,,,,,,,,,,,,,,,,,,,,"MET13209/19/19 14:53:02 METAR KDFW 192053Z 15004KT 10SM FEW025 OVC041 26/22 A2987 RMK AO2 RAB09E35 SLP105 P0000 60000 T02560222 56013 (AF)","FM-15","7",,,,,,,,,,,,,,,,,,,,,,,,,,,,"2009-05-27"
"72259003927","2019-09-19T15:00:00","FM-12","4",,,,,,,,,,,,,,,,,,,,,,,,,,,,,,,,,,,,,,,"72","78",,,"+0.04","6","82","29.84","26","29.26","9.94","74","150",,"5",,,,,,,,,,,,,,,,,,,,,,,,,,,,,,,,,,,,,"SYN07072259 12566 81504 10256 20222 39908 40105 56013 69907 92053 555 91921=","FM-12","4",,,,,,,,,,,,,,,,,,,,,,,,,,,,"2009-05-27"
"72259003927","2019-09-19T15:53:00","FM-15","7",,,,,,,,,,,,,,,,,,,,,,,,,,,,,,,,,,,,,,"29.85","70","81","0.00",,,,"69","29.83","SCT:04 26 OVC:08 60","29.21","10.00","74","080",,"9",,,,,,,,,,,,,,,,,,,,,,,,,,,,,,,,,,,,,"MET10509/19/19 15:53:02 METAR KDFW 192153Z 08008KT 10SM SCT026 OVC060 27/21 A2985 RMK AO2 SLP100 T02720211 (AF)","FM-15","7",,,,,,,,,,,,,,,,,,,,,,,,,,,,"2009-05-27"
"72259003927","2019-09-19T16:53:00","FM-15","7",,,,,,,,,,,,,,,,,,,,,,,,,,,,,,,,,,,,,,"29.84","69","81","0.00",,,,"67","29.81","SCT:04 24 BKN:07 60 BKN:07 250","29.20","10.00","73","080",,"10",,,,,,,,,,,,,,,,,,,,,,,,,,,,,,,,,,,,,"MET11209/19/19 16:53:02 METAR KDFW 192253Z 08009KT 10SM SCT024 BKN060 BKN250 27/21 A2984 RMK AO2 SLP096 T02720206 (AF)","FM-15","7",,,,,,,,,,,,,,,,,,,,,,,,,,,,"2009-05-27"
"72259003927","2019-09-19T17:53:00","FM-15","7",,,,,,,,,,,,,,,,,,,,,,,,,,,,,,,,,,,,,,"29.85","69","78","0.00",,"+0.02","5","74","29.82","SCT:04 19 BKN:07 32 BKN:07 60","29.21","10.00","72","070",,"11",,,,,,,,,,,,,,,,,,,,,,,,,,,,,,,,,,,,,"MET13609/19/19 17:53:02 METAR KDFW 192353Z 07010KT 10SM SCT019 BKN032 BKN060 26/21 A2985 RMK AO2 SLP098 60000 T02560206 10278 20244 55006 (AF)","FM-15","7",,,,,,,,,,,,,,,,,,,,,,,,,,,,"2009-05-27"
"72259003927","2019-09-19T18:00:00","FM-12","4",,,,,,,,,,,,,,,,,,,,,,,,,,,,,,,,,,,,,,,"69","78",,,"+0.02","5","74","29.82","15","29.24","9.94","72","070",,"11",,,,,,,,,,,,,,,,,,,,,,,,,,,,,,,,,,,,,"SYN08672259 12466 60710 10256 20206 39901 40098 55006 69901 92353 333 10278 20239 555 92000=","FM-12","4",,,,,,,,,,,,,,,,,,,,,,,,,,,,"2009-05-27"
"72259003927","2019-09-19T18:53:00","FM-15","7",,,,,,,,,,,,,,,,,,,,,,,,,,,,,,,,,,,,,,"29.84","69","77","0.00",,,,"77","29.81","SCT:04 18 BKN:07 34 BKN:07 50","29.20","10.00","72","100",,"9",,,,,,,,,,,,,,,,,,,,,,,,,,,,,,,,,,,,,"MET10709/19/19 18:53:01 METAR KDFW 200053Z 10008KT 10SM SCT018 BKN034 BKN050 25/21 A2984 RMK AO2 SLP096 T02500206","FM-15","7",,,,,,,,,,,,,,,,,,,,,,,,,,,,"2009-05-27"
"72259003927","2019-09-19T19:53:00","FM-15","7",,,,,,,,,,,,,,,,,,,,,,,,,,,,,,,,,,,,,,"29.85","68","75","0.00",,,,"79","29.83","FEW:02 19 SCT:04 35 SCT:04 50","29.21","10.00","70","120",,"7",,,,,,,,,,,,,,,,,,,,,,,,,,,,,,,,,,,,,"MET10709/19/19 19:53:01 METAR KDFW 200153Z 12006KT 10SM FEW019 SCT035 SCT050 24/20 A2985 RMK AO2 SLP102 T02390200","FM-15","7",,,,,,,,,,,,,,,,,,,,,,,,,,,,"2009-05-27"
"72259003927","2019-09-19T20:10:00","FM-16","7",,,,,,,,,,,,,,,,,,,,,,,,,,,,,,,,,,,,,,"29.86","68","75",,,,,"79",,"FEW:02 17 BKN:07 25 BKN:07 50","29.22","10.00","70","110",,"10",,,,,,,,,,,,,,,,,,,,,,,,,,,,,,,,,,,,,"MET10009/19/19 20:10:01 SPECI KDFW 200210Z 11009KT 10SM FEW017 BKN025 BKN050 24/20 A2986 RMK AO2 T02390200","FM-16","7",,,,,,,,,,,,,,,,,,,,,,,,,,,,"2009-05-27"
"72259003927","2019-09-19T20:53:00","FM-15","7",,,,,,,,,,,,,,,,,,,,,,,,,,,,,,,,,,,,,,"29.88","69","76","0.00",,"-0.04","3","79","29.85","FEW:02 15 BKN:07 23 BKN:07 50","29.24","10.00","71","110",,"6",,,,,,,,,,,,,,,,,,,,,,,,,,,,,,,,,,,,,"MET11309/19/19 20:53:01 METAR KDFW 200253Z 11005KT 10SM FEW015 BKN023 BKN050 24/21 A2988 RMK AO2 SLP110 T02440206 53012","FM-15","7",,,,,,,,,,,,,,,,,,,,,,,,,,,,"2009-05-27"
"72259003927","2019-09-19T21:00:00","FM-12","4",,,,,,,,,,,,,,,,,,,,,,,,,,,,,,,,,,,,,,,"69","76",,,"-0.04","3","79","29.85","15","29.27","9.94","71","110",,"6",,,,,,,,,,,,,,,,,,,,,,,,,,,,,,,,,,,,,"SYN06472259 32466 61105 10244 20206 39911 40110 53012 90253 555 92003=","FM-12","4",,,,,,,,,,,,,,,,,,,,,,,,,,,,"2009-05-27"
"72259003927","2019-09-19T21:43:00","FM-16","7",,,,,,,,,,,,,,,,,,,,,,,,,,,,,,,,,,,,,,"29.90","69","75",,,,,"82",,"BKN:07 14 OVC:08 40","29.26","10.00","71","130",,"5",,,,,,,,,,,,,,,,,,,,,,,,,,,,,,,,,,,,,"MET09309/19/19 21:43:02 SPECI KDFW 200343Z 13004KT 10SM BKN014 OVC040 24/21 A2990 RMK AO2 T02390206","FM-16","7",,,,,,,,,,,,,,,,,,,,,,,,,,,,"2009-05-27"
"72259003927","2019-09-19T21:53:00","FM-15","7",,,,,,,,,,,,,,,,,,,,,,,,,,,,,,,,,,,,,,"29.90","69","75","0.00",,,,"82","29.87","BKN:07 14 OVC:08 42","29.26","10.00","71","140",,"6",,,,,,,,,,,,,,,,,,,,,,,,,,,,,,,,,,,,,"MET10009/19/19 21:53:02 METAR KDFW 200353Z 14005KT 10SM BKN014 OVC042 24/21 A2990 RMK AO2 SLP115 T02390206","FM-15","7",,,,,,,,,,,,,,,,,,,,,,,,,,,,"2009-05-27"
"72259003927","2019-09-19T22:53:00","FM-15","7",,,,,,,,,,,,,,,,,,,,,,,,,,,,,,,,,,,,,,"29.90","70","74","0.00",,,,"88","29.88","BKN:07 12 BKN:07 42","29.26","10.00","71","130",,"6",,,,,,,,,,,,,,,,,,,,,,,,,,,,,,,,,,,,,"MET10009/19/19 22:53:02 METAR KDFW 200453Z 13005KT 10SM BKN012 BKN042 23/21 A2990 RMK AO2 SLP117 T02330211","FM-15","7",,,,,,,,,,,,,,,,,,,,,,,,,,,,"2009-05-27"
"72259003927","2019-09-19T23:53:00","FM-15","7",,,,,,,,,,,,,,,,,,,,,,,,,,,,,,,,,,,,,,"29.90","70","75","T","-RA:02 |RA |RA","-0.02","1","84","29.88","BKN:07 11","29.26","10.00","72","140",,"5",,,,,,,,,,,,,,,,,,,,,,,,,,,,,,,,,,,,,"MET14309/19/19 23:53:02 METAR KDFW 200553Z 14004KT 10SM -RA BKN011 24/21 A2990 RMK AO2 RAB52 SLP117 P0000 60000 T02390211 10256 20233 402780233 51006","FM-15","7",,,,,,,,,,,,,,,,,,,,,,,,,,,,"2009-05-27"
"72259003927","2019-09-19T23:59:00","SOD  ","6",,,,,,,,,,,,,,,,"78",,,"29.24",,"7.9","13","0.9","0","82","74","080","22","T","0","0.0","080","17","RA",,,,,,,,,,,,,,,,,,,,,,,,,,,,,,,,,,,,,,,,,,,,,,,,,,,,,,,,"SOD75424 HR PRECIPITATION (IN):    T SNOW DEPTH (IN):0     24 HR SNOWFALL (IN):0.0  WEATHER(CODE):18  24 HR MAX TEMP (F): 8224 HR MIN TEMP (F): 74AVERAGE STATION PRESSURE:29.240 MINIMUM SEA LEVEL PRESSURE:29.81 TIME OF OCCURRENCE:1915 PEAK WIND SPEED (MPH): 22 PEAK WIND DIR (DEG): 80 PEAK WIND TIME (LST):      FASTEST 2MIN SPEED (MPH): 17FASTEST 2MIN DIR (DEG): 80 FASTEST 2MIN TIME (LST):     AVERAGE WIND SPEED (MPH): 7.9 24 HR AVG TEMP (F): 78DEPART FROM NORMAL:  1  HEATING DEGREE DAYS:  0 COOLING DEGREE DAYS: 13 LATEST DAY MAX TEMP (0700-1900 LST):82  LATEST NIGHT MIN TEMP(1900-0800 LST):75 HOURLY INCREMENTAL PRECIPITATION VALUES (IN):.00 0.00 0.00 0.00 0.00 0.00 0.00 0.00 T    T    T    T    T    0.00 T    0.00 0.00 0.00 0.00 0.00 0.00 0.00 0.00 T","SOD  ","6",,,,,,,,,,,,,,,,,,,,,,,,,"0614","1829",,"2009-05-27"
"72259003927","2019-09-20T00:00:00","FM-12","4",,,,,,,,,,,,,,,,,,,,,,,,,,,,,,,,,,,,,,,"70","75",,"||RA","-0.02","1","84","29.88","15","29.29","9.94","72","140",,"5",,,,,,,,,,,,,,,,,,,,,,,,,,,,,,,,,,,,,"SYN09272259 11466 61404 10239 20211 39918 40117 51006 69901 761// 90553 333 10256 20233 555 92006=","FM-12","4",,,,,,,,,,,,,,,,,,,,,,,,,,,,"2009-05-27"
"72259003927","2019-09-20T00:53:00","FM-15","7",,,,,,,,,,,,,,,,,,,,,,,,,,,,,,,,,,,,,,"29.90","71","75","T",,,,"88","29.88","OVC:08 12","29.26","10.00","72","110",,"6",,,,,,,,,,,,,,,,,,,,,,,,,,,,,,,,,,,,,"MET11009/20/19 00:53:02 METAR KDFW 200653Z 11005KT 10SM OVC012 24/22 A2990 RMK AO2 RAE21 SLP117 P0000 T02390217 (WF)","FM-15","7",,,,,,,,,,,,,,,,,,,,,,,,,,,,"2009-05-27"
"72259003927","2019-09-20T01:23:00","FM-16","7",,,,,,,,,,,,,,,,,,,,,,,,,,,,,,,,,,,,,,"29.90","71","75",,,,,"88",,"BKN:07 15 OVC:08 21","29.26","10.00","72","150",,"7",,,,,,,,,,,,,,,,,,,,,,,,,,,,,,,,,,,,,"MET09809/20/19 01:23:02 SPECI KDFW 200723Z 15006KT 10SM BKN015 OVC021 24/22 A2990 RMK AO2 T02390217 (WF)","FM-16","7",,,,,,,,,,,,,,,,,,,,,,,,,,,,"2009-05-27"
"72259003927","2019-09-20T01:53:00","FM-15","7",,,,,,,,,,,,,,,,,,,,,,,,,,,,,,,,,,,,,,"29.90","71","76","0.00",,,,"85","29.87","SCT:04 13 BKN:07 21","29.26","10.00","73","170",,"8",,,,,,,,,,,,,,,,,,,,,,,,,,,,,,,,,,,,,"MET10509/20/19 01:53:02 METAR KDFW 200753Z 17007KT 10SM SCT013 BKN021 24/22 A2990 RMK AO2 SLP115 T02440217 (WF)","FM-15","7",,,,,,,,,,,,,,,,,,,,,,,,,,,,"2009-05-27"
"72259003927","2019-09-20T02:53:00","FM-15","7",,,,,,,,,,,,,,,,,,,,,,,,,,,,,,,,,,,,,,"29.89","72","76","0.00",,"+0.01","8","88","29.86","FEW:02 12 BKN:07 21 BKN:07 37","29.25","10.00","73","160",,"10",,,,,,,,,,,,,,,,,,,,,,,,,,,,,,,,,,,,,"MET12409/20/19 02:53:02 METAR KDFW 200853Z 16009KT 10SM FEW012 BKN021 BKN037 24/22 A2989 RMK AO2 SLP111 60000 T02440222 58005 (WF)","FM-15","7",,,,,,,,,,,,,,,,,,,,,,,,,,,,"2009-05-27"
"72259003927","2019-09-20T03:00:00","FM-12","4",,,,,,,,,,,,,,,,,,,,,,,,,,,,,,,,,,,,,,,"72","76",,,"+0.01","8","88","29.86","15","29.28","9.94","73","160",,"10",,,,,,,,,,,,,,,,,,,,,,,,,,,,,,,,,,,,,"SYN07072259 12466 61609 10244 20222 39914 40111 58005 69907 90853 555 92009=","FM-12","4",,,,,,,,,,,,,,,,,,,,,,,,,,,,"2009-05-27"
"72259003927","2019-09-20T03:00:00","FM-16","7",,,,,,,,,,,,,,,,,,,,,,,,,,,,,,,,,,,,,,"29.88","72","76",,,,,"88",,"BKN:07 12 BKN:07 18 OVC:08 23","29.24","9.00","73","160",,"11",,,,,,,,,,,,,,,,,,,,,,,,,,,,,,,,,,,,,"MET10409/20/19 03:00:02 SPECI KDFW 200900Z 16010KT 9SM BKN012 BKN018 OVC023 24/22 A2988 RMK AO2 T02440222 (WF)","FM-16","7",,,,,,,,,,,,,,,,,,,,,,,,,,,,"2009-05-27"
"72259003927","2019-09-20T03:53:00","FM-15","7",,,,,,,,,,,,,,,,,,,,,,,,,,,,,,,,,,,,,,"29.90","72","76","0.00",,,,"88","29.87","BKN:07 11 OVC:08 18","29.26","10.00","73","160",,"8",,,,,,,,,,,,,,,,,,,,,,,,,,,,,,,,,,,,,"MET10509/20/19 03:53:02 METAR KDFW 200953Z 16007KT 10SM BKN011 OVC018 24/22 A2990 RMK AO2 SLP116 T02440222 (WF)","FM-15","7",,,,,,,,,,,,,,,,,,,,,,,,,,,,"2009-05-27"
"72259003927","2019-09-20T04:53:00","FM-15","7",,,,,,,,,,,,,,,,,,,,,,,,,,,,,,,,,,,,,,"29.90","72","76","0.00",,,,"88","29.88","OVC:08 11","29.26","10.00","73","170",,"13",,,,,,,,,,,,,,,,,,,,,,,,,,,,,,,,,,,,,"MET09809/20/19 04:53:02 METAR KDFW 201053Z 17011KT 10SM OVC011 24/22 A2990 RMK AO2 SLP117 T02440222 (WF)","FM-15","7",,,,,,,,,,,,,,,,,,,,,,,,,,,,"2009-05-27"
"72259003927","2019-09-20T05:53:00","FM-15","7",,,,,,,,,,,,,,,,,,,,,,,,,,,,,,,,,,,,,,"29.91","73","77","0.00",,"-0.03","1","88","29.88","OVC:08 11","29.27","10.00","74","170",,"9",,,,,,,,,,,,,,,,,,,,,,,,,,,,,,,,,,,,,"MET12209/20/19 05:53:02 METAR KDFW 201153Z 17008KT 10SM OVC011 25/23 A2991 RMK AO2 SLP120 60000 T02500228 10250 20239 51009 (WF)","FM-15","7",,,,,,,,,,,,,,,,,,,,,,,,,,,,"2009-05-27"
"72259003927","2019-09-20T06:00:00","FM-12","4",,,,,,,,,,,,,,,,,,,,,,,,,,,,,,,,,,,,,,,"73","77",,,"-0.03","1","88","29.88","15","29.30","9.94","74","170",,"9",,,,,,,,,,,,,,,,,,,,,,,,,,,,,,,,,,,,,"SYN08672259 12466 81708 10250 20228 39921 40120 51009 69901 91153 333 10278 20233 555 92012=","FM-12","4",,,,,,,,,,,,,,,,,,,,,,,,,,,,"2009-05-27"
"72259003927","2019-09-20T06:53:00","FM-15","7",,,,,,,,,,,,,,,,,,,,,,,,,,,,,,,,,,,,,,"29.92","73","78","0.00",,,,"85","29.89","BKN:07 13 OVC:08 35","29.28","10.00","75","170",,"11",,,,,,,,,,,,,,,,,,,,,,,,,,,,,,,,,,,,,"MET10509/20/19 06:53:02 METAR KDFW 201253Z 17010KT 10SM BKN013 OVC035 26/23 A2992 RMK AO2 SLP121 T02560228 (NJ)","FM-15","7",,,,,,,,,,,,,,,,,,,,,,,,,,,,"2009-05-27"
"72259003927","2019-09-20T07:53:00","FM-15","7",,,,,,,,,,,,,,,,,,,,,,,,,,,,,,,,,,,,,,"29.94","74","79","0.00",,,,"85","29.91","OVC:08 13","29.30","10.00","76","170",,"10",,,,,,,,,,,,,,,,,,,,,,,,,,,,,,,,,,,,,"MET10909/20/19 07:53:02 METAR KDFW 201353Z 17009KT 10SM OVC013 26/23 A2994 RMK AO2 LTG DSNT E SLP129 T02610233 (NJ)","FM-15","7",,,,,,,,,,,,,,,,,,,,,,,,,,,,"2009-05-27"
"72259003927","2019-09-20T08:08:00","FM-16","7",,,,,,,,,,,,,,,,,,,,,,,,,,,,,,,,,,,,,,"29.94","74","79",,,,,"85",,"BKN:07 15 OVC:08 28","29.30","10.00","76","170",,"9",,,,,,,,,,,,,,,,,,,,,,,,,,,,,,,,,,,,,"MET10909/20/19 08:08:02 SPECI KDFW 201408Z 17008KT 10SM BKN015 OVC028 26/23 A2994 RMK AO2 LTG DSNT E T02610233 (NJ)","FM-16","7",,,,,,,,,,,,,,,,,,,,,,,,,,,,"2009-05-27"
"72259003927","2019-09-20T08:53:00","FM-15","7",,,,,,,,,,,,,,,,,,,,,,,,,,,,,,,,,,,,,,"29.94","73","82","0.00",,"-0.03","2","74","29.91","FEW:02 17 BKN:07 22 OVC:08 30","29.30","10.00","76","180","26","18",,,,,,,,,,,,,,,,,,,,,,,,,,,,,,,,,,,,,"MET12109/20/19 08:53:02 METAR KDFW 201453Z 18016G23KT 10SM FEW017 BKN022 OVC030 28/23 A2994 RMK AO2 SLP130 T02780228 52009 (NJ)","FM-15","7",,,,,,,,,,,,,,,,,,,,,,,,,,,,"2009-05-27"
"72259003927","2019-09-20T09:00:00","FM-12","4",,,,,,,,,,,,,,,,,,,,,,,,,,,,,,,,,,,,,,,"73","82",,,"-0.03","2","74","29.91","15","29.33","9.94","76","180",,"18",,,,,,,,,,,,,,,,,,,,,,,,,,,,,,,,,,,,,"SYN07472259 32466 81816 10278 20228 39931 40130 52009 91453 333 91023 555 92015=","FM-12","4",,,,,,,,,,,,,,,,,,,,,,,,,,,,"2009-05-27"
"72259003927","2019-09-20T09:53:00","FM-15","7",,,,,,,,,,,,,,,,,,,,,,,,,,,,,,,,,,,,,,"29.96","73","84","0.00",,,,"70","29.93","BKN:07 24 BKN:07 33 BKN:07 150","29.32","10.00","76","190",,"15",,,,,,,,,,,,,,,,,,,,,,,,,,,,,,,,,,,,,"MET11209/20/19 09:53:02 METAR KDFW 201553Z 19013KT 10SM BKN024 BKN033 BKN150 29/23 A2996 RMK AO2 SLP136 T02890228 (NJ)","FM-15","7",,,,,,,,,,,,,,,,,,,,,,,,,,,,"2009-05-27"
"72259003927","2019-09-20T10:06:00","FM-16","7",,,,,,,,,,,,,,,,,,,,,,,,,,,,,,,,,,,,,,"29.96","73","84",,,,,"70",,"BKN:07 24 BKN:07 34 BKN:07 150","29.32","10.00","76","180",,"14",,,,,,,,,,,,,,,,,,,,,,,,,,,,,,,,,,,,,"MET10509/20/19 10:06:02 SPECI KDFW 201606Z 18012KT 10SM BKN024 BKN034 BKN150 29/23 A2996 RMK AO2 T02890228 (NJ)","FM-16","7",,,,,,,,,,,,,,,,,,,,,,,,,,,,"2009-05-27"
"72259003927","2019-09-20T10:25:00","FM-16","7",,,,,,,,,,,,,,,,,,,,,,,,,,,,,,,,,,,,,,"29.96","73","86",,,,,"65",,"SCT:04 24 BKN:07 36 BKN:07 150","29.32","10.00","77","190",,"14",,,,,,,,,,,,,,,,,,,,,,,,,,,,,,,,,,,,,"MET10509/20/19 10:25:02 SPECI KDFW 201625Z 19012KT 10SM SCT024 BKN036 BKN150 30/23 A2996 RMK AO2 T03000228 (NJ)","FM-16","7",,,,,,,,,,,,,,,,,,,,,,,,,,,,"2009-05-27"
"72259003927","2019-09-20T10:53:00","FM-15","7",,,,,,,,,,,,,,,,,,,,,,,,,,,,,,,,,,,,,,"29.95","72","87","0.00",,,,"61","29.92","SCT:04 27 BKN:07 34 BKN:07 50","29.31","10.00","76","180",,"17",,,,,,,,,,,,,,,,,,,,,,,,,,,,,,,,,,,,,"MET12609/20/19 10:53:02 METAR KDFW 201653Z 18015KT 10SM SCT027 BKN034 BKN050 31/22 A2995 RMK AO2 SLP132 TCU DSNT E-SE T03060222 (NJ)","FM-15","7",,,,,,,,,,,,,,,,,,,,,,,,,,,,"2009-05-27"
"72259003927","2019-09-20T11:53:00","FM-15","7",,,,,,,,,,,,,,,,,,,,,,,,,,,,,,,,,,,,,,"29.92","72","92","0.00",,"+0.02","8","52","29.89","SCT:04 35 SCT:04 50 BKN:07 200","29.28","10.00","78","170","26","17",,,,,,,,,,,,,,,,,,,,,,,,,,,,,,,,,,,,,"MET14709/20/19 11:53:02 METAR KDFW 201753Z 17015G23KT 10SM SCT035 SCT050 BKN200 33/22 A2992 RMK AO2 SLP122 TCU DSNT E-SE T03330222 10333 20250 58007 (NJ)","FM-15","7",,,,,,,,,,,,,,,,,,,,,,,,,,,,"2009-05-27"
"72259003927","2019-09-20T12:00:00","FM-12","4",,,,,,,,,,,,,,,,,,,,,,,,,,,,,,,,,,,,,,,"72","92",,,"+0.02","8","52","29.89","41","29.31","9.94","78","170",,"17",,,,,,,,,,,,,,,,,,,,,,,,,,,,,,,,,,,,,"SYN08672259 32666 61715 10333 20222 39924 40122 58007 91753 333 10333 20244 91023 555 92018=","FM-12","4",,,,,,,,,,,,,,,,,,,,,,,,,,,,"2009-05-27"
"72259003927","2019-09-20T12:53:00","FM-15","7",,,,,,,,,,,,,,,,,,,,,,,,,,,,,,,,,,,,,,"29.90","70","93","0.00",,,,"47","29.87","SCT:04 42 SCT:04 55 BKN:07 250","29.26","10.00","77","190","28","22",,,,,,,,,,,,,,,,,,,,,,,,,,,,,,,,,,,,,"MET14709/20/19 12:53:02 METAR KDFW 201853Z 19019G24KT 10SM SCT042 SCT055 BKN250 34/21 A2990 RMK AO2 SLP115 SCT055 V BKN TCU DSNT N-NE SE-S T03390211 (NJ)","FM-15","7",,,,,,,,,,,,,,,,,,,,,,,,,,,,"2009-05-27"
"72259003927","2019-09-20T13:53:00","FM-15","7",,,,,,,,,,,,,,,,,,,,,,,,,,,,,,,,,,,,,,"29.87","69","93","0.00",,,,"46","29.84","SCT:04 50 SCT:04 70 BKN:07 250","29.23","10.00","76","180","25","18",,,,,,,,,,,,,,,,,,,,,,,,,,,,,,,,,,,,,"MET14909/20/19 13:53:02 METAR KDFW 201953Z 18016G22KT 10SM SCT050 SCT070 BKN250 34/21 A2987 RMK AO2 SLP105 CB DSNT NW-NE MOV E TCU DSNT SE-S T03390206 (NJ)","FM-15","7",,,,,,,,,,,,,,,,,,,,,,,,,,,,"2009-05-27"
"72259003927","2019-09-20T14:53:00","FM-15","7",,,,,,,,,,,,,,,,,,,,,,,,,,,,,,,,,,,,,,"29.86","66","95","0.00",,"+0.06","6","39","29.83","SCT:04 50 BKN:07 250","29.22","10.00","75","170","31","21",,,,,,,,,,,,,,,,,,,,,,,,,,,,,,,,,,,,,"MET15309/20/19 14:53:02 METAR KDFW 202053Z 17018G27KT 10SM SCT050 BKN250 35/19 A2986 RMK AO2 PK WND 19028/2016 SLP102 CB DSNT NW-NE MOV NE T03500189 56020 (AF)","FM-15","7",,,,,,,,,,,,,,,,,,,,,,,,,,,,"2009-05-27"
"72259003927","2019-09-20T15:00:00","FM-12","4",,,,,,,,,,,,,,,,,,,,,,,,,,,,,,,,,,,,,,,"66","95",,,"+0.06","6","39","29.83","57","29.25","9.94","75","170",,"21",,,,,,,,,,,,,,,,,,,,,,,,,,,,,,,,,,,,,"SYN07472259 32766 61718 10350 20189 39904 40102 56020 92053 333 91027 555 92021=","FM-12","4",,,,,,,,,,,,,,,,,,,,,,,,,,,,"2009-05-27"
"72259003927","2019-09-20T15:53:00","FM-15","7",,,,,,,,,,,,,,,,,,,,,,,,,,,,,,,,,,,,,,"29.87","66","94","0.00",,,,"40","29.84","SCT:04 65 BKN:07 250","29.23","10.00","75","170","26","21",,,,,,,,,,,,,,,,,,,,,,,,,,,,,,,,,,,,,"MET16009/20/19 15:53:02 METAR KDFW 202153Z 17018G23KT 10SM SCT065TCU BKN250 34/19 A2987 RMK AO2 PK WND 18027/2124 SLP105 CB DSNT NW-NE MOV NE TCU ALQDS T03440189 (AF)","FM-15","7",,,,,,,,,,,,,,,,,,,,,,,,,,,,"2009-05-27"
"72259003927","2019-09-20T16:53:00","FM-15","7",,,,,,,,,,,,,,,,,,,,,,,,,,,,,,,,,,,,,,"29.87","63","93","0.00",,,,"37","29.84","SCT:04 75 SCT:04 120 BKN:07 250","29.23","10.00","73","180","24","15",,,,,,,,,,,,,,,,,,,,,,,,,,,,,,,,,,,,,"MET13609/20/19 16:53:02 METAR KDFW 202253Z 18013G21KT 10SM SCT075 SCT120 BKN250 34/17 A2987 RMK AO2 SLP105 CB DSNT NW-NE MOV NE T03390172 (AF)","FM-15","7",,,,,,,,,,,,,,,,,,,,,,,,,,,,"2009-05-27"
"72259003927","2019-09-20T17:53:00","FM-15","7",,,,,,,,,,,,,,,,,,,,,,,,,,,,,,,,,,,,,,"29.90","69","89","0.00",,"-0.04","3","52","29.87","SCT:04 75 SCT:04 100 BKN:07 250","29.26","10.00","75","140","29","23",,,,,,,,,,,,,,,,,,,,,,,,,,,,,,,,,,,,,"MET16409/20/19 17:53:02 METAR KDFW 202353Z 14020G25KT 10SM SCT075 SCT100 BKN250 32/21 A2990 RMK AO2 SLP115 CB DSNT NW-NE MOV N TCU DSNT S T03170206 10356 20317 53013 (AF)","FM-15","7",,,,,,,,,,,,,,,,,,,,,,,,,,,,"2009-05-27"
"72259003927","2019-09-20T18:00:00","FM-12","4",,,,,,,,,,,,,,,,,,,,,,,,,,,,,,,,,,,,,,,"69","89",,,"-0.04","3","52","29.87","74","29.29","9.94","75","140",,"23",,,,,,,,,,,,,,,,,,,,,,,,,,,,,,,,,,,,,"SYN08672259 32866 61420 10317 20206 39918 40115 53013 92353 333 10356 20239 91025 555 92100=","FM-12","4",,,,,,,,,,,,,,,,,,,,,,,,,,,,"2009-05-27"
"72259003927","2019-09-20T18:53:00","FM-15","7",,,,,,,,,,,,,,,,,,,,,,,,,,,,,,,,,,,,,,"29.93","70","85","0.00",,,,"61","29.90","FEW:02 75 FEW:02 100","29.29","10.00","75","140","28","17",,,,,,,,,,,,,,,,,,,,,,,,,,,,,,,,,,,,,"MET15509/20/19 18:53:01 METAR KDFW 210053Z 14015G24KT 10SM FEW075TCU FEW100 SCT 29/21 A2993 RMK AO2 PK WND 15027/0023 SLP125 CB DSNT NW-NE MOV N TCU SW T02940211","FM-15","7",,,,,,,,,,,,,,,,,,,,,,,,,,,,"2009-05-27"
"72259003927","2019-09-20T19:53:00","FM-15","7",,,,,,,,,,,,,,,,,,,,,,,,,,,,,,,,,,,,,,"29.94","70","84","0.00",,,,"63","29.91","SCT:04 120 BKN:07 250","29.30","10.00","74","140",,"17",,,,,,,,,,,,,,,,,,,,,,,,,,,,,,,,,,,,,"MET10009/20/19 19:53:01 METAR KDFW 210153Z 14015KT 10SM SCT120 BKN250 29/21 A2994 RMK AO2 SLP129 T02890211","FM-15","7",,,,,,,,,,,,,,,,,,,,,,,,,,,,"2009-05-27"
"72259003927","2019-09-20T20:53:00","FM-15","7",,,,,,,,,,,,,,,,,,,,,,,,,,,,,,,,,,,,,,"29.97","71","83","0.00",,"-0.07","3","67","29.95","FEW:02 60 FEW:02 120 BKN:07 250","29.33","10.00","75","150","30","20",,,,,,,,,,,,,,,,,,,,,,,,,,,,,,,,,,,,,"MET13409/20/19 20:53:01 METAR KDFW 210253Z 15017G26KT 10SM FEW060 FEW120 BKN250 28/22 A2997 RMK AO2 PK WND 15028/0236 SLP141 T02830217 53025","FM-15","7",,,,,,,,,,,,,,,,,,,,,,,,,,,,"2009-05-27"
"72259003927","2019-09-20T21:00:00","FM-12","4",,,,,,,,,,,,,,,,,,,,,,,,,,,,,,,,,,,,,,,"71","83",,,"-0.07","3","67","29.95","57","29.36","9.94","75","150",,"20",,,,,,,,,,,,,,,,,,,,,,,,,,,,,,,,,,,,,"SYN07472259 32766 61517 10283 20217 39941 40141 53025 90253 333 91026 555 92103=","FM-12","4",,,,,,,,,,,,,,,,,,,,,,,,,,,,"2009-05-27"
"72259003927","2019-09-20T21:53:00","FM-15","7",,,,,,,,,,,,,,,,,,,,,,,,,,,,,,,,,,,,,,"30.00","69","82","0.00",,,,"65","29.97","FEW:02 120 BKN:07 250","29.36","10.00","73","160","29","16",,,,,,,,,,,,,,,,,,,,,,,,,,,,,,,,,,,,,"MET12109/20/19 21:53:02 METAR KDFW 210353Z 16014G25KT 10SM FEW120 BKN250 28/21 A3000 RMK AO2 PK WND 16027/0259 SLP148 T02780206","FM-15","7",,,,,,,,,,,,,,,,,,,,,,,,,,,,"2009-05-27"
"72259003927","2019-09-20T22:53:00","FM-15","7",,,,,,,,,,,,,,,,,,,,,,,,,,,,,,,,,,,,,,"30.00","69","81","0.00",,,,"67","29.97","FEW:02 120 BKN:07 250","29.36","10.00","73","170",,"17",,,,,,,,,,,,,,,,,,,,,,,,,,,,,,,,,,,,,"MET11809/20/19 22:53:02 METAR KDFW 210453Z 17015KT 10SM FEW120 BKN250 27/21 A3000 RMK AO2 PK WND 17027/0414 SLP150 T02720206","FM-15","7",,,,,,,,,,,,,,,,,,,,,,,,,,,,"2009-05-27"
"72259003927","2019-09-20T23:53:00","FM-15","7",,,,,,,,,,,,,,,,,,,,,,,,,,,,,,,,,,,,,,"30.00","69","80","0.00",,"-0.03","1","69","29.97","FEW:02 29 BKN:07 300","29.36","10.00","73","170","24","18",,,,,,,,,,,,,,,,,,,,,,,,,,,,,,,,,,,,,"MET13109/20/19 23:53:02 METAR KDFW 210553Z 17016G21KT 10SM FEW029 BKN300 27/21 A3000 RMK AO2 SLP150 T02670206 10317 20267 403560239 51009","FM-15","7",,,,,,,,,,,,,,,,,,,,,,,,,,,,"2009-05-27"
"72259003927","2019-09-20T23:59:00","SOD  ","6",,,,,,,,,,,,,,,,"86",,,"29.29",,"15.4","21","9.3","0","96","75","190","33","T","0","0.0","190","28",,,,,,,,,,,,,,,,,,,,,,,,,,,,,,,,,,,,,,,,,,,,,,,,,,,,,,,,,"SOD73924 HR PRECIPITATION (IN):    T SNOW DEPTH (IN):0     24 HR SNOWFALL (IN):0.0  24 HR MAX TEMP (F): 9624 HR MIN TEMP (F): 75AVERAGE STATION PRESSURE:29.290 MINIMUM SEA LEVEL PRESSURE:29.82 TIME OF OCCURRENCE:1438 PEAK WIND SPEED (MPH): 33 PEAK WIND DIR (DEG):190 PEAK WIND TIME (LST):      FASTEST 2MIN SPEED (MPH): 28FASTEST 2MIN DIR (DEG):190 FASTEST 2MIN TIME (LST):     AVERAGE WIND SPEED (MPH):15.4 24 HR AVG TEMP (F): 86DEPART FROM NORMAL: 10  HEATING DEGREE DAYS:  0 COOLING DEGREE DAYS: 21 LATEST DAY MAX TEMP (0700-1900 LST):96  LATEST NIGHT MIN TEMP(1900-0800 LST):74 HOURLY INCREMENTAL PRECIPITATION VALUES (IN):    0.00 0.00 0.00 0.00 0.00 0.00 0.00 0.00 0.00 0.00 0.00 0.00 0.00 0.00 0.00 0.00 0.00 0.00 0.00 0.00 0.00 0.00 0.00","SOD  ","6",,,,,,,,,,,,,,,,,,,,,,,,,"0615","1828",,"2009-05-27"
"72259003927","2019-09-21T00:00:00","FM-12","4",,,,,,,,,,,,,,,,,,,,,,,,,,,,,,,,,,,,,,,"69","80",,,"-0.03","1","69","29.97","26","29.39","9.94","73","170",,"18",,,,,,,,,,,,,,,,,,,,,,,,,,,,,,,,,,,,,"SYN08672259 32566 61716 10267 20206 39951 40150 51009 90553 333 10317 20239 91021 555 92106=","FM-12","4",,,,,,,,,,,,,,,,,,,,,,,,,,,,"2009-05-27"
"72259003927","2019-09-21T00:53:00","FM-15","6",,,,,,,,,,,,,,,,,,,,,,,,,,,,,,,,,,,,,,"30.00","69","78","0.00",,,,"74","29.97","FEW:02 29 BKN:07 300","29.36","10.00","72","170","23","16",,,,,,,,,,,,,,,,,,,,,,,,,,,,,,,,,,,,,"MET11009/21/19 00:53:02 METAR KDFW 210653Z 17014G20KT 10SM FEW029 BKN300 26/21 A3000 RMK AO2 SLP150 T02560206 $ (PO)","FM-15","6",,,,,,,,,,,,,,,,,,,,,,,,,,,,"2009-05-27"
"72259003927","2019-09-21T01:40:00","FM-16","6",,,,,,,,,,,,,,,,,,,,,,,,,,,,,,,,,,,,,,"30.00","70","78",,,,,"76",,"BKN:07 19 OVC:08 300","29.36","10.00","73","170",,"15",,,,,,,,,,,,,,,,,,,,,,,,,,,,,,,,,,,,,"MET10009/21/19 01:40:02 SPECI KDFW 210740Z 17013KT 10SM BKN019 OVC300 26/21 A3000 RMK AO2 T02560211 $ (PO)","FM-16","6",,,,,,,,,,,,,,,,,,,,,,,,,,,,"2009-05-27"
"72259003927","2019-09-21T01:53:00","FM-15","6",,,,,,,,,,,,,,,,,,,,,,,,,,,,,,,,,,,,,,"29.99","70","77","0.00",,,,"79","29.96","BKN:07 19 OVC:08 300","29.35","10.00","72","170",,"16",,,,,,,,,,,,,,,,,,,,,,,,,,,,,,,,,,,,,"MET10709/21/19 01:53:02 METAR KDFW 210753Z 17014KT 10SM BKN019 OVC300 25/21 A2999 RMK AO2 SLP147 T02500211 $ (PO)","FM-15","6",,,,,,,,,,,,,,,,,,,,,,,,,,,,"2009-05-27"
"72259003927","2019-09-21T02:53:00","FM-15","6",,,,,,,,,,,,,,,,,,,,,,,,,,,,,,,,,,,,,,"30.00","71","78","0.00",,,,"79","29.96","BKN:07 19 BKN:07 26 OVC:08 300","29.36","10.00","73","160","25","15",,,,,,,,,,,,,,,,,,,,,,,,,,,,,,,,,,,,,"MET11709/21/19 02:53:02 METAR KDFW 210853Z 16013G22KT 10SM BKN019 BKN026 OVC300 26/22 A3000 RMK AO2 SLP147 T02560217 $ (PO)","FM-15","6",,,,,,,,,,,,,,,,,,,,,,,,,,,,"2009-05-27"
"72259003927","2019-09-21T03:53:00","FM-15","6",,,,,,,,,,,,,,,,,,,,,,,,,,,,,,,,,,,,,,"30.01","71","78","0.00",,,,"79","29.98","BKN:07 20 BKN:07 31 OVC:08 300","29.37","10.00","73","170",,"14",,,,,,,,,,,,,,,,,,,,,,,,,,,,,,,,,,,,,"MET11409/21/19 03:53:02 METAR KDFW 210953Z 17012KT 10SM BKN020 BKN031 OVC300 26/22 A3001 RMK AO2 SLP152 T02560217 $ (PO)","FM-15","6",,,,,,,,,,,,,,,,,,,,,,,,,,,,"2009-05-27"
"72259003927","2019-09-21T04:39:00","FM-16","6",,,,,,,,,,,,,,,,,,,,,,,,,,,,,,,,,,,,,,"30.02","71","77",,,,,"82",,"FEW:02 20 SCT:04 31 SCT:04 300","29.38","10.00","73","170",,"15",,,,,,,,,,,,,,,,,,,,,,,,,,,,,,,,,,,,,"MET10709/21/19 04:39:02 SPECI KDFW 211039Z 17013KT 10SM FEW020 SCT031 SCT300 25/22 A3002 RMK AO2 T02500217 $ (PO)","FM-16","6",,,,,,,,,,,,,,,,,,,,,,,,,,,,"2009-05-27"
"72259003927","2019-09-21T04:53:00","FM-15","6",,,,,,,,,,,,,,,,,,,,,,,,,,,,,,,,,,,,,,"30.02","71","77","0.00",,,,"82","29.99","FEW:02 20 SCT:04 31 SCT:04 300","29.38","10.00","73","180",,"15",,,,,,,,,,,,,,,,,,,,,,,,,,,,,,,,,,,,,"MET11409/21/19 04:53:02 METAR KDFW 211053Z 18013KT 10SM FEW020 SCT031 SCT300 25/22 A3002 RMK AO2 SLP157 T02500217 $ (PO)","FM-15","6",,,,,,,,,,,,,,,,,,,,,,,,,,,,"2009-05-27"
"72259003927","2019-09-21T05:53:00","FM-15","7",,,,,,,,,,,,,,,,,,,,,,,,,,,,,,,,,,,,,,"30.03","71","77","0.00",,"-0.03","1","82","30.00","FEW:02 20 SCT:04 300","29.39","10.00","73","170",,"15",,,,,,,,,,,,,,,,,,,,,,,,,,,,,,,,,,,,,"MET12509/21/19 05:53:02 METAR KDFW 211153Z 17013KT 10SM FEW020 SCT300 25/22 A3003 RMK AO2 SLP159 T02500217 10261 20250 51011 $ (PO)","FM-15","7",,,,,,,,,,,,,,,,,,,,,,,,,,,,"2009-05-27"
"72259003927","2019-09-21T06:00:00","FM-12","4",,,,,,,,,,,,,,,,,,,,,,,,,,,,,,,,,,,,,,,"71","77",,,"-0.03","1","82","30.00","26","29.41","9.94","73","170",,"15",,,,,,,,,,,,,,,,,,,,,,,,,,,,,,,,,,,,,"SYN08072259 32566 41713 10250 20217 39961 40159 51011 91153 333 10356 20250 555 92112=","FM-12","4",,,,,,,,,,,,,,,,,,,,,,,,,,,,"2009-05-27"
"72259003927","2019-09-21T06:43:00","FM-16","7",,,,,,,,,,,,,,,,,,,,,,,,,,,,,,,,,,,,,,"30.04","72","77",,,,,"85",,"BKN:07 16 BKN:07 21","29.40","10.00","74","170",,"10",,,,,,,,,,,,,,,,,,,,,,,,,,,,,,,,,,,,,"MET10009/21/19 06:43:02 SPECI KDFW 211243Z 17009KT 10SM BKN016 BKN021 25/22 A3004 RMK AO2 T02500222 $ (AF)","FM-16","7",,,,,,,,,,,,,,,,,,,,,,,,,,,,"2009-05-27"
"72259003927","2019-09-21T06:53:00","FM-15","7",,,,,,,,,,,,,,,,,,,,,,,,,,,,,,,,,,,,,,"30.04","72","78","0.00",,,,"82","30.01","BKN:07 16 BKN:07 21 BKN:07 250","29.40","10.00","74","160",,"10",,,,,,,,,,,,,,,,,,,,,,,,,,,,,,,,,,,,,"MET11409/21/19 06:53:02 METAR KDFW 211253Z 16009KT 10SM BKN016 BKN021 BKN250 26/22 A3004 RMK AO2 SLP164 T02560222 $ (AF)","FM-15","7",,,,,,,,,,,,,,,,,,,,,,,,,,,,"2009-05-27"
"72259003927","2019-09-21T07:53:00","FM-15","7",,,,,,,,,,,,,,,,,,,,,,,,,,,,,,,,,,,,,,"30.06","72","79","0.00",,,,"79","30.03","SCT:04 16 BKN:07 26 BKN:07 250","29.42","10.00","74","170",,"13",,,,,,,,,,,,,,,,,,,,,,,,,,,,,,,,,,,,,"MET11409/21/19 07:53:02 METAR KDFW 211353Z 17011KT 10SM SCT016 BKN026 BKN250 26/22 A3006 RMK AO2 SLP169 T02610222 $ (AF)","FM-15","7",,,,,,,,,,,,,,,,,,,,,,,,,,,,"2009-05-27"
"72259003927","2019-09-21T08:53:00","FM-15","7",,,,,,,,,,,,,,,,,,,,,,,,,,,,,,,,,,,,,,"30.06","72","81","0.00",,"-0.04","1","74","30.03","BKN:07 19 BKN:07 31 BKN:07 250","29.42","10.00","75","160",,"16",,,,,,,,,,,,,,,,,,,,,,,,,,,,,,,,,,,,,"MET12009/21/19 08:53:02 METAR KDFW 211453Z 16014KT 10SM BKN019 BKN031 BKN250 27/22 A3006 RMK AO2 SLP171 T02720222 51012 $ (AF)","FM-15","7",,,,,,,,,,,,,,,,,,,,,,,,,,,,"2009-05-27"
"72259003927","2019-09-21T09:00:00","FM-12","4",,,,,,,,,,,,,,,,,,,,,,,,,,,,,,,,,,,,,,,"72","81",,,"-0.04","1","74","30.03","15","29.44","9.94","75","160",,"16",,,,,,,,,,,,,,,,,,,,,,,,,,,,,,,,,,,,,"SYN06472259 32466 61614 10272 20222 39971 40171 51012 91453 555 92115=","FM-12","4",,,,,,,,,,,,,,,,,,,,,,,,,,,,"2009-05-27"
"72259003927","2019-09-21T09:53:00","FM-15","7",,,,,,,,,,,,,,,,,,,,,,,,,,,,,,,,,,,,,,"30.07","71","82","0.00",,,,"69","30.04","SCT:04 22 BKN:07 29 BKN:07 250","29.43","10.00","74","170","21","17",,,,,,,,,,,,,,,,,,,,,,,,,,,,,,,,,,,,,"MET11709/21/19 09:53:02 METAR KDFW 211553Z 17015G18KT 10SM SCT022 BKN029 BKN250 28/22 A3007 RMK AO2 SLP173 T02780217 $ (AF)","FM-15","7",,,,,,,,,,,,,,,,,,,,,,,,,,,,"2009-05-27"
"72259003927","2019-09-21T10:53:00","FM-15","7",,,,,,,,,,,,,,,,,,,,,,,,,,,,,,,,,,,,,,"30.06","71","86","0.00",,,,"61","30.03","SCT:04 30 BKN:07 50 BKN:07 250","29.42","10.00","76","170","24","14",,,,,,,,,,,,,,,,,,,,,,,,,,,,,,,,,,,,,"MET11709/21/19 10:53:02 METAR KDFW 211653Z 17012G21KT 10SM SCT030 BKN050 BKN250 30/22 A3006 RMK AO2 SLP169 T03000217 $ (AF)","FM-15","7",,,,,,,,,,,,,,,,,,,,,,,,,,,,"2009-05-27"
"72259003927","2019-09-21T11:53:00","FM-15","7",,,,,,,,,,,,,,,,,,,,,,,,,,,,,,,,,,,,,,"30.04","70","88","0.00",,"+0.03","8","55","30.01","SCT:04 38 SCT:04 50","29.40","10.00","76","160",,"14",,,,,,,,,,,,,,,,,,,,,,,,,,,,,,,,,,,,,"MET12509/21/19 11:53:02 METAR KDFW 211753Z 16012KT 10SM SCT038 SCT050 31/21 A3004 RMK AO2 SLP162 T03110211 10317 20250 58009 $ (AF)","FM-15","7",,,,,,,,,,,,,,,,,,,,,,,,,,,,"2009-05-27"
"72259003927","2019-09-21T12:00:00","FM-12","4",,,,,,,,,,,,,,,,,,,,,,,,,,,,,,,,,,,,,,,"70","88",,,"+0.03","8","55","30.01","41","29.42","9.94","76","160",,"14",,,,,,,,,,,,,,,,,,,,,,,,,,,,,,,,,,,,,"SYN08072259 32666 41612 10311 20211 39964 40162 58009 91753 333 10317 20250 555 92118=","FM-12","4",,,,,,,,,,,,,,,,,,,,,,,,,,,,"2009-05-27"
"72259003927","2019-09-21T12:53:00","FM-15","7",,,,,,,,,,,,,,,,,,,,,,,,,,,,,,,,,,,,,,"30.01","69","90","0.00",,,,"50","29.98","SCT:04 41 BKN:07 50 BKN:07 250","29.37","10.00","75","170","25","17",,,,,,,,,,,,,,,,,,,,,,,,,,,,,,,,,,,,,"MET13009/21/19 12:53:02 METAR KDFW 211853Z 17015G22KT 10SM SCT041 BKN050 BKN250 32/21 A3001 RMK AO2 SLP152 MDT CU ALQDS T03220206 $ (AF)","FM-15","7",,,,,,,,,,,,,,,,,,,,,,,,,,,,"2009-05-27"
"72259003927","2019-09-21T13:53:00","FM-15","7",,,,,,,,,,,,,,,,,,,,,,,,,,,,,,,,,,,,,,"29.98","68","93","0.00",,,,"44","29.95","BKN:07 50 BKN:07 150","29.34","10.00","76","180","23","18",,,,,,,,,,,,,,,,,,,,,,,,,,,,,,,,,,,,,"MET11009/21/19 13:53:02 METAR KDFW 211953Z 18016G20KT 10SM BKN050 BKN150 34/20 A2998 RMK AO2 SLP143 T03390200 $ (AF)","FM-15","7",,,,,,,,,,,,,,,,,,,,,,,,,,,,"2009-05-27"
"72259003927","2019-09-21T14:53:00","FM-15","7",,,,,,,,,,,,,,,,,,,,,,,,,,,,,,,,,,,,,,"29.95","67","93","0.00",,"+0.09","6","42","29.92","SCT:04 55 BKN:07 70 BKN:07 250","29.31","10.00","75","150",,"16",,,,,,,,,,,,,,,,,,,,,,,,,,,,,,,,,,,,,"MET12009/21/19 14:53:02 METAR KDFW 212053Z 15014KT 10SM SCT055 BKN070 BKN250 34/19 A2995 RMK AO2 SLP133 T03390194 56029 $ (GR)","FM-15","7",,,,,,,,,,,,,,,,,,,,,,,,,,,,"2009-05-27"
"72259003927","2019-09-21T15:00:00","FM-12","4",,,,,,,,,,,,,,,,,,,,,,,,,,,,,,,,,,,,,,,"67","93",,,"+0.09","6","42","29.92","57","29.34","9.94","75","150",,"16",,,,,,,,,,,,,,,,,,,,,,,,,,,,,,,,,,,,,"SYN06472259 32766 61514 10339 20194 39934 40133 56029 92053 555 92121=","FM-12","4",,,,,,,,,,,,,,,,,,,,,,,,,,,,"2009-05-27"
"72259003927","2019-09-21T15:53:00","FM-15","7",,,,,,,,,,,,,,,,,,,,,,,,,,,,,,,,,,,,,,"29.93","67","93","0.00",,,,"42","29.90","SCT:04 60 BKN:07 75 BKN:07 250","29.29","10.00","75","160","24","21",,,,,,,,,,,,,,,,,,,,,,,,,,,,,,,,,,,,,"MET11709/21/19 15:53:02 METAR KDFW 212153Z 16018G21KT 10SM SCT060 BKN075 BKN250 34/19 A2993 RMK AO2 SLP126 T03390194 $ (GR)","FM-15","7",,,,,,,,,,,,,,,,,,,,,,,,,,,,"2009-05-27"
"72259003927","2019-09-21T16:53:00","FM-15","7",,,,,,,,,,,,,,,,,,,,,,,,,,,,,,,,,,,,,,"29.93","66","91","0.00",,,,"44","29.90","FEW:02 60 FEW:02 250","29.29","10.00","74","150","26","17",,,,,,,,,,,,,,,,,,,,,,,,,,,,,,,,,,,,,"MET11009/21/19 16:53:02 METAR KDFW 212253Z 15015G23KT 10SM FEW060 FEW250 33/19 A2993 RMK AO2 SLP124 T03280189 $ (GR)","FM-15","7",,,,,,,,,,,,,,,,,,,,,,,,,,,,"2009-05-27"
"72259003927","2019-09-21T17:53:00","FM-15","7",,,,,,,,,,,,,,,,,,,,,,,,,,,,,,,,,,,,,,"29.92","64","90","0.00",,"+0.03","6","42","29.89","FEW:02 60","29.28","10.00","73","150","25","20",,,,,,,,,,,,,,,,,,,,,,,,,,,,,,,,,,,,,"MET12109/21/19 17:53:02 METAR KDFW 212353Z 15017G22KT 10SM FEW060 32/18 A2992 RMK AO2 SLP122 T03220178 10344 20311 56010 $ (GR)","FM-15","7",,,,,,,,,,,,,,,,,,,,,,,,,,,,"2009-05-27"
"72259003927","2019-09-21T18:00:00","FM-12","4",,,,,,,,,,,,,,,,,,,,,,,,,,,,,,,,,,,,,,,"64","90",,,"+0.03","6","42","29.89","57","29.31","9.94","73","150",,"20",,,,,,,,,,,,,,,,,,,,,,,,,,,,,,,,,,,,,"SYN08672259 32766 21517 10322 20178 39924 40122 56010 92353 333 10344 20250 91022 555 92200=","FM-12","4",,,,,,,,,,,,,,,,,,,,,,,,,,,,"2009-05-27"
"72259003927","2019-09-21T18:53:00","FM-15","7",,,,,,,,,,,,,,,,,,,,,,,,,,,,,,,,,,,,,,"29.93","67","87","0.00",,,,"51","29.91","FEW:02 60","29.29","10.00","73","140",,"15",,,,,,,,,,,,,,,,,,,,,,,,,,,,,,,,,,,,,"MET09509/21/19 18:53:01 METAR KDFW 220053Z 14013KT 10SM FEW060 31/19 A2993 RMK AO2 SLP127 T03060194 $","FM-15","7",,,,,,,,,,,,,,,,,,,,,,,,,,,,"2009-05-27"
"72259003927","2019-09-21T19:53:00","FM-15","7",,,,,,,,,,,,,,,,,,,,,,,,,,,,,,,,,,,,,,"29.95","68","86","0.00",,,,"55","29.92","FEW:02 60","29.31","10.00","74","140","25","17",,,,,,,,,,,,,,,,,,,,,,,,,,,,,,,,,,,,,"MET09809/21/19 19:53:01 METAR KDFW 220153Z 14015G22KT 10SM FEW060 30/20 A2995 RMK AO2 SLP132 T03000200 $","FM-15","7",,,,,,,,,,,,,,,,,,,,,,,,,,,,"2009-05-27"
"72259003927","2019-09-21T20:53:00","FM-15","7",,,,,,,,,,,,,,,,,,,,,,,,,,,,,,,,,,,,,,"29.96","67","84","0.00",,"-0.04","1","57","29.93","FEW:02 60","29.32","10.00","73","150","26","22",,,,,,,,,,,,,,,,,,,,,,,,,,,,,,,,,,,,,"MET10409/21/19 20:53:01 METAR KDFW 220253Z 15019G23KT 10SM FEW060 29/19 A2996 RMK AO2 SLP136 T02890194 51013 $","FM-15","7",,,,,,,,,,,,,,,,,,,,,,,,,,,,"2009-05-27"
"72259003927","2019-09-21T21:00:00","FM-12","4",,,,,,,,,,,,,,,,,,,,,,,,,,,,,,,,,,,,,,,"67","84",,,"-0.04","1","57","29.93","57","29.35","9.94","73","150",,"22",,,,,,,,,,,,,,,,,,,,,,,,,,,,,,,,,,,,,"SYN07472259 32766 21519 10289 20194 39938 40136 51013 90253 333 91023 555 92203=","FM-12","4",,,,,,,,,,,,,,,,,,,,,,,,,,,,"2009-05-27"
"72259003927","2019-09-21T21:53:00","FM-15","7",,,,,,,,,,,,,,,,,,,,,,,,,,,,,,,,,,,,,,"29.96","68","84","0.00",,,,"59","29.93","FEW:02 60","29.32","10.00","73","160","25","15",,,,,,,,,,,,,,,,,,,,,,,,,,,,,,,,,,,,,"MET09809/21/19 21:53:02 METAR KDFW 220353Z 16013G22KT 10SM FEW060 29/20 A2996 RMK AO2 SLP136 T02890200 $","FM-15","7",,,,,,,,,,,,,,,,,,,,,,,,,,,,"2009-05-27"
"72259003927","2019-09-21T22:53:00","FM-15","7",,,,,,,,,,,,,,,,,,,,,,,,,,,,,,,,,,,,,,"29.98","68","82","0.00",,,,"63","29.95","CLR:00","29.34","10.00","73","160","25","17",,,,,,,,,,,,,,,,,,,,,,,,,,,,,,,,,,,,,"MET09509/21/19 22:53:02 METAR KDFW 220453Z 16015G22KT 10SM CLR 28/20 A2998 RMK AO2 SLP141 T02780200 $","FM-15","7",,,,,,,,,,,,,,,,,,,,,,,,,,,,"2009-05-27"
"72259003927","2019-09-21T23:53:00","FM-15","7",,,,,,,,,,,,,,,,,,,,,,,,,,,,,,,,,,,,,,"29.97","69","81","0.00",,"-0.01","0","67","29.94","CLR:00","29.33","10.00","73","170","26","18",,,,,,,,,,,,,,,,,,,,,,,,,,,,,,,,,,,,,"MET12309/21/19 23:53:02 METAR KDFW 220553Z 17016G23KT 10SM CLR 27/21 A2997 RMK AO2 SLP139 T02720206 10322 20272 403440250 50003 $","FM-15","7",,,,,,,,,,,,,,,,,,,,,,,,,,,,"2009-05-27"
"72259003927","2019-09-21T23:59:00","SOD  ","6",,,,,,,,,,,,,,,,"86",,,"29.34",,"16.2","21","9.7","0","94","77","150","29","0.00","0","0.0","150","23",,,,,,,,,,,,,,,,,,,,,,,,,,,,,,,,,,,,,,,,,,,,,,,,,,,,,,,,,"SOD73924 HR PRECIPITATION (IN): 0.00 SNOW DEPTH (IN):0     24 HR SNOWFALL (IN):0.0  24 HR MAX TEMP (F): 9424 HR MIN TEMP (F): 77AVERAGE STATION PRESSURE:29.345 MINIMUM SEA LEVEL PRESSURE:29.89 TIME OF OCCURRENCE:1817 PEAK WIND SPEED (MPH): 29 PEAK WIND DIR (DEG):150 PEAK WIND TIME (LST):      FASTEST 2MIN SPEED (MPH): 23FASTEST 2MIN DIR (DEG):150 FASTEST 2MIN TIME (LST):     AVERAGE WIND SPEED (MPH):16.2 24 HR AVG TEMP (F): 86DEPART FROM NORMAL: 10  HEATING DEGREE DAYS:  0 COOLING DEGREE DAYS: 21 LATEST DAY MAX TEMP (0700-1900 LST):94  LATEST NIGHT MIN TEMP(1900-0800 LST):77 HOURLY INCREMENTAL PRECIPITATION VALUES (IN):.00 0.00 0.00 0.00 0.00 0.00 0.00 0.00 0.00 0.00 0.00 0.00 0.00 0.00 0.00 0.00 0.00 0.00 0.00 0.00 0.00 0.00 0.00 0.00","SOD  ","6",,,,,,,,,,,,,,,,,,,,,,,,,"0615","1826",,"2009-05-27"
"72259003927","2019-09-22T00:00:00","FM-12","4",,,,,,,,,,,,,,,,,,,,,,,,,,,,,,,,,,,,,,,"69","81",,,"0.01","9","67","29.94",,"29.36","9.94","73","170",,"18",,,,,,,,,,,,,,,,,,,,,,,,,,,,,,,,,,,,,"SYN08672259 32966 01716 10272 20206 39941 40139 50003 90553 333 10322 20250 91023 555 92206=","FM-12","4",,,,,,,,,,,,,,,,,,,,,,,,,,,,"2009-05-27"
"72259003927","2019-09-22T00:53:00","FM-15","7",,,,,,,,,,,,,,,,,,,,,,,,,,,,,,,,,,,,,,"29.97","69","80",,,,,"69","29.94","SCT:04 300","29.33","10.00","73","170",,"15",,,,,,,,,,,,,,,,,,,,,,,,,,,,,,,,,,,,,"MET09509/22/19 00:53:02 METAR KDFW 220653Z 17013KT 10SM SCT300 27/21 A2997 RMK AO2 SLP140 T02670206 $","FM-15","7",,,,,,,,,,,,,,,,,,,,,,,,,,,,"2009-05-27"
"72259003927","2019-09-22T01:53:00","FM-15","7",,,,,,,,,,,,,,,,,,,,,,,,,,,,,,,,,,,,,,"29.98","69","79",,,,,"72","29.96","FEW:02 50 FEW:02 300","29.34","10.00","72","170",,"14",,,,,,,,,,,,,,,,,,,,,,,,,,,,,,,,,,,,,"MET10209/22/19 01:53:02 METAR KDFW 220753Z 17012KT 10SM FEW050 FEW300 26/21 A2998 RMK AO2 SLP144 T02610206 $","FM-15","7",,,,,,,,,,,,,,,,,,,,,,,,,,,,"2009-05-27"
"72259003927","2019-09-22T02:53:00","FM-15","7",,,,,,,,,,,,,,,,,,,,,,,,,,,,,,,,,,,,,,"29.98","69","78",,,"-0.01","0","74","29.95","FEW:02 25 FEW:02 300","29.34","10.00","72","180",,"11",,,,,,,,,,,,,,,,,,,,,,,,,,,,,,,,,,,,,"MET10809/22/19 02:53:02 METAR KDFW 220853Z 18010KT 10SM FEW025 FEW300 26/21 A2998 RMK AO2 SLP143 T02560206 50004 $","FM-15","7",,,,,,,,,,,,,,,,,,,,,,,,,,,,"2009-05-27"
"72259003927","2019-09-22T03:00:00","FM-12","4",,,,,,,,,,,,,,,,,,,,,,,,,,,,,,,,,,,,,,,"69","78",,,"0.01","9","74","29.95","26","29.36","9.94","72","180",,"11",,,,,,,,,,,,,,,,,,,,,,,,,,,,,,,,,,,,,"SYN06472259 32566 21810 10256 20206 39944 40143 50004 90853 555 92209=","FM-12","4",,,,,,,,,,,,,,,,,,,,,,,,,,,,"2009-05-27"
"72259003927","2019-09-22T03:53:00","FM-15","7",,,,,,,,,,,,,,,,,,,,,,,,,,,,,,,,,,,,,,"29.98","69","77",,,,,"77","29.95","FEW:02 25 FEW:02 300","29.34","10.00","72","170",,"15",,,,,,,,,,,,,,,,,,,,,,,,,,,,,,,,,,,,,"MET10209/22/19 03:53:02 METAR KDFW 220953Z 17013KT 10SM FEW025 FEW300 25/21 A2998 RMK AO2 SLP143 T02500206 $","FM-15","7",,,,,,,,,,,,,,,,,,,,,,,,,,,,"2009-05-27"
"72259003927","2019-09-22T04:53:00","FM-15","7",,,,,,,,,,,,,,,,,,,,,,,,,,,,,,,,,,,,,,"29.98","69","77",,,,,"77","29.95","SCT:04 20 SCT:04 300","29.34","10.00","72","180","28","15",,,,,,,,,,,,,,,,,,,,,,,,,,,,,,,,,,,,,"MET10509/22/19 04:53:02 METAR KDFW 221053Z 18013G24KT 10SM SCT020 SCT300 25/21 A2998 RMK AO2 SLP143 T02500206 $","FM-15","7",,,,,,,,,,,,,,,,,,,,,,,,,,,,"2009-05-27"
"72259003927","2019-09-22T05:53:00","FM-15","7",,,,,,,,,,,,,,,,,,,,,,,,,,,,,,,,,,,,,,"29.99","70","76",,,"-0.01","3","82","29.96","FEW:02 18 SCT:04 300","29.35","10.00","72","190","24","15",,,,,,,,,,,,,,,,,,,,,,,,,,,,,,,,,,,,,"MET12309/22/19 05:53:02 METAR KDFW 221153Z 19013G21KT 10SM FEW018 SCT300 24/21 A2999 RMK AO2 SLP147 T02440211 10272 20244 53004 $","FM-15","7",,,,,,,,,,,,,,,,,,,,,,,,,,,,"2009-05-27"
"72259003927","2019-09-22T06:00:00","FM-12","4",,,,,,,,,,,,,,,,,,,,,,,,,,,,,,,,,,,,,,,"70","76",,,"-0.01","3","82","29.96","15","29.38","9.94","72","190",,"15",,,,,,,,,,,,,,,,,,,,,,,,,,,,,,,,,,,,,"SYN08672259 32466 41913 10244 20211 39948 40147 53004 91153 333 10344 20244 91021 555 92212=","FM-12","4",,,,,,,,,,,,,,,,,,,,,,,,,,,,"2009-05-27"
"72259003927","2019-09-22T06:53:00","FM-15","7",,,,,,,,,,,,,,,,,,,,,,,,,,,,,,,,,,,,,,"30.00","70","76",,,,,"82","29.97","FEW:02 18 SCT:04 300","29.36","10.00","72","180",,"15",,,,,,,,,,,,,,,,,,,,,,,,,,,,,,,,,,,,,"MET10209/22/19 06:53:02 METAR KDFW 221253Z 18013KT 10SM FEW018 SCT300 24/21 A3000 RMK AO2 SLP148 T02440211 $","FM-15","7",,,,,,,,,,,,,,,,,,,,,,,,,,,,"2009-05-27"
"72259003927","2019-09-22T07:53:00","FM-15","7",,,,,,,,,,,,,,,,,,,,,,,,,,,,,,,,,,,,,,"30.00","71","80",,,,,"74","29.97","FEW:02 16 BKN:07 300","29.36","10.00","74","180",,"15",,,,,,,,,,,,,,,,,,,,,,,,,,,,,,,,,,,,,"MET10209/22/19 07:53:02 METAR KDFW 221353Z 18013KT 10SM FEW016 BKN300 27/22 A3000 RMK AO2 SLP149 T02670217 $","FM-15","7",,,,,,,,,,,,,,,,,,,,,,,,,,,,"2009-05-27"
"72259003927","2019-09-22T08:53:00","FM-15","7",,,,,,,,,,,,,,,,,,,,,,,,,,,,,,,,,,,,,,"30.00","70","82",,,"-0.00","1","67","29.97","SCT:04 19 BKN:07 300","29.36","10.00","74","200",,"23",,,,,,,,,,,,,,,,,,,,,,,,,,,,,,,,,,,,,"MET10809/22/19 08:53:02 METAR KDFW 221453Z 20020KT 10SM SCT019 BKN300 28/21 A3000 RMK AO2 SLP149 T02780211 51001 $","FM-15","7",,,,,,,,,,,,,,,,,,,,,,,,,,,,"2009-05-27"
"72259003927","2019-09-22T09:00:00","FM-12","4",,,,,,,,,,,,,,,,,,,,,,,,,,,,,,,,,,,,,,,"70","82",,,"-0.00","1","67","29.97","15","29.39","9.94","74","200",,"23",,,,,,,,,,,,,,,,,,,,,,,,,,,,,,,,,,,,,"SYN06472259 32466 62020 10278 20211 39951 40149 51001 91453 555 92215=","FM-12","4",,,,,,,,,,,,,,,,,,,,,,,,,,,,"2009-05-27"
"72259003927","2019-09-22T09:53:00","FM-15","7",,,,,,,,,,,,,,,,,,,,,,,,,,,,,,,,,,,,,,"30.00","69","85",,,,,"59","29.97","SCT:04 29 BKN:07 300","29.36","10.00","74","180","29","22",,,,,,,,,,,,,,,,,,,,,,,,,,,,,,,,,,,,,"MET12309/22/19 09:53:02 METAR KDFW 221553Z 18019G25KT 10SM SCT029 BKN300 29/21 A3000 RMK AO2 PK WND 20026/1454 SLP149 T02940206 $","FM-15","7",,,,,,,,,,,,,,,,,,,,,,,,,,,,"2009-05-27"
"72259003927","2019-09-22T10:53:00","FM-15","7",,,,,,,,,,,,,,,,,,,,,,,,,,,,,,,,,,,,,,"30.00","69","87",,,,,"55","29.97","BKN:07 39 BKN:07 46 BKN:07 300","29.36","10.00","75","200","24","17",,,,,,,,,,,,,,,,,,,,,,,,,,,,,,,,,,,,,"MET13009/22/19 10:53:02 METAR KDFW 221653Z 20015G21KT 10SM BKN039 BKN046 BKN300 31/21 A3000 RMK AO2 PK WND 19026/1607 SLP150 T03060206 $","FM-15","7",,,,,,,,,,,,,,,,,,,,,,,,,,,,"2009-05-27"
"72259003927","2019-09-22T11:53:00","FM-15","7",,,,,,,,,,,,,,,,,,,,,,,,,,,,,,,,,,,,,,"29.99","68","88",,,"+0.01","8","52","29.96","BKN:07 45 BKN:07 300","29.35","10.00","74","200",,"14",,,,,,,,,,,,,,,,,,,,,,,,,,,,,,,,,,,,,"MET12009/22/19 11:53:02 METAR KDFW 221753Z 20012KT 10SM BKN045 BKN300 31/20 A2999 RMK AO2 SLP144 T03110200 10317 20244 58004 $","FM-15","7",,,,,,,,,,,,,,,,,,,,,,,,,,,,"2009-05-27"
"72259003927","2019-09-22T12:00:00","FM-12","4",,,,,,,,,,,,,,,,,,,,,,,,,,,,,,,,,,,,,,,"68","88",,,"+0.01","8","52","29.96","41","29.38","9.94","74","200",,"14",,,,,,,,,,,,,,,,,,,,,,,,,,,,,,,,,,,,,"SYN08072259 32666 62012 10311 20200 39948 40144 58004 91753 333 10317 20244 555 92218=","FM-12","4",,,,,,,,,,,,,,,,,,,,,,,,,,,,"2009-05-27"
"72259003927","2019-09-22T12:53:00","FM-15","7",,,,,,,,,,,,,,,,,,,,,,,,,,,,,,,,,,,,,,"29.95","69","90",,,,,"50","29.92","SCT:04 47 BKN:07 250 BKN:07 300","29.31","10.00","75","200","23","16",,,,,,,,,,,,,,,,,,,,,,,,,,,,,,,,,,,,,"MET11209/22/19 12:53:02 METAR KDFW 221853Z 20014G20KT 10SM SCT047 BKN250 BKN300 32/21 A2995 RMK AO2 SLP133 T03220206 $","FM-15","7",,,,,,,,,,,,,,,,,,,,,,,,,,,,"2009-05-27"
"72259003927","2019-09-22T13:53:00","FM-15","7",,,,,,,,,,,,,,,,,,,,,,,,,,,,,,,,,,,,,,"29.94","69","92",,,,,"47","29.91","SCT:04 46 BKN:07 250","29.30","10.00","76","190","24","15",,,,,,,,,,,,,,,,,,,,,,,,,,,,,,,,,,,,,"MET10509/22/19 13:53:02 METAR KDFW 221953Z 19013G21KT 10SM SCT046 BKN250 33/21 A2994 RMK AO2 SLP129 T03330206 $","FM-15","7",,,,,,,,,,,,,,,,,,,,,,,,,,,,"2009-05-27"
"72259003927","2019-09-22T14:53:00","FM-15","7",,,,,,,,,,,,,,,,,,,,,,,,,,,,,,,,,,,,,,"29.92","68","93",,,"+0.06","6","44","29.89","SCT:04 55 BKN:07 250 BKN:07 300","29.28","10.00","76","190",,"14",,,,,,,,,,,,,,,,,,,,,,,,,,,,,,,,,,,,,"MET11509/22/19 14:53:02 METAR KDFW 222053Z 19012KT 10SM SCT055 BKN250 BKN300 34/20 A2992 RMK AO2 SLP122 T03390200 56022 $","FM-15","7",,,,,,,,,,,,,,,,,,,,,,,,,,,,"2009-05-27"
"72259003927","2019-09-22T15:00:00","FM-12","4",,,,,,,,,,,,,,,,,,,,,,,,,,,,,,,,,,,,,,,"68","93",,,"+0.06","6","44","29.89","57","29.31","9.94","76","190",,"14",,,,,,,,,,,,,,,,,,,,,,,,,,,,,,,,,,,,,"SYN06472259 32766 61912 10339 20200 39924 40122 56022 92053 555 92221=","FM-12","4",,,,,,,,,,,,,,,,,,,,,,,,,,,,"2009-05-27"
"72259003927","2019-09-22T15:53:00","FM-15","6",,,,,,,,,,,,,,,,,,,,,,,,,,,,,,,,,,,,,,"29.90","67","93",,,,,"42","29.88","FEW:02 60 SCT:04 250 BKN:07 300","29.26","10.00","75","190",,"14",,,,,,,,,,,,,,,,,,,,,,,,,,,,,,,,,,,,,"MET12609/22/19 15:53:02 METAR KDFW 222153Z 19012KT 10SM FEW060 SCT250 BKN300 34/19 A2990 RMK AO2 SLP117 CB DSNT N MOV NE T03390194 $","FM-15","6",,,,,,,,,,,,,,,,,,,,,,,,,,,,"2009-05-27"
"72259003927","2019-09-22T16:53:00","FM-15","6",,,,,,,,,,,,,,,,,,,,,,,,,,,,,,,,,,,,,,"29.90","67","93",,,,,"42","29.87","FEW:02 60 SCT:04 100 SCT:04 250","29.26","10.00","75","160",,"13",,,,,,,,,,,,,,,,,,,,,,,,,,,,,,,,,,,,,"MET12909/22/19 16:53:02 METAR KDFW 222253Z 16011KT 10SM FEW060 SCT100 SCT250 34/19 A2990 RMK AO2 SLP116 CB DSNT NW-N MOV NE T03390194 $","FM-15","6",,,,,,,,,,,,,,,,,,,,,,,,,,,,"2009-05-27"
"72259003927","2019-09-22T17:53:00","FM-15","6",,,,,,,,,,,,,,,,,,,,,,,,,,,,,,,,,,,,,,"29.91","66","91",,,"+0.01","5","44","29.88","FEW:02 60 FEW:02 250 SCT:04 300","29.27","10.00","74","160",,"9",,,,,,,,,,,,,,,,,,,,,,,,,,,,,,,,,,,,,"MET14709/22/19 17:53:02 METAR KDFW 222353Z 16008KT 10SM FEW060 FEW250 SCT300 33/19 A2991 RMK AO2 SLP118 CB DSNT NW-N MOV NE T03280189 10339 20311 55004 $","FM-15","6",,,,,,,,,,,,,,,,,,,,,,,,,,,,"2009-05-27"
"72259003927","2019-09-22T18:53:00","FM-15","6",,,,,,,,,,,,,,,,,,,,,,,,,,,,,,,,,,,,,,"29.91","65","89",,,,,"45","29.88","FEW:02 75 SCT:04 250","29.27","10.00","73","150",,"10",,,,,,,,,,,,,,,,,,,,,,,,,,,,,,,,,,,,,"MET10209/22/19 18:53:01 METAR KDFW 230053Z 15009KT 10SM FEW075 SCT250 32/18 A2991 RMK AO2 SLP120 T03170183 $","FM-15","6",,,,,,,,,,,,,,,,,,,,,,,,,,,,"2009-05-27"
"72259003927","2019-09-22T19:53:00","FM-15","6",,,,,,,,,,,,,,,,,,,,,,,,,,,,,,,,,,,,,,"29.93","65","87",,,,,"48","29.90","FEW:02 75","29.29","10.00","72","150",,"10",,,,,,,,,,,,,,,,,,,,,,,,,,,,,,,,,,,,,"MET09509/22/19 19:53:01 METAR KDFW 230153Z 15009KT 10SM FEW075 31/18 A2993 RMK AO2 SLP126 T03060183 $","FM-15","6",,,,,,,,,,,,,,,,,,,,,,,,,,,,"2009-05-27"
"72259003927","2019-09-22T20:53:00","FM-15","6",,,,,,,,,,,,,,,,,,,,,,,,,,,,,,,,,,,,,,"29.95","65","86",,,"-0.04","3","49","29.92","FEW:02 75","29.31","10.00","72","150",,"10",,,,,,,,,,,,,,,,,,,,,,,,,,,,,,,,,,,,,"MET10109/22/19 20:53:01 METAR KDFW 230253Z 15009KT 10SM FEW075 30/18 A2995 RMK AO2 SLP131 T03000183 53013 $","FM-15","6",,,,,,,,,,,,,,,,,,,,,,,,,,,,"2009-05-27"
"72253012921","2019-09-17T00:00:00","FM-12","4",,,,,,,,,,,,,,,,,,,,,,,,,,,,,,,,,,,,,,,"67","78",,,"0.01","9","69","29.89","74","29.10","9.94","71","120",,"3",,,,,,,,,,,,,,,,,,,,,,,,,,,,,,,,,,,,,"SYN08072253 32866 21203 10256 20194 39853 40122 50002 90551 333 10344 20228 555 91706=","FM-12","4",,,,,,,,,,,,,,,,,,,,,,,,,,,,"2008-10-22"
"72253012921","2019-09-17T00:51:00","FM-15","7",,,,,,,,,,,,,,,,,,,,,,,,,,,,,,,,,,,,,,"29.96","67","79","0.00",,,,"67","29.90","FEW:02 75 FEW:02 250","29.09","10.00","71","070",,"6",,,,,,,,,,,,,,,,,,,,,,,,,,,,,,,,,,,,,"MET10609/17/19 00:51:02 METAR KSAT 170651Z 07005KT 10SM FEW075 FEW250 26/19 A2996 RMK AO2 SLP124 T02610194 (MBZ)","FM-15","7",,,,,,,,,,,,,,,,,,,,,,,,,,,,"2008-10-22"
"72253012921","2019-09-17T01:51:00","FM-15","7",,,,,,,,,,,,,,,,,,,,,,,,,,,,,,,,,,,,,,"29.96","67","77","0.00",,,,"71","29.90","FEW:02 70 FEW:02 250","29.09","10.00","70","070",,"5",,,,,,,,,,,,,,,,,,,,,,,,,,,,,,,,,,,,,"MET10609/17/19 01:51:02 METAR KSAT 170751Z 07004KT 10SM FEW070 FEW250 25/19 A2996 RMK AO2 SLP125 T02500194 (MBZ)","FM-15","7",,,,,,,,,,,,,,,,,,,,,,,,,,,,"2008-10-22"
"72253012921","2019-09-17T02:51:00","FM-15","7",,,,,,,,,,,,,,,,,,,,,,,,,,,,,,,,,,,,,,"29.95","68","75","0.00",,"-0.00","0","79","29.89","FEW:02 70 FEW:02 250","29.08","10.00","70","080",,"3",,,,,,,,,,,,,,,,,,,,,,,,,,,,,,,,,,,,,"MET11209/17/19 02:51:02 METAR KSAT 170851Z 08003KT 10SM FEW070 FEW250 24/20 A2995 RMK AO2 SLP122 T02390200 50000 (MBZ)","FM-15","7",,,,,,,,,,,,,,,,,,,,,,,,,,,,"2008-10-22"
"72253012921","2019-09-17T03:00:00","FM-12","4",,,,,,,,,,,,,,,,,,,,,,,,,,,,,,,,,,,,,,,"68","75",,,"0.00","9","79","29.89","74","29.10","9.94","70","080",,"3",,,,,,,,,,,,,,,,,,,,,,,,,,,,,,,,,,,,,"SYN06472253 32866 20803 10239 20200 39853 40122 50000 90851 555 91709=","FM-12","4",,,,,,,,,,,,,,,,,,,,,,,,,,,,"2008-10-22"
"72253012921","2019-09-17T03:51:00","FM-15","7",,,,,,,,,,,,,,,,,,,,,,,,,,,,,,,,,,,,,,"29.94","67","75","0.00",,,,"76","29.88","FEW:02 70 FEW:02 250","29.07","10.00","70","030",,"6",,,,,,,,,,,,,,,,,,,,,,,,,,,,,,,,,,,,,"MET10609/17/19 03:51:02 METAR KSAT 170951Z 03005KT 10SM FEW070 FEW250 24/19 A2994 RMK AO2 SLP118 T02390194 (MBZ)","FM-15","7",,,,,,,,,,,,,,,,,,,,,,,,,,,,"2008-10-22"
"72253012921","2019-09-17T04:51:00","FM-15","7",,,,,,,,,,,,,,,,,,,,,,,,,,,,,,,,,,,,,,"29.93","67","74","0.00",,,,"79","29.88","FEW:02 60 FEW:02 250","29.06","10.00","69","020",,"5",,,,,,,,,,,,,,,,,,,,,,,,,,,,,,,,,,,,,"MET10609/17/19 04:51:02 METAR KSAT 171051Z 02004KT 10SM FEW060 FEW250 23/19 A2993 RMK AO2 SLP117 T02330194 (MBZ)","FM-15","7",,,,,,,,,,,,,,,,,,,,,,,,,,,,"2008-10-22"
"72253012921","2019-09-17T05:51:00","FM-15","7",,,,,,,,,,,,,,,,,,,,,,,,,,,,,,,,,,,,,,"29.95","68","74","0.00",,"+0.00","5","82","29.89","FEW:02 15 FEW:02 250","29.08","10.00","70","020",,"3",,,,,,,,,,,,,,,,,,,,,,,,,,,,,,,,,,,,,"MET12409/17/19 05:51:02 METAR KSAT 171151Z 02003KT 10SM FEW015 FEW250 23/20 A2995 RMK AO2 SLP121 T02330200 10261 20228 55001 (MBZ)","FM-15","7",,,,,,,,,,,,,,,,,,,,,,,,,,,,"2008-10-22"
"72253012921","2019-09-17T06:00:00","FM-12","4",,,,,,,,,,,,,,,,,,,,,,,,,,,,,,,,,,,,,,,"68","74",,,"+0.00","5","82","29.89","15","29.10","9.94","70","020",,"3",,,,,,,,,,,,,,,,,,,,,,,,,,,,,,,,,,,,,"SYN08072253 32466 20203 10233 20200 39853 40121 55001 91151 333 10361 20228 555 91712=","FM-12","4",,,,,,,,,,,,,,,,,,,,,,,,,,,,"2008-10-22"
"72253012921","2019-09-17T06:51:00","FM-15","7",,,,,,,,,,,,,,,,,,,,,,,,,,,,,,,,,,,,,,"29.96","67","74","0.00",,,,"79","29.90","FEW:02 15 FEW:02 250","29.09","10.00","69","000",,"0",,,,,,,,,,,,,,,,,,,,,,,,,,,,,,,,,,,,,"MET10609/17/19 06:51:02 METAR KSAT 171251Z 00000KT 10SM FEW015 FEW250 23/19 A2996 RMK AO2 SLP126 T02330194 (MBZ)","FM-15","7",,,,,,,,,,,,,,,,,,,,,,,,,,,,"2008-10-22"
"72253012921","2019-09-17T07:51:00","FM-15","7",,,,,,,,,,,,,,,,,,,,,,,,,,,,,,,,,,,,,,"29.97","68","78","0.00",,,,"71","29.91","FEW:02 20 FEW:02 250","29.10","10.00","71","VRB",,"3",,,,,,,,,,,,,,,,,,,,,,,,,,,,,,,,,,,,,"MET10609/17/19 07:51:02 METAR KSAT 171351Z VRB03KT 10SM FEW020 FEW250 26/20 A2997 RMK AO2 SLP127 T02560200 (MBZ)","FM-15","7",,,,,,,,,,,,,,,,,,,,,,,,,,,,"2008-10-22"
"72253012921","2019-09-17T08:51:00","FM-15","7",,,,,,,,,,,,,,,,,,,,,,,,,,,,,,,,,,,,,,"29.98","69","82","0.00",,"-0.03","1","65","29.92","FEW:02 24 FEW:02 250","29.11","10.00","73","VRB",,"7",,,,,,,,,,,,,,,,,,,,,,,,,,,,,,,,,,,,,"MET11209/17/19 08:51:02 METAR KSAT 171451Z VRB06KT 10SM FEW024 FEW250 28/21 A2998 RMK AO2 SLP131 T02780206 51010 (MBZ)","FM-15","7",,,,,,,,,,,,,,,,,,,,,,,,,,,,"2008-10-22"
"72253012921","2019-09-17T09:00:00","FM-12","4",,,,,,,,,,,,,,,,,,,,,,,,,,,,,,,,,,,,,,,"69","82",,,"-0.03","1","65","29.92","26","29.13","9.94","73",,,"7",,,,,,,,,,,,,,,,,,,,,,,,,,,,,,,,,,,,,"SYN06472253 32566 2//06 10278 20206 39863 40131 51010 91451 555 91715=","FM-12","4",,,,,,,,,,,,,,,,,,,,,,,,,,,,"2008-10-22"
"72253012921","2019-09-17T09:51:00","FM-15","7",,,,,,,,,,,,,,,,,,,,,,,,,,,,,,,,,,,,,,"29.98","68","85","0.00",,,,"57","29.93","SCT:04 31 BKN:07 250","29.11","10.00","73","VRB",,"5",,,,,,,,,,,,,,,,,,,,,,,,,,,,,,,,,,,,,"MET10509/17/19 09:51:02 METAR KSAT 171551Z VRB04KT 10SM SCT031 BKN250 29/20 A2998 RMK AO2 SLP134 T02940200 (MB)","FM-15","7",,,,,,,,,,,,,,,,,,,,,,,,,,,,"2008-10-22"
"72253012921","2019-09-17T10:51:00","FM-15","7",,,,,,,,,,,,,,,,,,,,,,,,,,,,,,,,,,,,,,"29.97","67","88","0.00",,,,"50","29.91","BKN:07 37 BKN:07 250","29.10","10.00","74","080",,"7",,,,,,,,,,,,,,,,,,,,,,,,,,,,,,,,,,,,,"MET10509/17/19 10:51:02 METAR KSAT 171651Z 08006KT 10SM BKN037 BKN250 31/19 A2997 RMK AO2 SLP130 T03110194 (MB)","FM-15","7",,,,,,,,,,,,,,,,,,,,,,,,,,,,"2008-10-22"
"72253012921","2019-09-17T11:51:00","FM-15","7",,,,,,,,,,,,,,,,,,,,,,,,,,,,,,,,,,,,,,"29.95","64","90","0.00",,"+0.03","8","42","29.89","BKN:07 50 BKN:07 250","29.08","10.00","73","VRB",,"3",,,,,,,,,,,,,,,,,,,,,,,,,,,,,,,,,,,,,"MET12309/17/19 11:51:02 METAR KSAT 171751Z VRB03KT 10SM BKN050 BKN250 32/18 A2995 RMK AO2 SLP121 T03220178 10328 20228 58010 (MB)","FM-15","7",,,,,,,,,,,,,,,,,,,,,,,,,,,,"2008-10-22"
"72253012921","2019-09-17T12:00:00","FM-12","4",,,,,,,,,,,,,,,,,,,,,,,,,,,,,,,,,,,,,,,"64","90",,,"+0.03","8","42","29.89","57","29.10","9.94","73",,,"3",,,,,,,,,,,,,,,,,,,,,,,,,,,,,,,,,,,,,"SYN08072253 32766 6//03 10322 20178 39853 40121 58010 91751 333 10328 20228 555 91718=","FM-12","4",,,,,,,,,,,,,,,,,,,,,,,,,,,,"2008-10-22"
"72253012921","2019-09-17T12:51:00","FM-15","7",,,,,,,,,,,,,,,,,,,,,,,,,,,,,,,,,,,,,,"29.92","64","91","0.00",,,,"41","29.86","BKN:07 60 BKN:07 250","29.05","10.00","73","VRB",,"7",,,,,,,,,,,,,,,,,,,,,,,,,,,,,,,,,,,,,"MET10509/17/19 12:51:02 METAR KSAT 171851Z VRB06KT 10SM BKN060 BKN250 33/18 A2992 RMK AO2 SLP113 T03280178 (MB)","FM-15","7",,,,,,,,,,,,,,,,,,,,,,,,,,,,"2008-10-22"
"72253012921","2019-09-17T13:51:00","FM-15","7",,,,,,,,,,,,,,,,,,,,,,,,,,,,,,,,,,,,,,"29.89","63","95","0.00",,,,"35","29.83","BKN:07 70 BKN:07 250","29.03","10.00","73","330",,"8",,,,,,,,,,,,,,,,,,,,,,,,,,,,,,,,,,,,,"MET10509/17/19 13:51:02 METAR KSAT 171951Z 33007KT 10SM BKN070 BKN250 35/17 A2989 RMK AO2 SLP103 T03500172 (MB)","FM-15","7",,,,,,,,,,,,,,,,,,,,,,,,,,,,"2008-10-22"
"72253012921","2019-09-17T14:51:00","FM-15","7",,,,,,,,,,,,,,,,,,,,,,,,,,,,,,,,,,,,,,"29.87","64","94","0.00",,"+0.07","6","37","29.81","BKN:07 70 BKN:07 250","29.00","10.00","74","VRB",,"6",,,,,,,,,,,,,,,,,,,,,,,,,,,,,,,,,,,,,"MET12209/17/19 14:51:02 METAR KSAT 172051Z VRB05KT 10SM BKN070 BKN250 34/18 A2987 RMK AO2 SLP095 TCU DSNT E T03440178 56025 (MB)","FM-15","7",,,,,,,,,,,,,,,,,,,,,,,,,,,,"2008-10-22"
"72253012921","2019-09-17T15:00:00","FM-12","4",,,,,,,,,,,,,,,,,,,,,,,,,,,,,,,,,,,,,,,"64","94",,,"+0.07","6","37","29.81","74","29.02","9.94","74",,,"6",,,,,,,,,,,,,,,,,,,,,,,,,,,,,,,,,,,,,"SYN06472253 32866 6//05 10344 20178 39827 40095 56025 92051 555 91721=","FM-12","4",,,,,,,,,,,,,,,,,,,,,,,,,,,,"2008-10-22"
"72253012921","2019-09-17T15:51:00","FM-15","7",,,,,,,,,,,,,,,,,,,,,,,,,,,,,,,,,,,,,,"29.86","64","94","0.00",,,,"37","29.80","BKN:07 75 BKN:07 250","29.00","10.00","74","VRB",,"6",,,,,,,,,,,,,,,,,,,,,,,,,,,,,,,,,,,,,"MET10509/17/19 15:51:02 METAR KSAT 172151Z VRB05KT 10SM BKN075 BKN250 34/18 A2986 RMK AO2 SLP090 T03440178 (MB)","FM-15","7",,,,,,,,,,,,,,,,,,,,,,,,,,,,"2008-10-22"
"72253012921","2019-09-17T16:51:00","FM-15","7",,,,,,,,,,,,,,,,,,,,,,,,,,,,,,,,,,,,,,"29.85","64","93","0.00",,,,"38","29.79","BKN:07 85 BKN:07 250","28.99","10.00","73","050",,"9",,,,,,,,,,,,,,,,,,,,,,,,,,,,,,,,,,,,,"MET10509/17/19 16:51:02 METAR KSAT 172251Z 05008KT 10SM BKN085 BKN250 34/18 A2985 RMK AO2 SLP088 T03390178 (MB)","FM-15","7",,,,,,,,,,,,,,,,,,,,,,,,,,,,"2008-10-22"
"72253012921","2019-09-17T17:51:00","FM-15","7",,,,,,,,,,,,,,,,,,,,,,,,,,,,,,,,,,,,,,"29.86","69","88","0.00",,"+0.01","5","54","29.80","BKN:07 80 BKN:07 250","29.00","10.00","75","090",,"15",,,,,,,,,,,,,,,,,,,,,,,,,,,,,,,,,,,,,"MET12309/17/19 17:51:02 METAR KSAT 172351Z 09013KT 10SM BKN080 BKN250 31/21 A2986 RMK AO2 SLP092 T03110206 10356 20311 55004 (MB)","FM-15","7",,,,,,,,,,,,,,,,,,,,,,,,,,,,"2008-10-22"
"72253012921","2019-09-17T18:00:00","FM-12","4",,,,,,,,,,,,,,,,,,,,,,,,,,,,,,,,,,,,,,,"69","88",,,"+0.01","5","54","29.80","74","29.01","9.94","75","090",,"15",,,,,,,,,,,,,,,,,,,,,,,,,,,,,,,,,,,,,"SYN08072253 32866 60913 10311 20206 39823 40092 55004 92351 333 10356 20228 555 91800=","FM-12","4",,,,,,,,,,,,,,,,,,,,,,,,,,,,"2008-10-22"
"72253012921","2019-09-17T18:51:00","FM-15","7",,,,,,,,,,,,,,,,,,,,,,,,,,,,,,,,,,,,,,"29.87","70","84","0.00",,,,"63","29.81","FEW:02 80 BKN:07 250","29.00","10.00","74","070",,"9",,,,,,,,,,,,,,,,,,,,,,,,,,,,,,,,,,,,,"MET10009/17/19 18:51:01 METAR KSAT 180051Z 07008KT 10SM FEW080 BKN250 29/21 A2987 RMK AO2 SLP096 T02890211","FM-15","7",,,,,,,,,,,,,,,,,,,,,,,,,,,,"2008-10-22"
"72253012921","2019-09-17T19:51:00","FM-15","7",,,,,,,,,,,,,,,,,,,,,,,,,,,,,,,,,,,,,,"29.89","70","83","0.00",,,,"65","29.83","FEW:02 80 SCT:04 250","29.03","10.00","74","110",,"5",,,,,,,,,,,,,,,,,,,,,,,,,,,,,,,,,,,,,"MET10009/17/19 19:51:01 METAR KSAT 180151Z 11004KT 10SM FEW080 SCT250 28/21 A2989 RMK AO2 SLP103 T02830211","FM-15","7",,,,,,,,,,,,,,,,,,,,,,,,,,,,"2008-10-22"
"72253012921","2019-09-17T20:51:00","FM-15","7",,,,,,,,,,,,,,,,,,,,,,,,,,,,,,,,,,,,,,"29.91","69","82","0.00",,"-0.05","3","65","29.85","FEW:02 80 SCT:04 250","29.04","10.00","73","090",,"6",,,,,,,,,,,,,,,,,,,,,,,,,,,,,,,,,,,,,"MET10609/17/19 20:51:01 METAR KSAT 180251Z 09005KT 10SM FEW080 SCT250 28/21 A2991 RMK AO2 SLP108 T02780206 53016","FM-15","7",,,,,,,,,,,,,,,,,,,,,,,,,,,,"2008-10-22"
"72253012921","2019-09-17T21:00:00","FM-12","4",,,,,,,,,,,,,,,,,,,,,,,,,,,,,,,,,,,,,,,"69","82",,,"-0.05","3","65","29.85","74","29.06","9.94","73","090",,"6",,,,,,,,,,,,,,,,,,,,,,,,,,,,,,,,,,,,,"SYN06472253 32866 40905 10278 20206 39840 40108 53016 90251 555 91803=","FM-12","4",,,,,,,,,,,,,,,,,,,,,,,,,,,,"2008-10-22"
"72253012921","2019-09-17T21:51:00","FM-15","7",,,,,,,,,,,,,,,,,,,,,,,,,,,,,,,,,,,,,,"29.92","71","79","0.00",,,,"77","29.86","FEW:02 250","29.05","10.00","74","110",,"5",,,,,,,,,,,,,,,,,,,,,,,,,,,,,,,,,,,,,"MET09309/17/19 21:51:02 METAR KSAT 180351Z 11004KT 10SM FEW250 26/22 A2992 RMK AO2 SLP111 T02610217","FM-15","7",,,,,,,,,,,,,,,,,,,,,,,,,,,,"2008-10-22"
"72253012921","2019-09-17T22:51:00","FM-15","7",,,,,,,,,,,,,,,,,,,,,,,,,,,,,,,,,,,,,,"29.92","71","78","0.00",,,,"79","29.86","FEW:02 250","29.05","10.00","73","100",,"5",,,,,,,,,,,,,,,,,,,,,,,,,,,,,,,,,,,,,"MET09309/17/19 22:51:01 METAR KSAT 180451Z 10004KT 10SM FEW250 26/22 A2992 RMK AO2 SLP111 T02560217","FM-15","7",,,,,,,,,,,,,,,,,,,,,,,,,,,,"2008-10-22"
"72253012921","2019-09-17T23:51:00","FM-15","7",,,,,,,,,,,,,,,,,,,,,,,,,,,,,,,,,,,,,,"29.92","71","77","0.00",,"-0.01","1","82","29.86","FEW:02 250","29.05","10.00","73","000",,"0",,,,,,,,,,,,,,,,,,,,,,,,,,,,,,,,,,,,,"MET12109/17/19 23:51:02 METAR KSAT 180551Z 00000KT 10SM FEW250 25/22 A2992 RMK AO2 SLP111 T02500217 10311 20250 403560228 51003","FM-15","7",,,,,,,,,,,,,,,,,,,,,,,,,,,,"2008-10-22"
"72253012921","2019-09-17T23:59:00","SOD  ","6",,,,,,,,,,,,,,,,"85",,,"29.05",,"4.7","20","5.4","0","96","73","060","22","0.00","0","0.0","090","17",,,,,,,,,,,,,,,,,,,,,,,,,,,,,,,,,,,,,,,,,,,,,,,,,,,,,,,,,"SOD73924 HR PRECIPITATION (IN): 0.00 SNOW DEPTH (IN):0     24 HR SNOWFALL (IN):0.0  24 HR MAX TEMP (F): 9624 HR MIN TEMP (F): 73AVERAGE STATION PRESSURE:29.050 MINIMUM SEA LEVEL PRESSURE:29.79 TIME OF OCCURRENCE:1709 PEAK WIND SPEED (MPH): 22 PEAK WIND DIR (DEG): 60 PEAK WIND TIME (LST):      FASTEST 2MIN SPEED (MPH): 17FASTEST 2MIN DIR (DEG): 90 FASTEST 2MIN TIME (LST):     AVERAGE WIND SPEED (MPH): 4.7 24 HR AVG TEMP (F): 85DEPART FROM NORMAL:  6  HEATING DEGREE DAYS:  0 COOLING DEGREE DAYS: 20 LATEST DAY MAX TEMP (0700-1900 LST):96  LATEST NIGHT MIN TEMP(1900-0800 LST):73 HOURLY INCREMENTAL PRECIPITATION VALUES (IN):.00 0.00 0.00 0.00 0.00 0.00 0.00 0.00 0.00 0.00 0.00 0.00 0.00 0.00 0.00 0.00 0.00 0.00 0.00 0.00 0.00 0.00 0.00 0.00","SOD  ","6",,,,,,,,,,,,,,,,,,,,,,,,,"0620","1837",,"2008-10-22"
"72253012921","2019-09-18T00:00:00","FM-12","4",,,,,,,,,,,,,,,,,,,,,,,,,,,,,,,,,,,,,,,"71","77",,,"-0.01","1","82","29.86",,"29.07","9.94","73","000",,"0",,,,,,,,,,,,,,,,,,,,,,,,,,,,,,,,,,,,,"SYN08072253 32966 20000 10250 20217 39843 40111 51003 90551 333 10311 20228 555 91806=","FM-12","4",,,,,,,,,,,,,,,,,,,,,,,,,,,,"2008-10-22"
"72253012921","2019-09-18T00:51:00","FM-15","6",,,,,,,,,,,,,,,,,,,,,,,,,,,,,,,,,,,,,,"29.92","71","76","0.00",,,,"85","29.86","FEW:02 250","29.05","10.00","73","120",,"6",,,,,,,,,,,,,,,,,,,,,,,,,,,,,,,,,,,,,"MET09809/18/19 00:51:02 METAR KSAT 180651Z 12005KT 10SM FEW250 24/22 A2992 RMK AO2 SLP111 T02440217 (JB)","FM-15","6",,,,,,,,,,,,,,,,,,,,,,,,,,,,"2008-10-22"
"72253012921","2019-09-18T01:51:00","FM-15","6",,,,,,,,,,,,,,,,,,,,,,,,,,,,,,,,,,,,,,"29.91","72","77","0.00",,,,"85","29.85","FEW:02 250","29.04","10.00","74","180",,"5",,,,,,,,,,,,,,,,,,,,,,,,,,,,,,,,,,,,,"MET09809/18/19 01:51:02 METAR KSAT 180751Z 18004KT 10SM FEW250 25/22 A2991 RMK AO2 SLP108 T02500222 (JB)","FM-15","6",,,,,,,,,,,,,,,,,,,,,,,,,,,,"2008-10-22"
"72253012921","2019-09-18T02:51:00","FM-15","6",,,,,,,,,,,,,,,,,,,,,,,,,,,,,,,,,,,,,,"29.89","72","76","0.00",,"+0.02","8","88","29.83","FEW:02 250","29.03","10.00","73","000",,"0",,,,,,,,,,,,,,,,,,,,,,,,,,,,,,,,,,,,,"MET10409/18/19 02:51:02 METAR KSAT 180851Z 00000KT 10SM FEW250 24/22 A2989 RMK AO2 SLP103 T02440222 58007 (CM)","FM-15","6",,,,,,,,,,,,,,,,,,,,,,,,,,,,"2008-10-22"
"72253012921","2019-09-18T03:51:00","FM-15","7",,,,,,,,,,,,,,,,,,,,,,,,,,,,,,,,,,,,,,"29.89","71","75","0.00",,,,"88","29.83","FEW:02 250","29.03","10.00","72","330",,"5",,,,,,,,,,,,,,,,,,,,,,,,,,,,,,,,,,,,,"MET09809/18/19 03:51:02 METAR KSAT 180951Z 33004KT 10SM FEW250 24/22 A2989 RMK AO2 SLP101 T02390217 (CM)","FM-15","7",,,,,,,,,,,,,,,,,,,,,,,,,,,,"2008-10-22"
"72253012921","2019-09-18T04:51:00","FM-15","7",,,,,,,,,,,,,,,,,,,,,,,,,,,,,,,,,,,,,,"29.89","71","74","0.00",,,,"91","29.83","FEW:02 250","29.03","10.00","72","330",,"7",,,,,,,,,,,,,,,,,,,,,,,,,,,,,,,,,,,,,"MET09809/18/19 04:51:02 METAR KSAT 181051Z 33006KT 10SM FEW250 23/22 A2989 RMK AO2 SLP102 T02330217 (CM)","FM-15","7",,,,,,,,,,,,,,,,,,,,,,,,,,,,"2008-10-22"
"72253012921","2019-09-18T05:51:00","FM-15","7",,,,,,,,,,,,,,,,,,,,,,,,,,,,,,,,,,,,,,"29.90","70","74","0.00",,"-0.01","3","88","29.85","FEW:02 250","29.03","10.00","71","330",,"5",,,,,,,,,,,,,,,,,,,,,,,,,,,,,,,,,,,,,"MET11609/18/19 05:51:02 METAR KSAT 181151Z 33004KT 10SM FEW250 23/21 A2990 RMK AO2 SLP108 T02330211 10250 20228 53003 (CM)","FM-15","7",,,,,,,,,,,,,,,,,,,,,,,,,,,,"2008-10-22"
"72253012921","2019-09-18T06:00:00","FM-12","4",,,,,,,,,,,,,,,,,,,,,,,,,,,,,,,,,,,,,,,"70","74",,,"-0.01","3","88","29.85",,"29.05","9.94","71","330",,"5",,,,,,,,,,,,,,,,,,,,,,,,,,,,,,,,,,,,,"SYN08072253 32966 23304 10233 20211 39836 40108 53003 91151 333 10356 20228 555 91812=","FM-12","4",,,,,,,,,,,,,,,,,,,,,,,,,,,,"2008-10-22"
"72253012921","2019-09-18T06:51:00","FM-15","7",,,,,,,,,,,,,,,,,,,,,,,,,,,,,,,,,,,,,,"29.92","70","74","0.00",,,,"88","29.86","FEW:02 250","29.05","10.00","71","300",,"5",,,,,,,,,,,,,,,,,,,,,,,,,,,,,,,,,,,,,"MET09809/18/19 06:51:02 METAR KSAT 181251Z 30004KT 10SM FEW250 23/21 A2992 RMK AO2 SLP112 T02330211 (CM)","FM-15","7",,,,,,,,,,,,,,,,,,,,,,,,,,,,"2008-10-22"
"72253012921","2019-09-18T07:51:00","FM-15","7",,,,,,,,,,,,,,,,,,,,,,,,,,,,,,,,,,,,,,"29.93","71","79","0.00",,,,"77","29.87","SCT:04 250","29.06","10.00","74","000",,"0",,,,,,,,,,,,,,,,,,,,,,,,,,,,,,,,,,,,,"MET09809/18/19 07:51:02 METAR KSAT 181351Z 00000KT 10SM SCT250 26/22 A2993 RMK AO2 SLP116 T02610217 (CM)","FM-15","7",,,,,,,,,,,,,,,,,,,,,,,,,,,,"2008-10-22"
"72253012921","2019-09-18T08:51:00","FM-15","7",,,,,,,,,,,,,,,,,,,,,,,,,,,,,,,,,,,,,,"29.94","71","84","0.00",,"-0.04","2","65","29.88","SCT:04 250","29.07","10.00","75","000",,"0",,,,,,,,,,,,,,,,,,,,,,,,,,,,,,,,,,,,,"MET10409/18/19 08:51:02 METAR KSAT 181451Z 00000KT 10SM SCT250 29/22 A2994 RMK AO2 SLP119 T02890217 52012 (CM)","FM-15","7",,,,,,,,,,,,,,,,,,,,,,,,,,,,"2008-10-22"
"72253012921","2019-09-18T09:00:00","FM-12","4",,,,,,,,,,,,,,,,,,,,,,,,,,,,,,,,,,,,,,,"71","84",,,"-0.04","2","65","29.88",,"29.09","9.94","75","000",,"0",,,,,,,,,,,,,,,,,,,,,,,,,,,,,,,,,,,,,"SYN06472253 32966 40000 10289 20217 39850 40119 52012 91451 555 91815=","FM-12","4",,,,,,,,,,,,,,,,,,,,,,,,,,,,"2008-10-22"
"72253012921","2019-09-18T09:51:00","FM-15","7",,,,,,,,,,,,,,,,,,,,,,,,,,,,,,,,,,,,,,"29.95","71","87","0.00",,,,"59","29.89","FEW:02 250","29.08","10.00","76","VRB",,"3",,,,,,,,,,,,,,,,,,,,,,,,,,,,,,,,,,,,,"MET09909/18/19 09:51:02 METAR KSAT 181551Z VRB03KT 10SM FEW250 31/22 A2995 RMK AO2 SLP122 T03060217 (MBZ)","FM-15","7",,,,,,,,,,,,,,,,,,,,,,,,,,,,"2008-10-22"
"72253012921","2019-09-18T10:51:00","FM-15","7",,,,,,,,,,,,,,,,,,,,,,,,,,,,,,,,,,,,,,"29.94","70","90","0.00",,,,"52","29.88","FEW:02 40 FEW:02 250","29.07","10.00","76","250",,"5",,,,,,,,,,,,,,,,,,,,,,,,,,,,,,,,,,,,,"MET10609/18/19 10:51:02 METAR KSAT 181651Z 25004KT 10SM FEW040 FEW250 32/21 A2994 RMK AO2 SLP119 T03220211 (MBZ)","FM-15","7",,,,,,,,,,,,,,,,,,,,,,,,,,,,"2008-10-22"
"72253012921","2019-09-18T11:51:00","FM-15","7",,,,,,,,,,,,,,,,,,,,,,,,,,,,,,,,,,,,,,"29.92","69","94","0.00",,"+0.02","8","44","29.86","SCT:04 47 SCT:04 250","29.05","10.00","76","220",,"7",,,,,,,,,,,,,,,,,,,,,,,,,,,,,,,,,,,,,"MET12409/18/19 11:51:02 METAR KSAT 181751Z 22006KT 10SM SCT047 SCT250 34/21 A2992 RMK AO2 SLP111 T03440206 10344 20233 58008 (MBZ)","FM-15","7",,,,,,,,,,,,,,,,,,,,,,,,,,,,"2008-10-22"
"72253012921","2019-09-18T12:00:00","FM-12","4",,,,,,,,,,,,,,,,,,,,,,,,,,,,,,,,,,,,,,,"69","94",,,"+0.02","8","44","29.86","41","29.07","9.94","76","220",,"7",,,,,,,,,,,,,,,,,,,,,,,,,,,,,,,,,,,,,"SYN08072253 32666 42206 10344 20206 39843 40111 58008 91751 333 10344 20233 555 91818=","FM-12","4",,,,,,,,,,,,,,,,,,,,,,,,,,,,"2008-10-22"
"72253012921","2019-09-18T12:51:00","FM-15","7",,,,,,,,,,,,,,,,,,,,,,,,,,,,,,,,,,,,,,"29.89","67","96","0.00",,,,"39","29.83","SCT:04 55 SCT:04 250","29.03","10.00","76","240",,"6",,,,,,,,,,,,,,,,,,,,,,,,,,,,,,,,,,,,,"MET12009/18/19 12:51:02 METAR KSAT 181851Z 24005KT 10SM SCT055 SCT250 36/19 A2989 RMK AO2 SLP101 TCU DSNT W-NW T03560194 (MBZ)","FM-15","7",,,,,,,,,,,,,,,,,,,,,,,,,,,,"2008-10-22"
"72253012921","2019-09-18T13:51:00","FM-15","7",,,,,,,,,,,,,,,,,,,,,,,,,,,,,,,,,,,,,,"29.86","67","95","0.00",,,,"40","29.80","SCT:04 60 BKN:07 120 BKN:07 250","29.00","10.00","76","000",,"0",,,,,,,,,,,,,,,,,,,,,,,,,,,,,,,,,,,,,"MET14909/18/19 13:51:02 METAR KSAT 181951Z 00000KT 10SM SCT060TCU BKN120 BKN250 35/19 A2986 RMK AO2 SLP090 TCU SHRA DSNT W AND VC NW MOVG E T03500194 (MBZ)","FM-15","7",,,,,,,,,,,,,,,,,,,,,,,,,,,,"2008-10-22"
"72253012921","2019-09-18T13:59:00","FM-16","7",,,,,,,,,,,,,,,,,,,,,,,,,,,,,,,,,,,,,,"29.85","68","95",,,,,"41",,"SCT:04 65 BKN:07 100 BKN:07 250","28.99","10.00","76","290",,"13",,,,,,,,,,,,,,,,,,,,,,,,,,,,,,,,,,,,,"MET13909/18/19 13:59:02 SPECI KSAT 181959Z 29011KT 10SM SCT065TCU BKN100 BKN250 35/20 A2985 RMK AO2 WSHFT 58 TCU VCSH W-NW MOVG E T03500200 (MBZ)","FM-16","7",,,,,,,,,,,,,,,,,,,,,,,,,,,,"2008-10-22"
"72253012921","2019-09-18T14:51:00","FM-15","7",,,,,,,,,,,,,,,,,,,,,,,,,,,,,,,,,,,,,,"29.84","67","93","0.00",,"+0.07","6","42","29.78","SCT:04 70 SCT:04 120 BKN:07 250","28.97","10.00","75","260",,"11",,,,,,,,,,,,,,,,,,,,,,,,,,,,,,,,,,,,,"MET14409/18/19 14:51:02 METAR KSAT 182051Z 26010KT 10SM SCT070TCU SCT120 BKN250 34/19 A2984 RMK AO2 SLP086 TCU VCSH W-NW MOVG SE T03390194 56024 (MBZ)","FM-15","7",,,,,,,,,,,,,,,,,,,,,,,,,,,,"2008-10-22"
"72253012921","2019-09-18T15:00:00","FM-12","4",,,,,,,,,,,,,,,,,,,,,,,,,,,,,,,,,,,,,,,"67","93",,,"+0.07","6","42","29.78","74","28.99","9.94","75","260",,"11",,,,,,,,,,,,,,,,,,,,,,,,,,,,,,,,,,,,,"SYN06472253 32866 62610 10339 20194 39817 40086 56024 92051 555 91821=","FM-12","4",,,,,,,,,,,,,,,,,,,,,,,,,,,,"2008-10-22"
"72253012921","2019-09-18T15:51:00","FM-15","7",,,,,,,,,,,,,,,,,,,,,,,,,,,,,,,,,,,,,,"29.82","65","98","0.00",,,,"34","29.76","FEW:02 70 SCT:04 120 SCT:04 250","28.96","10.00","75","VRB",,"5",,,,,,,,,,,,,,,,,,,,,,,,,,,,,,,,,,,,,"MET12809/18/19 15:51:02 METAR KSAT 182151Z VRB04KT 10SM FEW070 SCT120 SCT250 37/18 A2982 RMK AO2 SLP077 TCU DSNT ALQDS T03670183 (MBZ)","FM-15","7",,,,,,,,,,,,,,,,,,,,,,,,,,,,"2008-10-22"
"72253012921","2019-09-18T16:51:00","FM-15","7",,,,,,,,,,,,,,,,,,,,,,,,,,,,,,,,,,,,,,"29.81","63","97","0.00",,,,"33","29.75","FEW:02 70 SCT:04 120 SCT:04 250","28.95","10.00","74","300",,"5",,,,,,,,,,,,,,,,,,,,,,,,,,,,,,,,,,,,,"MET13709/18/19 16:51:02 METAR KSAT 182251Z 30004KT 10SM FEW070 SCT120 SCT250 36/17 A2981 RMK AO2 SLP076 TCU SHRA DSNT NE AND SE T03610172 (MBZ)","FM-15","7",,,,,,,,,,,,,,,,,,,,,,,,,,,,"2008-10-22"
"72253012921","2019-09-18T17:51:00","FM-15","7",,,,,,,,,,,,,,,,,,,,,,,,,,,,,,,,,,,,,,"29.81","62","97","0.00",,"+0.03","5","32","29.75","FEW:02 70 SCT:04 120 SCT:04 250","28.95","10.00","73","360",,"5",,,,,,,,,,,,,,,,,,,,,,,,,,,,,,,,,,,,,"MET14009/18/19 17:51:02 METAR KSAT 182351Z 36004KT 10SM FEW070 SCT120 SCT250 36/17 A2981 RMK AO2 SLP076 CB DSNT E T03610167 10372 20333 55009 (JB)","FM-15","7",,,,,,,,,,,,,,,,,,,,,,,,,,,,"2008-10-22"
"72253012921","2019-09-18T18:00:00","FM-12","4",,,,,,,,,,,,,,,,,,,,,,,,,,,,,,,,,,,,,,,"62","97",,,"+0.03","5","32","29.75","74","28.96","9.94","73","360",,"5",,,,,,,,,,,,,,,,,,,,,,,,,,,,,,,,,,,,,"SYN08072253 32866 43604 10361 20167 39807 40076 55009 92351 333 10372 20228 555 91900=","FM-12","4",,,,,,,,,,,,,,,,,,,,,,,,,,,,"2008-10-22"
"72253012921","2019-09-18T18:51:00","FM-15","7",,,,,,,,,,,,,,,,,,,,,,,,,,,,,,,,,,,,,,"29.82","63","94","0.00",,,,"36","29.76","FEW:02 75 SCT:04 120 SCT:04 250","28.96","10.00","73","060",,"5",,,,,,,,,,,,,,,,,,,,,,,,,,,,,,,,,,,,,"MET10709/18/19 18:51:01 METAR KSAT 190051Z 06004KT 10SM FEW075 SCT120 SCT250 34/17 A2982 RMK AO2 SLP079 T03440172","FM-15","7",,,,,,,,,,,,,,,,,,,,,,,,,,,,"2008-10-22"
"72253012921","2019-09-18T19:51:00","FM-15","7",,,,,,,,,,,,,,,,,,,,,,,,,,,,,,,,,,,,,,"29.84","67","91","0.00",,,,"45","29.78","BKN:07 100 BKN:07 250","28.97","10.00","75","090",,"11",,,,,,,,,,,,,,,,,,,,,,,,,,,,,,,,,,,,,"MET10009/18/19 19:51:01 METAR KSAT 190151Z 09010KT 10SM BKN100 BKN250 33/19 A2984 RMK AO2 SLP086 T03280194","FM-15","7",,,,,,,,,,,,,,,,,,,,,,,,,,,,"2008-10-22"
"72253012921","2019-09-18T20:51:00","FM-15","7",,,,,,,,,,,,,,,,,,,,,,,,,,,,,,,,,,,,,,"29.86","70","89","0.00",,"-0.05","3","53","29.80","BKN:07 90 BKN:07 250","29.00","10.00","76","090",,"13",,,,,,,,,,,,,,,,,,,,,,,,,,,,,,,,,,,,,"MET10609/18/19 20:51:01 METAR KSAT 190251Z 09011KT 10SM BKN090 BKN250 32/21 A2986 RMK AO2 SLP092 T03170211 53016","FM-15","7",,,,,,,,,,,,,,,,,,,,,,,,,,,,"2008-10-22"
"72253012921","2019-09-18T21:00:00","FM-12","4",,,,,,,,,,,,,,,,,,,,,,,,,,,,,,,,,,,,,,,"70","89",,,"-0.05","3","53","29.80",,"29.01","9.94","76","090",,"13",,,,,,,,,,,,,,,,,,,,,,,,,,,,,,,,,,,,,"SYN06472253 32966 60911 10317 20211 39823 40092 53016 90251 555 91903=","FM-12","4",,,,,,,,,,,,,,,,,,,,,,,,,,,,"2008-10-22"
"72253012921","2019-09-18T21:51:00","FM-15","7",,,,,,,,,,,,,,,,,,,,,,,,,,,,,,,,,,,,,,"29.88","73","87","0.00",,,,"63","29.82","FEW:02 60 BKN:07 100 BKN:07 250","29.01","10.00","77","110",,"10",,,,,,,,,,,,,,,,,,,,,,,,,,,,,,,,,,,,,"MET10709/18/19 21:51:02 METAR KSAT 190351Z 11009KT 10SM FEW060 BKN100 BKN250 31/23 A2988 RMK AO2 SLP099 T03060228","FM-15","7",,,,,,,,,,,,,,,,,,,,,,,,,,,,"2008-10-22"
"72253012921","2019-09-18T22:51:00","FM-15","7",,,,,,,,,,,,,,,,,,,,,,,,,,,,,,,,,,,,,,"29.89","75","85","0.00",,,,"72","29.83","FEW:02 65 SCT:04 120 BKN:07 250","29.03","10.00","78","130",,"10",,,,,,,,,,,,,,,,,,,,,,,,,,,,,,,,,,,,,"MET10709/18/19 22:51:02 METAR KSAT 190451Z 13009KT 10SM FEW065 SCT120 BKN250 29/24 A2989 RMK AO2 SLP100 T02940239","FM-15","7",,,,,,,,,,,,,,,,,,,,,,,,,,,,"2008-10-22"
"72253012921","2019-09-18T23:51:00","FM-15","7",,,,,,,,,,,,,,,,,,,,,,,,,,,,,,,,,,,,,,"29.88","74","82","0.00",,"-0.02","0","77","29.82","FEW:02 90 SCT:04 250","29.01","10.00","76","110",,"6",,,,,,,,,,,,,,,,,,,,,,,,,,,,,,,,,,,,,"MET12809/18/19 23:51:02 METAR KSAT 190551Z 11005KT 10SM FEW090 SCT250 28/23 A2988 RMK AO2 SLP099 T02780233 10361 20278 403720228 50007","FM-15","7",,,,,,,,,,,,,,,,,,,,,,,,,,,,"2008-10-22"
"72253012921","2019-09-18T23:59:00","SOD  ","6",,,,,,,,,,,,,,,,"86",,,"29.01",,"5.5","21","6.7","0","99","73","100","21","0.00","0","0.0","100","16",,,,,,,,,,,,,,,,,,,,,,,,,,,,,,,,,,,,,,,,,,,,,,,,,,,,,,,,,"SOD73924 HR PRECIPITATION (IN): 0.00 SNOW DEPTH (IN):0     24 HR SNOWFALL (IN):0.0  24 HR MAX TEMP (F): 9924 HR MIN TEMP (F): 73AVERAGE STATION PRESSURE:29.010 MINIMUM SEA LEVEL PRESSURE:29.75 TIME OF OCCURRENCE:1748 PEAK WIND SPEED (MPH): 21 PEAK WIND DIR (DEG):100 PEAK WIND TIME (LST):      FASTEST 2MIN SPEED (MPH): 16FASTEST 2MIN DIR (DEG):100 FASTEST 2MIN TIME (LST):     AVERAGE WIND SPEED (MPH): 5.5 24 HR AVG TEMP (F): 86DEPART FROM NORMAL:  7  HEATING DEGREE DAYS:  0 COOLING DEGREE DAYS: 21 LATEST DAY MAX TEMP (0700-1900 LST):99  LATEST NIGHT MIN TEMP(1900-0800 LST):73 HOURLY INCREMENTAL PRECIPITATION VALUES (IN):.00 0.00 0.00 0.00 0.00 0.00 0.00 0.00 0.00 0.00 0.00 0.00 0.00 0.00 0.00 0.00 0.00 0.00 0.00 0.00 0.00 0.00 0.00 0.00","SOD  ","6",,,,,,,,,,,,,,,,,,,,,,,,,"0620","1836",,"2008-10-22"
"72253012921","2019-09-19T00:00:00","FM-12","4",,,,,,,,,,,,,,,,,,,,,,,,,,,,,,,,,,,,,,,"74","82",,,"0.02","9","77","29.82",,"29.03","9.94","76","110",,"6",,,,,,,,,,,,,,,,,,,,,,,,,,,,,,,,,,,,,"SYN08072253 32966 41105 10278 20233 39830 40099 50007 90551 333 10361 20228 555 91906=","FM-12","4",,,,,,,,,,,,,,,,,,,,,,,,,,,,"2008-10-22"
"72253012921","2019-09-19T00:51:00","FM-15","7",,,,,,,,,,,,,,,,,,,,,,,,,,,,,,,,,,,,,,"29.89","75","81","0.00",,,,"82","29.83","FEW:02 120 SCT:04 250","29.03","10.00","77","140",,"8",,,,,,,,,,,,,,,,,,,,,,,,,,,,,,,,,,,,,"MET10509/19/19 00:51:02 METAR KSAT 190651Z 14007KT 10SM FEW120 SCT250 27/24 A2989 RMK AO2 SLP100 T02720239 (JB)","FM-15","7",,,,,,,,,,,,,,,,,,,,,,,,,,,,"2008-10-22"
"72253012921","2019-09-19T01:51:00","FM-15","7",,,,,,,,,,,,,,,,,,,,,,,,,,,,,,,,,,,,,,"29.88","75","80","0.00",,,,"85","29.82","FEW:02 250","29.01","10.00","76","130",,"6",,,,,,,,,,,,,,,,,,,,,,,,,,,,,,,,,,,,,"MET09809/19/19 01:51:02 METAR KSAT 190751Z 13005KT 10SM FEW250 27/24 A2988 RMK AO2 SLP099 T02670239 (JB)","FM-15","7",,,,,,,,,,,,,,,,,,,,,,,,,,,,"2008-10-22"
"72253012921","2019-09-19T02:51:00","FM-15","7",,,,,,,,,,,,,,,,,,,,,,,,,,,,,,,,,,,,,,"29.88","75","80","0.00",,"+0.01","8","85","29.81","FEW:02 250","29.01","10.00","76","140",,"6",,,,,,,,,,,,,,,,,,,,,,,,,,,,,,,,,,,,,"MET10409/19/19 02:51:02 METAR KSAT 190851Z 14005KT 10SM FEW250 27/24 A2988 RMK AO2 SLP096 T02670239 58003 (CM)","FM-15","7",,,,,,,,,,,,,,,,,,,,,,,,,,,,"2008-10-22"
"72253012921","2019-09-19T03:00:00","FM-12","4",,,,,,,,,,,,,,,,,,,,,,,,,,,,,,,,,,,,,,,"75","80",,,"+0.01","8","85","29.81",,"29.03","9.94","76","140",,"6",,,,,,,,,,,,,,,,,,,,,,,,,,,,,,,,,,,,,"SYN06472253 32966 21405 10267 20239 39830 40096 58003 90851 555 91909=","FM-12","4",,,,,,,,,,,,,,,,,,,,,,,,,,,,"2008-10-22"
"72253012921","2019-09-19T03:51:00","FM-15","7",,,,,,,,,,,,,,,,,,,,,,,,,,,,,,,,,,,,,,"29.87","74","80","0.00",,,,"82","29.81","FEW:02 110","29.00","10.00","76","170",,"6",,,,,,,,,,,,,,,,,,,,,,,,,,,,,,,,,,,,,"MET09809/19/19 03:51:02 METAR KSAT 190951Z 17005KT 10SM FEW110 27/23 A2987 RMK AO2 SLP095 T02670233 (CM)","FM-15","7",,,,,,,,,,,,,,,,,,,,,,,,,,,,"2008-10-22"
"72253012921","2019-09-19T04:51:00","FM-15","7",,,,,,,,,,,,,,,,,,,,,,,,,,,,,,,,,,,,,,"29.87","74","80","0.00",,,,"82","29.81","FEW:02 100 FEW:02 250","29.00","10.00","76","170",,"6",,,,,,,,,,,,,,,,,,,,,,,,,,,,,,,,,,,,,"MET10509/19/19 04:51:02 METAR KSAT 191051Z 17005KT 10SM FEW100 FEW250 27/23 A2987 RMK AO2 SLP095 T02670233 (CM)","FM-15","7",,,,,,,,,,,,,,,,,,,,,,,,,,,,"2008-10-22"
"72253012921","2019-09-19T05:51:00","FM-15","7",,,,,,,,,,,,,,,,,,,,,,,,,,,,,,,,,,,,,,"29.88","73","79","0.00",,"+0.00","5","82","29.81","FEW:02 120 SCT:04 250","29.01","10.00","75","170",,"6",,,,,,,,,,,,,,,,,,,,,,,,,,,,,,,,,,,,,"MET12309/19/19 05:51:02 METAR KSAT 191151Z 17005KT 10SM FEW120 SCT250 26/23 A2988 RMK AO2 SLP096 T02610228 10283 20261 55000 (CM)","FM-15","7",,,,,,,,,,,,,,,,,,,,,,,,,,,,"2008-10-22"
"72253012921","2019-09-19T06:00:00","FM-12","4",,,,,,,,,,,,,,,,,,,,,,,,,,,,,,,,,,,,,,,"73","79",,,"+0.00","5","82","29.81",,"29.03","9.94","75","170",,"6",,,,,,,,,,,,,,,,,,,,,,,,,,,,,,,,,,,,,"SYN08072253 32966 41705 10261 20228 39830 40096 55000 91151 333 10372 20261 555 91912=","FM-12","4",,,,,,,,,,,,,,,,,,,,,,,,,,,,"2008-10-22"
"72253012921","2019-09-19T06:51:00","FM-15","7",,,,,,,,,,,,,,,,,,,,,,,,,,,,,,,,,,,,,,"29.89","73","79","0.00",,,,"82","29.83","FEW:02 80 FEW:02 250","29.03","10.00","75","170",,"7",,,,,,,,,,,,,,,,,,,,,,,,,,,,,,,,,,,,,"MET10509/19/19 06:51:02 METAR KSAT 191251Z 17006KT 10SM FEW080 FEW250 26/23 A2989 RMK AO2 SLP100 T02610228 (CM)","FM-15","7",,,,,,,,,,,,,,,,,,,,,,,,,,,,"2008-10-22"
"72253012921","2019-09-19T07:51:00","FM-15","7",,,,,,,,,,,,,,,,,,,,,,,,,,,,,,,,,,,,,,"29.90","73","81","0.00",,,,"77","29.84","FEW:02 15","29.03","10.00","75","190",,"9",,,,,,,,,,,,,,,,,,,,,,,,,,,,,,,,,,,,,"MET09809/19/19 07:51:02 METAR KSAT 191351Z 19008KT 10SM FEW015 27/23 A2990 RMK AO2 SLP106 T02720228 (CM)","FM-15","7",,,,,,,,,,,,,,,,,,,,,,,,,,,,"2008-10-22"
"72253012921","2019-09-19T08:51:00","FM-15","7",,,,,,,,,,,,,,,,,,,,,,,,,,,,,,,,,,,,,,"29.91","73","83","0.00",,"-0.04","1","72","29.85","SCT:04 17","29.04","10.00","76","190",,"9",,,,,,,,,,,,,,,,,,,,,,,,,,,,,,,,,,,,,"MET10409/19/19 08:51:02 METAR KSAT 191451Z 19008KT 10SM SCT017 28/23 A2991 RMK AO2 SLP109 T02830228 51012 (CM)","FM-15","7",,,,,,,,,,,,,,,,,,,,,,,,,,,,"2008-10-22"
"72253012921","2019-09-19T09:00:00","FM-12","4",,,,,,,,,,,,,,,,,,,,,,,,,,,,,,,,,,,,,,,"73","83",,,"-0.04","1","72","29.85","15","29.06","9.94","76","190",,"9",,,,,,,,,,,,,,,,,,,,,,,,,,,,,,,,,,,,,"SYN06472253 32466 41908 10283 20228 39840 40109 51012 91451 555 91915=","FM-12","4",,,,,,,,,,,,,,,,,,,,,,,,,,,,"2008-10-22"
"72253012921","2019-09-19T09:51:00","FM-15","7",,,,,,,,,,,,,,,,,,,,,,,,,,,,,,,,,,,,,,"29.90","73","87","0.00",,,,"63","29.84","FEW:02 25","29.03","10.00","77","180",,"8",,,,,,,,,,,,,,,,,,,,,,,,,,,,,,,,,,,,,"MET09909/19/19 09:51:02 METAR KSAT 191551Z 18007KT 10SM FEW025 31/23 A2990 RMK AO2 SLP106 T03060228 (MBZ)","FM-15","7",,,,,,,,,,,,,,,,,,,,,,,,,,,,"2008-10-22"
"72253012921","2019-09-19T10:51:00","FM-15","7",,,,,,,,,,,,,,,,,,,,,,,,,,,,,,,,,,,,,,"29.90","73","90","0.00",,,,"58","29.83","FEW:02 35 FEW:02 250","29.03","10.00","78","210",,"7",,,,,,,,,,,,,,,,,,,,,,,,,,,,,,,,,,,,,"MET10609/19/19 10:51:02 METAR KSAT 191651Z 21006KT 10SM FEW035 FEW250 32/23 A2990 RMK AO2 SLP103 T03220228 (MBZ)","FM-15","7",,,,,,,,,,,,,,,,,,,,,,,,,,,,"2008-10-22"
"72253012921","2019-09-19T11:51:00","FM-15","7",,,,,,,,,,,,,,,,,,,,,,,,,,,,,,,,,,,,,,"29.88","71","93","0.00",,"+0.04","8","49","29.81","FEW:02 50 FEW:02 250","29.01","10.00","77","160",,"7",,,,,,,,,,,,,,,,,,,,,,,,,,,,,,,,,,,,,"MET13509/19/19 11:51:02 METAR KSAT 191751Z 16006KT 10SM FEW050 FEW250 34/22 A2988 RMK AO2 SLP096 TCU DSNT N T03390217 10339 20256 58012 (MBZ)","FM-15","7",,,,,,,,,,,,,,,,,,,,,,,,,,,,"2008-10-22"
"72253012921","2019-09-19T12:00:00","FM-12","4",,,,,,,,,,,,,,,,,,,,,,,,,,,,,,,,,,,,,,,"71","93",,,"+0.04","8","49","29.81","57","29.03","9.94","77","160",,"7",,,,,,,,,,,,,,,,,,,,,,,,,,,,,,,,,,,,,"SYN08072253 32766 21606 10339 20217 39830 40096 58012 91751 333 10339 20256 555 91918=","FM-12","4",,,,,,,,,,,,,,,,,,,,,,,,,,,,"2008-10-22"
"72253012921","2019-09-19T12:51:00","FM-15","7",,,,,,,,,,,,,,,,,,,,,,,,,,,,,,,,,,,,,,"29.84","69","94","0.00",,,,"44","29.78","FEW:02 60 FEW:02 250","28.97","10.00","76","VRB",,"5",,,,,,,,,,,,,,,,,,,,,,,,,,,,,,,,,,,,,"MET12709/19/19 12:51:02 METAR KSAT 191851Z VRB04KT 10SM FEW060 FEW250 34/21 A2984 RMK AO2 SLP085 CB DSNT N-NE MOVG SE T03440206 (MBZ)","FM-15","7",,,,,,,,,,,,,,,,,,,,,,,,,,,,"2008-10-22"
"72253012921","2019-09-19T13:51:00","FM-15","7",,,,,,,,,,,,,,,,,,,,,,,,,,,,,,,,,,,,,,"29.82","68","97","0.00",,,,"39","29.76","FEW:02 65 FEW:02 250","28.96","10.00","77","150",,"13",,,,,,,,,,,,,,,,,,,,,,,,,,,,,,,,,,,,,"MET12809/19/19 13:51:02 METAR KSAT 191951Z 15011KT 10SM FEW065 FEW250 36/20 A2982 RMK AO2 SLP078 CB DSNT NW-NE MOVG SE T03610200 (MBZ)","FM-15","7",,,,,,,,,,,,,,,,,,,,,,,,,,,,"2008-10-22"
"72253012921","2019-09-19T14:51:00","FM-15","7",,,,,,,,,,,,,,,,,,,,,,,,,,,,,,,,,,,,,,"29.79","67","99","0.00",,"+0.08","6","35","29.73","SCT:04 70 SCT:04 250","28.93","10.00","77","140","16","11",,,,,,,,,,,,,,,,,,,,,,,,,,,,,,,,,,,,,"MET13409/19/19 14:51:02 METAR KSAT 192051Z 14010G14KT 10SM SCT070 SCT250 37/19 A2979 RMK AO2 SLP068 CB DSNT NE MOVG SE T03720194 56027 (MBZ)","FM-15","7",,,,,,,,,,,,,,,,,,,,,,,,,,,,"2008-10-22"
"72253012921","2019-09-19T15:00:00","FM-12","4",,,,,,,,,,,,,,,,,,,,,,,,,,,,,,,,,,,,,,,"67","99",,,"+0.08","6","35","29.73","74","28.94","9.94","77","140",,"11",,,,,,,,,,,,,,,,,,,,,,,,,,,,,,,,,,,,,"SYN07472253 32866 41410 10372 20194 39800 40068 56027 92051 333 91014 555 91921=","FM-12","4",,,,,,,,,,,,,,,,,,,,,,,,,,,,"2008-10-22"
"72253012921","2019-09-19T15:51:00","FM-15","7",,,,,,,,,,,,,,,,,,,,,,,,,,,,,,,,,,,,,,"29.78","64","100","0.00",,,,"31","29.71","SCT:04 70 SCT:04 250","28.92","10.00","75","130",,"13",,,,,,,,,,,,,,,,,,,,,,,,,,,,,,,,,,,,,"MET13309/19/19 15:51:02 METAR KSAT 192151Z 13011KT 10SM SCT070 SCT250 38/18 A2978 RMK AO2 SLP062 TCU DSNT NW AND NE MOVG SE T03780178 (MBZ)","FM-15","7",,,,,,,,,,,,,,,,,,,,,,,,,,,,"2008-10-22"
"72253012921","2019-09-19T16:51:00","FM-15","7",,,,,,,,,,,,,,,,,,,,,,,,,,,,,,,,,,,,,,"29.77","65","99","0.00",,,,"33","29.71","SCT:04 70 SCT:04 250","28.91","10.00","75","VRB",,"9",,,,,,,,,,,,,,,,,,,,,,,,,,,,,,,,,,,,,"MET11809/19/19 16:51:02 METAR KSAT 192251Z 15008KT 10SM SCT070 SCT250 37/18 A2977 RMK AO2 SLP060 TCU DSNT NW T03720183 (MBZ)","FM-15","7",,,,,,,,,,,,,,,,,,,,,,,,,,,,"2008-10-22"
"72253012921","2019-09-19T17:51:00","FM-15","7",,,,,,,,,,,,,,,,,,,,,,,,,,,,,,,,,,,,,,"29.77","65","96","0.00",,"+0.02","6","36","29.71","SCT:04 70 SCT:04 250","28.91","10.00","75","150",,"10",,,,,,,,,,,,,,,,,,,,,,,,,,,,,,,,,,,,,"MET14109/19/19 17:51:02 METAR KSAT 192351Z 15009KT 10SM SCT070 SCT250 36/18 A2977 RMK AO2 SLP060 CB SHRA DSNT NE-E T03560183 10378 20333 56008 (JB)","FM-15","7",,,,,,,,,,,,,,,,,,,,,,,,,,,,"2008-10-22"
"72253012921","2019-09-19T18:00:00","FM-12","4",,,,,,,,,,,,,,,,,,,,,,,,,,,,,,,,,,,,,,,"65","96",,,"+0.02","6","36","29.71","74","28.92","9.94","75","150",,"10",,,,,,,,,,,,,,,,,,,,,,,,,,,,,,,,,,,,,"SYN08072253 32866 41509 10356 20183 39793 40060 56008 92351 333 10378 20261 555 92000=","FM-12","4",,,,,,,,,,,,,,,,,,,,,,,,,,,,"2008-10-22"
"72253012921","2019-09-19T18:51:00","FM-15","7",,,,,,,,,,,,,,,,,,,,,,,,,,,,,,,,,,,,,,"29.79","66","94","0.00",,,,"40","29.73","BKN:07 80 BKN:07 250","28.93","10.00","75","080",,"15",,,,,,,,,,,,,,,,,,,,,,,,,,,,,,,,,,,,,"MET16609/19/19 18:51:01 METAR KSAT 200051Z 08013KT 10SM BKN080 BKN250 34/19 A2979 RMK AO2 LTG DSNT E SLP067 WSHFT 50 TCU SHRA DSNT N-NE CB FRQ LTGIC DSNT E MOVG W T03440189","FM-15","7",,,,,,,,,,,,,,,,,,,,,,,,,,,,"2008-10-22"
"72253012921","2019-09-19T19:23:00","FM-16","7",,,,,,,,,,,,,,,,,,,,,,,,,,,,,,,,,,,,,,"29.82","70","86","T","TS:7 -RA:02 |RA TS TS |RA",,,"59",,"BKN:07 60 OVC:08 100","28.96","10.00","75","080","24","16",,,,,,,,,,,,,,,,,,,,,,,,,,,,,,,,,,,,,"MET17509/19/19 19:23:01 SPECI KSAT 200123Z 08014G21KT 10SM -TSRA BKN060CB OVC100 30/21 A2982 RMK AO2 LTG DSNT NE AND E RAB20 TSB20 PRESRR FRQ LTGICCG TS ALQDS MOVG W P0000 T03000211","FM-16","7",,,,,,,,,,,,,,,,,,,,,,,,,,,,"2008-10-22"
"72253012921","2019-09-19T19:37:00","FM-16","7",,,,,,,,,,,,,,,,,,,,,,,,,,,,,,,,,,,,,,"29.84","73","78","T","TS:7 RA:02 |RA TS TS |RA",,,"85",,"BKN:07 16 BKN:07 49 OVC:08 75","28.97","2.00","75","VRB","29","16",,,,,,,,,,,,,,,,,,,,,,,,,,,,,,,,,,,,,"MET19709/19/19 19:37:01 SPECI KSAT 200137Z 09014G25KT 2SM TSRA BKN016CB BKN049 OVC075 26/23 A2984 RMK AO2 LTG DSNT E AND SE RAB20 TSB20 PRESRR PK WND 0927/0126 FRQ LTGICCG TS AT AP MOVG W P0000 T02560228","FM-16","7",,,,,,,,,,,,,,,,,,,,,,,,,,,,"2008-10-22"
"72253012921","2019-09-19T19:42:00","FM-16","7",,,,,,,,,,,,,,,,,,,,,,,,,,,,,,,,,,,,,,"29.84","73","76","T","TS:7 +RA:02 SQ:2 |SQ RA TS |RA",,,"91",,"BKN:07 16 BKN:07 49 OVC:08 75","28.97","1.50","74","120","44","34",,,,,,,,,,,,,,,,,,,,,,,,,,,,,,,,,,,,,"MET21309/19/19 19:42:01 SPECI KSAT 200142Z 12030G38KT 1 1/2SM R13R/3000VP6000FT +TSRA SQ BKN016CB BKN049 OVC075 24/23 A2984 RMK AO2 LTG DSNT NE-SE RAB20 TSB20 PK WND 1338/0138 FRQ LTGICCG TS AT AP MOVG W P0000 T02440228","FM-16","7",,,,,,,,,,,,,,,,,,,,,,,,,,,,"2008-10-22"
"72253012921","2019-09-19T19:51:00","FM-15","7",,,,,,,,,,,,,,,,,,,,,,,,,,,,,,,,,,,,,,"29.84","72","78","0.31","TS:7 +RA:02 |RA TS TS |RA",,,"82","29.78","BKN:07 16 BKN:07 49 OVC:08 75","28.97","1.00","74","140",,"16",,,,,,,,,,,,,,,,,,,,,,,,,,,,,,,,,,,,,"MET21009/19/19 19:51:01 METAR KSAT 200151Z 14014KT 1SM R13R/3000VP6000FT +TSRA BKN016CB BKN049 OVC075 26/22 A2984 RMK AO2 LTG DSNT NE-SE RAB20 TSB20 SLP084 PK WND 1338/0138 FRQ LTGICCG TS AT AP MOVG W P0023 T02560222","FM-15","7",,,,,,,,,,,,,,,,,,,,,,,,,,,,"2008-10-22"
"72253012921","2019-09-19T20:04:00","FM-16","7",,,,,,,,,,,,,,,,,,,,,,,,,,,,,,,,,,,,,,"29.86","73","77","0.13","TS:7 +RA:02 BR:1 |RA TS |RA",,,"88",,"SCT:04 16 BKN:07 28 OVC:08 44","29.00","2.50","74","000",,"0",,,,,,,,,,,,,,,,,,,,,,,,,,,,,,,,,,,,,"MET17109/19/19 20:04:01 SPECI KSAT 200204Z 00000KT 2 1/2SM +TSRA BR SCT016CB BKN028 OVC044 25/23 A2986 RMK AO2 LTG DSNT NE-SE PRESRR CONS LTGICCG TS ALQDS MOVG W P0013 T02500228","FM-16","7",,,,,,,,,,,,,,,,,,,,,,,,,,,,"2008-10-22"
"72253012921","2019-09-19T20:22:00","FM-16","7",,,,,,,,,,,,,,,,,,,,,,,,,,,,,,,,,,,,,,"29.90","73","76","0.27","TS:7 +RA:02 BR:1 |RA TS |RA",,,"91",,"SCT:04 9 BKN:07 16 OVC:08 70","29.03","1.50","74","100","46","31s",,,,,,,,,,,,,,,,,,,,,,,,,,,,,,,,,,,,,"MET18509/19/19 20:22:01 SPECI KSAT 200222Z 10027G40KT 1 1/2SM +TSRA BR SCT009 BKN016CB OVC070 24/23 A2990 RMK AO2 PK WND 11040/0222 LTG DSNT ALQDS CONS LTGICCG TS AT AP MOVG W P0027 T02440228","FM-16","7",,,,,,,,,,,,,,,,,,,,,,,,,,,,"2008-10-22"
"72253012921","2019-09-19T20:49:00","FM-16","6",,,,,,,,,,,,,,,,,,,,,,,,,,,,,,,,,,,,,,"29.89","70","73",,"TS:7 +RA:02 BR:1 |RA TS |RA",,,"89",,"SCT:04 12 BKN:07 41 OVC:08 95","29.03","1.50","71","110","29","21",,,,,,,,,,,,,,,,,,,,,,,,,,,,,,,,,,,,,"MET18409/19/19 20:49:03 SPECI KSAT 200249Z 11018G25KT 1 1/2SM +TSRA BR SCT012CB BKN041 OVC095 23/21 A2989 RMK AO2 PK WND 11040/0222 LTG DSNT ALQDS FRQ LTGICCG TS ALQDS MOVG W P0055 FIBI (JB)","FM-16","6",,,,,,,,,,,,,,,,,,,,,,,,,,,,"2008-10-22"
"72253012921","2019-09-19T20:51:00","FM-15","7",,,,,,,,,,,,,,,,,,,,,,,,,,,,,,,,,,,,,,"29.89","70","73s","0.54","TS:7 +RA:02 BR:1 |RA TS |RA","-0.12","3","90","29.83","SCT:04 12 BKN:07 41 OVC:08 95","29.03","3.00","71","110","29","18",,,,,,,,,,,,,,,,,,,,,,,,,,,,,,,,,,,,,"MET19909/19/19 20:51:01 METAR KSAT 200251Z 11016G25KT 3SM +TSRA BR SCT012CB BKN041 OVC095 23/21 A2989 RMK AO2 PK WND 11040/0222 LTG DSNT ALQDS SLP102 FRQ LTGICCG TS ALQDS MOVG W P0056 60079 T02280211 53039","FM-15","7",,,,,,,,,,,,,,,,,,,,,,,,,,,,"2008-10-22"
"72253012921","2019-09-19T21:00:00","FM-12","4",,,,,,,,,,,,,,,,,,,,,,,,,,,,,,,,,,,,,,,"70","73s",,,"-0.12","3","90","29.83","15","29.04","2.98","71","110",,"18",,,,,,,,,,,,,,,,,,,,,,,,,,,,,,,,,,,,,"SYN09272253 11448 81116 10228 20211 39833 40102 53039 60207 710// 90251 333 91025 96010 555 92003=","FM-12","4",,,,,,,,,,,,,,,,,,,,,,,,,,,,"2008-10-22"
"72253012921","2019-09-19T21:20:00","FM-16","7",,,,,,,,,,,,,,,,,,,,,,,,,,,,,,,,,,,,,,"29.86","71","77","0.07","TS:7 -RA:02 |RA TS TS |RA",,,"82",,"SCT:04 60 BKN:07 100 OVC:08 160","29.00","8.00","73","160",,"18",,,,,,,,,,,,,,,,,,,,,,,,,,,,,,,,,,,,,"MET16709/19/19 21:20:02 SPECI KSAT 200320Z 16016KT 8SM -TSRA SCT060CB BKN100 OVC160 25/22 A2986 RMK AO2 LTG DSNT S-NW WSHFT 15 OCNL LTGICCCCG TS ALQDS MOVG W P0007 T02500217","FM-16","7",,,,,,,,,,,,,,,,,,,,,,,,,,,,"2008-10-22"
"72253012921","2019-09-19T21:51:00","FM-15","7",,,,,,,,,,,,,,,,,,,,,,,,,,,,,,,,,,,,,,"29.89","73","78","0.01","TS:7 -RA:02 |RA TS TS |RA",,,"85","29.83","FEW:02 60 BKN:07 110 OVC:08 160","29.03","10.00","75","130",,"10",,,,,,,,,,,,,,,,,,,,,,,,,,,,,,,,,,,,,"MET16509/19/19 21:51:02 METAR KSAT 200351Z 13009KT 10SM -TSRA FEW060 BKN110 OVC160 26/23 A2989 RMK AO2 LTG DSNT W SLP102 OCNL LTGICCCCG TS DSNT S-W MOVG SW P0007 T02560228","FM-15","7",,,,,,,,,,,,,,,,,,,,,,,,,,,,"2008-10-22"
"72253012921","2019-09-19T22:10:00","FM-16","7",,,,,,,,,,,,,,,,,,,,,,,,,,,,,,,,,,,,,,"29.88","74","78","T","-RA:02 |RA |RA",,,"87",,"FEW:02 60 BKN:07 100 OVC:08 160","29.01","10.00","75","VRB",,"5",,,,,,,,,,,,,,,,,,,,,,,,,,,,,,,,,,,,,"MET15009/19/19 22:10:02 SPECI KSAT 200410Z VRB04KT 10SM -RA FEW060 BKN100 OVC160 26/23 A2988 RMK AO2 LTG DSNT W TSE09 LTG DSNT S-W TS MOV SW P0000 T02560233","FM-16","7",,,,,,,,,,,,,,,,,,,,,,,,,,,,"2008-10-22"
"72253012921","2019-09-19T22:51:00","FM-15","7",,,,,,,,,,,,,,,,,,,,,,,,,,,,,,,,,,,,,,"29.89","75","78","T","-RA:02 |RA |RA",,,"90","29.83","FEW:02 26 BKN:07 120 OVC:08 210","29.03","10.00","76","040",,"3",,,,,,,,,,,,,,,,,,,,,,,,,,,,,,,,,,,,,"MET14609/19/19 22:51:02 METAR KSAT 200451Z 04003KT 10SM -RA FEW026 BKN120 OVC210 26/24 A2989 RMK AO2 TSE09 SLP100 LTG DSNT S-W TS MOV SW P0000 T02560239","FM-15","7",,,,,,,,,,,,,,,,,,,,,,,,,,,,"2008-10-22"
"72253012921","2019-09-19T23:01:00","FM-16","7",,,,,,,,,,,,,,,,,,,,,,,,,,,,,,,,,,,,,,"29.89","75","78","T",,,,"90",,"BKN:07 24 OVC:08 130","29.03","10.00","76","350",,"6",,,,,,,,,,,,,,,,,,,,,,,,,,,,,,,,,,,,,"MET10509/19/19 23:01:02 SPECI KSAT 200501Z 35005KT 10SM BKN024 OVC130 26/24 A2989 RMK AO2 RAE01 P0000 T02560239","FM-16","7",,,,,,,,,,,,,,,,,,,,,,,,,,,,"2008-10-22"
"72253012921","2019-09-19T23:51:00","FM-15","7",,,,,,,,,,,,,,,,,,,,,,,,,,,,,,,,,,,,,,"29.89","75","78","T",,"-0.01","3","90","29.83","BKN:07 19 OVC:08 230","29.03","10.00","76","110",,"7",,,,,,,,,,,,,,,,,,,,,,,,,,,,,,,,,,,,,"MET14609/19/19 23:51:02 METAR KSAT 200551Z 11006KT 10SM BKN019 OVC230 26/24 A2989 RMK AO2 RAE01 SLP103 P0000 60086 T02560239 10350 20222 403780222 53003","FM-15","7",,,,,,,,,,,,,,,,,,,,,,,,,,,,"2008-10-22"
"72253012921","2019-09-19T23:59:00","SOD  ","6",,,,,,,,,,,,,,,,"86",,,"28.98",,"9.0","21","7.0","0","100","72","110","46","0.86","0","0.0","130","36","TS RA BR",,,,,,,,,,,,,,,,,,,,,,,,,,,,,,,,,,,,,,,,,,,,,,,,,,,,,,,,"SOD75424 HR PRECIPITATION (IN): 0.86 SNOW DEPTH (IN):0     24 HR SNOWFALL (IN):0.0  WEATHER(CODE):13  24 HR MAX TEMP (F):10024 HR MIN TEMP (F): 72AVERAGE STATION PRESSURE:28.985 MINIMUM SEA LEVEL PRESSURE:29.70 TIME OF OCCURRENCE:1745 PEAK WIND SPEED (MPH): 46 PEAK WIND DIR (DEG):110 PEAK WIND TIME (LST):      FASTEST 2MIN SPEED (MPH): 36FASTEST 2MIN DIR (DEG):130 FASTEST 2MIN TIME (LST):     AVERAGE WIND SPEED (MPH): 9.0 24 HR AVG TEMP (F): 86DEPART FROM NORMAL:  7  HEATING DEGREE DAYS:  0 COOLING DEGREE DAYS: 21 LATEST DAY MAX TEMP (0700-1900 LST):100 LATEST NIGHT MIN TEMP(1900-0800 LST):78 HOURLY INCREMENTAL PRECIPITATION VALUES (IN):.00 0.00 0.00 0.00 0.00 0.00 0.00 0.00 0.00 0.00 0.00 0.00 0.00 0.00 0.00 0.00 0.00 0.00 0.00 0.31 0.54 0.01 T    T","SOD  ","6",,,,,,,,,,,,,,,,,,,,,,,,,"0621","1834",,"2008-10-22"
"72253012921","2019-09-20T00:00:00","FM-12","4",,,,,,,,,,,,,,,,,,,,,,,,,,,,,,,,,,,,,,,"75","78",,,"-0.01","3","90","29.83","15","29.04","9.94","76","110",,"7",,,,,,,,,,,,,,,,,,,,,,,,,,,,,,,,,,,,,"SYN08672253 12466 81106 10256 20239 39833 40103 53003 60221 90551 333 10350 20222 555 92006=","FM-12","4",,,,,,,,,,,,,,,,,,,,,,,,,,,,"2008-10-22"
"72253012921","2019-09-20T00:43:00","FM-16","7",,,,,,,,,,,,,,,,,,,,,,,,,,,,,,,,,,,,,,"29.91","75","79",,,,,"88",,"SCT:04 21 SCT:04 60 BKN:07 250","29.04","10.00","76","140",,"11",,,,,,,,,,,,,,,,,,,,,,,,,,,,,,,,,,,,,"MET10509/20/19 00:43:02 SPECI KSAT 200643Z 14010KT 10SM SCT021 SCT060 BKN250 26/24 A2991 RMK AO2 T02610239 (JB)","FM-16","7",,,,,,,,,,,,,,,,,,,,,,,,,,,,"2008-10-22"
"72253012921","2019-09-20T00:51:00","FM-15","7",,,,,,,,,,,,,,,,,,,,,,,,,,,,,,,,,,,,,,"29.91","75","79","0.00",,,,"88","29.85","SCT:04 21 SCT:04 60 BKN:07 250","29.04","10.00","76","140",,"9",,,,,,,,,,,,,,,,,,,,,,,,,,,,,,,,,,,,,"MET11209/20/19 00:51:02 METAR KSAT 200651Z 14008KT 10SM SCT021 SCT060 BKN250 26/24 A2991 RMK AO2 SLP109 T02610239 (JB)","FM-15","7",,,,,,,,,,,,,,,,,,,,,,,,,,,,"2008-10-22"
"72253012921","2019-09-20T01:51:00","FM-15","7",,,,,,,,,,,,,,,,,,,,,,,,,,,,,,,,,,,,,,"29.91","75","79","0.00",,,,"88","29.85","SCT:04 20 BKN:07 120 BKN:07 250","29.04","10.00","76","150",,"11",,,,,,,,,,,,,,,,,,,,,,,,,,,,,,,,,,,,,"MET11209/20/19 01:51:02 METAR KSAT 200751Z 15010KT 10SM SCT020 BKN120 BKN250 26/24 A2991 RMK AO2 SLP107 T02610239 (JB)","FM-15","7",,,,,,,,,,,,,,,,,,,,,,,,,,,,"2008-10-22"
"72253012921","2019-09-20T02:51:00","FM-15","7",,,,,,,,,,,,,,,,,,,,,,,,,,,,,,,,,,,,,,"29.90","75","79","0.00",,"-0.01","0","88","29.84","BKN:07 15 BKN:07 200","29.03","10.00","76","140",,"7",,,,,,,,,,,,,,,,,,,,,,,,,,,,,,,,,,,,,"MET11109/20/19 02:51:02 METAR KSAT 200851Z 14006KT 10SM BKN015 BKN200 26/24 A2990 RMK AO2 SLP105 T02610239 50002 (CM)","FM-15","7",,,,,,,,,,,,,,,,,,,,,,,,,,,,"2008-10-22"
"72253012921","2019-09-20T03:00:00","FM-12","4",,,,,,,,,,,,,,,,,,,,,,,,,,,,,,,,,,,,,,,"75","79",,,"0.01","9","88","29.84","15","29.05","9.94","76","140",,"7",,,,,,,,,,,,,,,,,,,,,,,,,,,,,,,,,,,,,"SYN06472253 32466 61406 10261 20239 39836 40105 50002 90851 555 92009=","FM-12","4",,,,,,,,,,,,,,,,,,,,,,,,,,,,"2008-10-22"
"72253012921","2019-09-20T03:42:00","FM-16","7",,,,,,,,,,,,,,,,,,,,,,,,,,,,,,,,,,,,,,"29.90","75","79",,,,,"88",,"SCT:04 16 BKN:07 250","29.03","10.00","76","150",,"8",,,,,,,,,,,,,,,,,,,,,,,,,,,,,,,,,,,,,"MET09809/20/19 03:42:02 SPECI KSAT 200942Z 15007KT 10SM SCT016 BKN250 26/24 A2990 RMK AO2 T02610239 (CM)","FM-16","7",,,,,,,,,,,,,,,,,,,,,,,,,,,,"2008-10-22"
"72253012921","2019-09-20T03:51:00","FM-15","7",,,,,,,,,,,,,,,,,,,,,,,,,,,,,,,,,,,,,,"29.90","75","79","0.00",,,,"88","29.84","SCT:04 15 BKN:07 250","29.03","10.00","76","150",,"8",,,,,,,,,,,,,,,,,,,,,,,,,,,,,,,,,,,,,"MET10509/20/19 03:51:02 METAR KSAT 200951Z 15007KT 10SM SCT015 BKN250 26/24 A2990 RMK AO2 SLP105 T02610239 (CM)","FM-15","7",,,,,,,,,,,,,,,,,,,,,,,,,,,,"2008-10-22"
"72253012921","2019-09-20T04:11:00","FM-16","7",,,,,,,,,,,,,,,,,,,,,,,,,,,,,,,,,,,,,,"29.91","75","79",,,,,"88",,"BKN:07 17 BKN:07 250","29.04","10.00","76","170",,"9",,,,,,,,,,,,,,,,,,,,,,,,,,,,,,,,,,,,,"MET09809/20/19 04:11:02 SPECI KSAT 201011Z 17008KT 10SM BKN017 BKN250 26/24 A2991 RMK AO2 T02610239 (CM)","FM-16","7",,,,,,,,,,,,,,,,,,,,,,,,,,,,"2008-10-22"
"72253012921","2019-09-20T04:51:00","FM-15","7",,,,,,,,,,,,,,,,,,,,,,,,,,,,,,,,,,,,,,"29.93","74","79","0.00",,,,"85","29.86","BKN:07 17 BKN:07 250","29.06","10.00","76","170",,"10",,,,,,,,,,,,,,,,,,,,,,,,,,,,,,,,,,,,,"MET10509/20/19 04:51:02 METAR KSAT 201051Z 17009KT 10SM BKN017 BKN250 26/23 A2993 RMK AO2 SLP113 T02610233 (CM)","FM-15","7",,,,,,,,,,,,,,,,,,,,,,,,,,,,"2008-10-22"
"72253012921","2019-09-20T05:10:00","FM-16","7",,,,,,,,,,,,,,,,,,,,,,,,,,,,,,,,,,,,,,"29.93","74","79",,,,,"85",,"SCT:04 17 BKN:07 250","29.06","10.00","76","170",,"9",,,,,,,,,,,,,,,,,,,,,,,,,,,,,,,,,,,,,"MET09809/20/19 05:10:02 SPECI KSAT 201110Z 17008KT 10SM SCT017 BKN250 26/23 A2993 RMK AO2 T02610233 (CM)","FM-16","7",,,,,,,,,,,,,,,,,,,,,,,,,,,,"2008-10-22"
"72253012921","2019-09-20T05:51:00","FM-15","7",,,,,,,,,,,,,,,,,,,,,,,,,,,,,,,,,,,,,,"29.94","72","78","0.00",,"-0.04","3","82","29.88","FEW:02 17 FEW:02 250","29.07","10.00","74","170",,"11",,,,,,,,,,,,,,,,,,,,,,,,,,,,,,,,,,,,,"MET12909/20/19 05:51:02 METAR KSAT 201151Z 17010KT 10SM FEW017 FEW250 26/22 A2994 RMK AO2 SLP118 70086 T02560222 10261 20256 53013 (CM)","FM-15","7",,,,,,,,,,,,,,,,,,,,,,,,,,,,"2008-10-22"
"72253012921","2019-09-20T06:00:00","FM-12","4",,,,,,,,,,,,,,,,,,,,,,,,,,,,,,,,,,,,,,,"72","78",,,"-0.04","3","82","29.88","15","29.09","9.94","74","170",,"11",,,,,,,,,,,,,,,,,,,,,,,,,,,,,,,,,,,,,"SYN08672253 32466 21710 10256 20222 39850 40118 53013 91151 333 10378 20222 70218 555 92012=","FM-12","4",,,,,,,,,,,,,,,,,,,,,,,,,,,,"2008-10-22"
"72253012921","2019-09-20T06:51:00","FM-15","7",,,,,,,,,,,,,,,,,,,,,,,,,,,,,,,,,,,,,,"29.95","73","78","0.00",,,,"85","29.89","FEW:02 17 SCT:04 250","29.08","10.00","75","150",,"8",,,,,,,,,,,,,,,,,,,,,,,,,,,,,,,,,,,,,"MET10509/20/19 06:51:02 METAR KSAT 201251Z 15007KT 10SM FEW017 SCT250 26/23 A2995 RMK AO2 SLP123 T02560228 (CM)","FM-15","7",,,,,,,,,,,,,,,,,,,,,,,,,,,,"2008-10-22"
"72253012921","2019-09-20T07:51:00","FM-15","7",,,,,,,,,,,,,,,,,,,,,,,,,,,,,,,,,,,,,,"29.97","74","80","0.00",,,,"82","29.92","SCT:04 17 BKN:07 250","29.10","10.00","76","160",,"11",,,,,,,,,,,,,,,,,,,,,,,,,,,,,,,,,,,,,"MET11509/20/19 07:51:02 METAR KSAT 201351Z 16010KT 10SM SCT017 BKN250 27/23 A2997 RMK AO2 SLP131 SCT V BKN T02670233 (CM)","FM-15","7",,,,,,,,,,,,,,,,,,,,,,,,,,,,"2008-10-22"
"72253012921","2019-09-20T08:51:00","FM-15","7",,,,,,,,,,,,,,,,,,,,,,,,,,,,,,,,,,,,,,"29.99","72","82","0.00",,"-0.05","3","72","29.93","SCT:04 22 SCT:04 250","29.12","10.00","75","140","23","18",,,,,,,,,,,,,,,,,,,,,,,,,,,,,,,,,,,,,"MET11409/20/19 08:51:02 METAR KSAT 201451Z 14016G20KT 10SM SCT022 SCT250 28/22 A2999 RMK AO2 SLP137 T02780222 53016 (CM)","FM-15","7",,,,,,,,,,,,,,,,,,,,,,,,,,,,"2008-10-22"
"72253012921","2019-09-20T09:00:00","FM-12","4",,,,,,,,,,,,,,,,,,,,,,,,,,,,,,,,,,,,,,,"72","82",,,"-0.05","3","72","29.93","26","29.13","9.94","75","140",,"18",,,,,,,,,,,,,,,,,,,,,,,,,,,,,,,,,,,,,"SYN07472253 32566 41416 10278 20222 39866 40137 53016 91451 333 91020 555 92015=","FM-12","4",,,,,,,,,,,,,,,,,,,,,,,,,,,,"2008-10-22"
"72253012921","2019-09-20T09:51:00","FM-15","7",,,,,,,,,,,,,,,,,,,,,,,,,,,,,,,,,,,,,,"29.99","69","86","0.00",,,,"57","29.94","SCT:04 33 BKN:07 250","29.12","10.00","74","150",,"15",,,,,,,,,,,,,,,,,,,,,,,,,,,,,,,,,,,,,"MET10509/20/19 09:51:02 METAR KSAT 201551Z 15013KT 10SM SCT033 BKN250 30/21 A2999 RMK AO2 SLP138 T03000206 (MB)","FM-15","7",,,,,,,,,,,,,,,,,,,,,,,,,,,,"2008-10-22"
"72253012921","2019-09-20T10:51:00","FM-15","7",,,,,,,,,,,,,,,,,,,,,,,,,,,,,,,,,,,,,,"29.99","67","90","0.00",,,,"47","29.93","SCT:04 42 SCT:04 250","29.12","10.00","74","160","23","14",,,,,,,,,,,,,,,,,,,,,,,,,,,,,,,,,,,,,"MET10809/20/19 10:51:02 METAR KSAT 201651Z 16012G20KT 10SM SCT042 SCT250 32/19 A2999 RMK AO2 SLP134 T03220194 (MB)","FM-15","7",,,,,,,,,,,,,,,,,,,,,,,,,,,,"2008-10-22"
"72253012921","2019-09-20T11:51:00","FM-15","7",,,,,,,,,,,,,,,,,,,,,,,,,,,,,,,,,,,,,,"29.96","68","92","0.00",,"+0.03","8","46","29.90","SCT:04 50 SCT:04 250","29.09","10.00","75","150",,"15",,,,,,,,,,,,,,,,,,,,,,,,,,,,,,,,,,,,,"MET12309/20/19 11:51:02 METAR KSAT 201751Z 15013KT 10SM SCT050 SCT250 33/20 A2996 RMK AO2 SLP126 T03330200 10333 20256 58009 (MB)","FM-15","7",,,,,,,,,,,,,,,,,,,,,,,,,,,,"2008-10-22"
"72253012921","2019-09-20T12:00:00","FM-12","4",,,,,,,,,,,,,,,,,,,,,,,,,,,,,,,,,,,,,,,"68","92",,,"+0.03","8","46","29.90","57","29.10","9.94","75","150",,"15",,,,,,,,,,,,,,,,,,,,,,,,,,,,,,,,,,,,,"SYN08072253 32766 41513 10333 20200 39856 40126 58009 91751 333 10333 20256 555 92018=","FM-12","4",,,,,,,,,,,,,,,,,,,,,,,,,,,,"2008-10-22"
"72253012921","2019-09-20T12:51:00","FM-15","7",,,,,,,,,,,,,,,,,,,,,,,,,,,,,,,,,,,,,,"29.93","67","95","0.00",,,,"40","29.87","SCT:04 60 SCT:04 250","29.06","10.00","76","130","25","16",,,,,,,,,,,,,,,,,,,,,,,,,,,,,,,,,,,,,"MET10809/20/19 12:51:02 METAR KSAT 201851Z 13014G22KT 10SM SCT060 SCT250 35/19 A2993 RMK AO2 SLP115 T03500194 (MB)","FM-15","7",,,,,,,,,,,,,,,,,,,,,,,,,,,,"2008-10-22"
"72253012921","2019-09-20T13:51:00","FM-15","7",,,,,,,,,,,,,,,,,,,,,,,,,,,,,,,,,,,,,,"29.91","64","93","0.00",,,,"38","29.85","SCT:04 65 SCT:04 250","29.04","10.00","73","150","24","16",,,,,,,,,,,,,,,,,,,,,,,,,,,,,,,,,,,,,"MET12609/20/19 13:51:02 METAR KSAT 201951Z 15014G21KT 10SM SCT065 SCT250 34/18 A2991 RMK AO2 PK WND 15027/1855 SLP108 T03390178 (MB)","FM-15","7",,,,,,,,,,,,,,,,,,,,,,,,,,,,"2008-10-22"
"72253012921","2019-09-20T14:51:00","FM-15","7",,,,,,,,,,,,,,,,,,,,,,,,,,,,,,,,,,,,,,"29.89","65","96","0.00",,"+0.07","6","36","29.83","SCT:04 70 SCT:04 250","29.03","10.00","75","140","25","17",,,,,,,,,,,,,,,,,,,,,,,,,,,,,,,,,,,,,"MET11409/20/19 14:51:02 METAR KSAT 202051Z 14015G22KT 10SM SCT070 SCT250 36/18 A2989 RMK AO2 SLP100 T03560183 56024 (MB)","FM-15","7",,,,,,,,,,,,,,,,,,,,,,,,,,,,"2008-10-22"
"72253012921","2019-09-20T15:00:00","FM-12","4",,,,,,,,,,,,,,,,,,,,,,,,,,,,,,,,,,,,,,,"65","96",,,"+0.07","6","36","29.83","74","29.04","9.94","75","140",,"17",,,,,,,,,,,,,,,,,,,,,,,,,,,,,,,,,,,,,"SYN07472253 32866 41415 10356 20183 39833 40100 56024 92051 333 91022 555 92021=","FM-12","4",,,,,,,,,,,,,,,,,,,,,,,,,,,,"2008-10-22"
"72253012921","2019-09-20T15:51:00","FM-15","7",,,,,,,,,,,,,,,,,,,,,,,,,,,,,,,,,,,,,,"29.88","70","91","0.00",,,,"50","29.83","SCT:04 70 SCT:04 90 SCT:04 250","29.01","10.00","76","130","29","20",,,,,,,,,,,,,,,,,,,,,,,,,,,,,,,,,,,,,"MET13309/20/19 15:51:02 METAR KSAT 202151Z 13017G25KT 10SM SCT070 SCT090 SCT250 33/21 A2988 RMK AO2 PK WND 14026/2056 SLP100 T03280211 (MB)","FM-15","7",,,,,,,,,,,,,,,,,,,,,,,,,,,,"2008-10-22"
"72253012921","2019-09-20T16:51:00","FM-15","7",,,,,,,,,,,,,,,,,,,,,,,,,,,,,,,,,,,,,,"29.89","71","91","0.00",,,,"52","29.83","FEW:02 49 FEW:02 60 SCT:04 250","29.03","10.00","77","130","29","22",,,,,,,,,,,,,,,,,,,,,,,,,,,,,,,,,,,,,"MET11509/20/19 16:51:02 METAR KSAT 202251Z 13019G25KT 10SM FEW049 FEW060 SCT250 33/22 A2989 RMK AO2 SLP102 T03280217 (MB)","FM-15","7",,,,,,,,,,,,,,,,,,,,,,,,,,,,"2008-10-22"
"72253012921","2019-09-20T17:51:00","FM-15","7",,,,,,,,,,,,,,,,,,,,,,,,,,,,,,,,,,,,,,"29.90","70","89","0.00",,"-0.01","3","53","29.84","FEW:02 49 SCT:04 65","29.03","10.00","76","120","30","23",,,,,,,,,,,,,,,,,,,,,,,,,,,,,,,,,,,,,"MET14409/20/19 17:51:02 METAR KSAT 202351Z 12020G26KT 10SM FEW049 SCT065 32/21 A2990 RMK AO2 PK WND 13026/2344 SLP106 T03170211 10361 20317 53005 (MB)","FM-15","7",,,,,,,,,,,,,,,,,,,,,,,,,,,,"2008-10-22"
"72253012921","2019-09-20T18:00:00","FM-12","4",,,,,,,,,,,,,,,,,,,,,,,,,,,,,,,,,,,,,,,"70","89",,,"-0.01","3","53","29.84","41","29.05","9.94","76","120",,"23",,,,,,,,,,,,,,,,,,,,,,,,,,,,,,,,,,,,,"SYN08672253 32666 41220 10317 20211 39836 40106 53005 92351 333 10361 20256 91026 555 92100=","FM-12","4",,,,,,,,,,,,,,,,,,,,,,,,,,,,"2008-10-22"
"72253012921","2019-09-20T18:51:00","FM-15","7",,,,,,,,,,,,,,,,,,,,,,,,,,,,,,,,,,,,,,"29.93","70","87","0.00",,,,"57","29.87","SCT:04 50 BKN:07 65","29.06","10.00","75","130","26","22",,,,,,,,,,,,,,,,,,,,,,,,,,,,,,,,,,,,,"MET12109/20/19 18:51:01 METAR KSAT 210051Z 13019G23KT 10SM SCT050 BKN065 31/21 A2993 RMK AO2 PK WND 14028/0041 SLP114 T03060211","FM-15","7",,,,,,,,,,,,,,,,,,,,,,,,,,,,"2008-10-22"
"72253012921","2019-09-20T19:51:00","FM-15","7",,,,,,,,,,,,,,,,,,,,,,,,,,,,,,,,,,,,,,"29.96","71","84","0.00",,,,"65","29.90","FEW:02 50","29.09","10.00","75","130",,"17",,,,,,,,,,,,,,,,,,,,,,,,,,,,,,,,,,,,,"MET11109/20/19 19:51:01 METAR KSAT 210151Z 13015KT 10SM FEW050 29/22 A2996 RMK AO2 PK WND 13026/0112 SLP125 T02890217","FM-15","7",,,,,,,,,,,,,,,,,,,,,,,,,,,,"2008-10-22"
"72253012921","2019-09-20T20:51:00","FM-15","7",,,,,,,,,,,,,,,,,,,,,,,,,,,,,,,,,,,,,,"29.99","72","82","0.00",,"-0.09","3","72","29.93","FEW:02 15","29.12","10.00","75","130",,"16",,,,,,,,,,,,,,,,,,,,,,,,,,,,,,,,,,,,,"MET09909/20/19 20:51:01 METAR KSAT 210251Z 13014KT 10SM FEW015 28/22 A2999 RMK AO2 SLP137 T02780222 53029","FM-15","7",,,,,,,,,,,,,,,,,,,,,,,,,,,,"2008-10-22"
"72253012921","2019-09-20T21:00:00","FM-12","4",,,,,,,,,,,,,,,,,,,,,,,,,,,,,,,,,,,,,,,"72","82",,,"-0.09","3","72","29.93","15","29.13","9.94","75","130",,"16",,,,,,,,,,,,,,,,,,,,,,,,,,,,,,,,,,,,,"SYN06472253 32466 21314 10278 20222 39866 40137 53029 90251 555 92103=","FM-12","4",,,,,,,,,,,,,,,,,,,,,,,,,,,,"2008-10-22"
"72253012921","2019-09-20T21:51:00","FM-15","7",,,,,,,,,,,,,,,,,,,,,,,,,,,,,,,,,,,,,,"30.02","73","81","0.00",,,,"77","29.97","FEW:02 22","29.15","10.00","75","140",,"14",,,,,,,,,,,,,,,,,,,,,,,,,,,,,,,,,,,,,"MET09309/20/19 21:51:02 METAR KSAT 210351Z 14012KT 10SM FEW022 27/23 A3002 RMK AO2 SLP148 T02720228","FM-15","7",,,,,,,,,,,,,,,,,,,,,,,,,,,,"2008-10-22"
"72253012921","2019-09-20T22:41:00","FM-16","7",,,,,,,,,,,,,,,,,,,,,,,,,,,,,,,,,,,,,,"30.03","73","80",,,,,"79",,"BKN:07 18","29.16","10.00","75","130",,"14",,,,,,,,,,,,,,,,,,,,,,,,,,,,,,,,,,,,,"MET08609/20/19 22:41:02 SPECI KSAT 210441Z 13012KT 10SM BKN018 27/23 A3003 RMK AO2 T02670228","FM-16","7",,,,,,,,,,,,,,,,,,,,,,,,,,,,"2008-10-22"
"72253012921","2019-09-20T22:51:00","FM-15","7",,,,,,,,,,,,,,,,,,,,,,,,,,,,,,,,,,,,,,"30.03","73","80","0.00",,,,"79","29.97","BKN:07 18","29.16","10.00","75","140",,"14",,,,,,,,,,,,,,,,,,,,,,,,,,,,,,,,,,,,,"MET09309/20/19 22:51:02 METAR KSAT 210451Z 14012KT 10SM BKN018 27/23 A3003 RMK AO2 SLP149 T02670228","FM-15","7",,,,,,,,,,,,,,,,,,,,,,,,,,,,"2008-10-22"
"72253012921","2019-09-20T23:51:00","FM-15","7",,,,,,,,,,,,,,,,,,,,,,,,,,,,,,,,,,,,,,"30.03","74","80","0.00",,"-0.04","1","82","29.98","BKN:07 19","29.16","10.00","76","130",,"16",,,,,,,,,,,,,,,,,,,,,,,,,,,,,,,,,,,,,"MET12109/20/19 23:51:02 METAR KSAT 210551Z 13014KT 10SM BKN019 27/23 A3003 RMK AO2 SLP151 T02670233 10317 20267 403610256 51014","FM-15","7",,,,,,,,,,,,,,,,,,,,,,,,,,,,"2008-10-22"
"72253012921","2019-09-20T23:59:00","SOD  ","6",,,,,,,,,,,,,,,,"88",,,"29.09",,"14.7","23","9.3","0","97","78","140","33","0.00","0","0.0","120","26",,,,,,,,,,,,,,,,,,,,,,,,,,,,,,,,,,,,,,,,,,,,,,,,,,,,,,,,,"SOD73924 HR PRECIPITATION (IN): 0.00 SNOW DEPTH (IN):0     24 HR SNOWFALL (IN):0.0  24 HR MAX TEMP (F): 9724 HR MIN TEMP (F): 78AVERAGE STATION PRESSURE:29.090 MINIMUM SEA LEVEL PRESSURE:29.82 TIME OF OCCURRENCE:1637 PEAK WIND SPEED (MPH): 33 PEAK WIND DIR (DEG):140 PEAK WIND TIME (LST):      FASTEST 2MIN SPEED (MPH): 26FASTEST 2MIN DIR (DEG):120 FASTEST 2MIN TIME (LST):     AVERAGE WIND SPEED (MPH):14.7 24 HR AVG TEMP (F): 88DEPART FROM NORMAL: 10  HEATING DEGREE DAYS:  0 COOLING DEGREE DAYS: 23 LATEST DAY MAX TEMP (0700-1900 LST):97  LATEST NIGHT MIN TEMP(1900-0800 LST):72 HOURLY INCREMENTAL PRECIPITATION VALUES (IN):.00 0.00 0.00 0.00 0.00 0.00 0.00 0.00 0.00 0.00 0.00 0.00 0.00 0.00 0.00 0.00 0.00 0.00 0.00 0.00 0.00 0.00 0.00 0.00","SOD  ","6",,,,,,,,,,,,,,,,,,,,,,,,,"0621","1833",,"2008-10-22"
"72253012921","2019-09-21T00:00:00","FM-12","4",,,,,,,,,,,,,,,,,,,,,,,,,,,,,,,,,,,,,,,"74","80",,,"-0.04","1","82","29.98","15","29.17","9.94","76","130",,"16",,,,,,,,,,,,,,,,,,,,,,,,,,,,,,,,,,,,,"SYN08072253 32466 61314 10267 20233 39879 40151 51014 90551 333 10317 20256 555 92106=","FM-12","4",,,,,,,,,,,,,,,,,,,,,,,,,,,,"2008-10-22"
"72253012921","2019-09-21T00:51:00","FM-15","6",,,,,,,,,,,,,,,,,,,,,,,,,,,,,,,,,,,,,,"30.02","74","79","0.00",,,,"85","29.96","BKN:07 15","29.15","10.00","76","140",,"15",,,,,,,,,,,,,,,,,,,,,,,,,,,,,,,,,,,,,"MET09809/21/19 00:51:02 METAR KSAT 210651Z 14013KT 10SM BKN015 26/23 A3002 RMK AO2 SLP146 T02610233 (JB)","FM-15","6",,,,,,,,,,,,,,,,,,,,,,,,,,,,"2008-10-22"
"72253012921","2019-09-21T01:24:00","FM-16","6",,,,,,,,,,,,,,,,,,,,,,,,,,,,,,,,,,,,,,"30.02","74","78",,,,,"87",,"BKN:07 13","29.15","10.00","75","130",,"13",,,,,,,,,,,,,,,,,,,,,,,,,,,,,,,,,,,,,"MET09109/21/19 01:24:02 SPECI KSAT 210724Z 13011KT 10SM BKN013 26/23 A3002 RMK AO2 T02560233 (JB)","FM-16","6",,,,,,,,,,,,,,,,,,,,,,,,,,,,"2008-10-22"
"72253012921","2019-09-21T01:51:00","FM-15","6",,,,,,,,,,,,,,,,,,,,,,,,,,,,,,,,,,,,,,"30.01","74","78","0.00",,,,"87","29.95","BKN:07 13","29.14","10.00","75","120",,"10",,,,,,,,,,,,,,,,,,,,,,,,,,,,,,,,,,,,,"MET09809/21/19 01:51:02 METAR KSAT 210751Z 12009KT 10SM BKN013 26/23 A3001 RMK AO2 SLP143 T02560233 (JB)","FM-15","6",,,,,,,,,,,,,,,,,,,,,,,,,,,,"2008-10-22"
"72253012921","2019-09-21T02:51:00","FM-15","6",,,,,,,,,,,,,,,,,,,,,,,,,,,,,,,,,,,,,,"30.01","74","78","0.00",,"+0.02","6","87","29.95","BKN:07 12 BKN:07 18","29.14","10.00","75","130",,"9",,,,,,,,,,,,,,,,,,,,,,,,,,,,,,,,,,,,,"MET11109/21/19 02:51:02 METAR KSAT 210851Z 13008KT 10SM BKN012 BKN018 26/23 A3001 RMK AO2 SLP141 T02560233 56008 (CM)","FM-15","6",,,,,,,,,,,,,,,,,,,,,,,,,,,,"2008-10-22"
"72253012921","2019-09-21T03:51:00","FM-15","6",,,,,,,,,,,,,,,,,,,,,,,,,,,,,,,,,,,,,,"30.01","74","77","0.00",,,,"90","29.95","BKN:07 12 OVC:08 25","29.14","10.00","75","140",,"9",,,,,,,,,,,,,,,,,,,,,,,,,,,,,,,,,,,,,"MET10509/21/19 03:51:02 METAR KSAT 210951Z 14008KT 10SM BKN012 OVC025 25/23 A3001 RMK AO2 SLP142 T02500233 (CM)","FM-15","6",,,,,,,,,,,,,,,,,,,,,,,,,,,,"2008-10-22"
"72253012921","2019-09-21T04:51:00","FM-15","6",,,,,,,,,,,,,,,,,,,,,,,,,,,,,,,,,,,,,,"30.03","74","77","0.00",,,,"90","29.97","BKN:07 10 OVC:08 23","29.16","10.00","75","120",,"8",,,,,,,,,,,,,,,,,,,,,,,,,,,,,,,,,,,,,"MET10509/21/19 04:51:02 METAR KSAT 211051Z 12007KT 10SM BKN010 OVC023 25/23 A3003 RMK AO2 SLP148 T02500233 (CM)","FM-15","6",,,,,,,,,,,,,,,,,,,,,,,,,,,,"2008-10-22"
"72253012921","2019-09-21T05:18:00","FM-16","6",,,,,,,,,,,,,,,,,,,,,,,,,,,,,,,,,,,,,,"30.03","74","76",,,,,"94",,"BKN:07 8 OVC:08 12","29.16","10.00","75","110",,"7",,,,,,,,,,,,,,,,,,,,,,,,,,,,,,,,,,,,,"MET09809/21/19 05:18:02 SPECI KSAT 211118Z 11006KT 10SM BKN008 OVC012 24/23 A3003 RMK AO2 T02440233 (CM)","FM-16","6",,,,,,,,,,,,,,,,,,,,,,,,,,,,"2008-10-22"
"72253012921","2019-09-21T05:51:00","FM-15","7",,,,,,,,,,,,,,,,,,,,,,,,,,,,,,,,,,,,,,"30.03","74","76","0.00",,"-0.02","3","94","29.98","BKN:07 7 OVC:08 19","29.16","9.00","75","120",,"7",,,,,,,,,,,,,,,,,,,,,,,,,,,,,,,,,,,,,"MET12209/21/19 05:51:02 METAR KSAT 211151Z 12006KT 9SM BKN007 OVC019 24/23 A3003 RMK AO2 SLP151 T02440233 10267 20244 53008 (CM)","FM-15","7",,,,,,,,,,,,,,,,,,,,,,,,,,,,"2008-10-22"
"72253012921","2019-09-21T06:00:00","FM-12","4",,,,,,,,,,,,,,,,,,,,,,,,,,,,,,,,,,,,,,,"74","76",,,"-0.02","3","94","29.98","8","29.17","8.70","75","120",,"7",,,,,,,,,,,,,,,,,,,,,,,,,,,,,,,,,,,,,"SYN08072253 32364 81206 10244 20233 39879 40151 53008 91151 333 10361 20244 555 92112=","FM-12","4",,,,,,,,,,,,,,,,,,,,,,,,,,,,"2008-10-22"
"72253012921","2019-09-21T06:51:00","FM-15","7",,,,,,,,,,,,,,,,,,,,,,,,,,,,,,,,,,,,,,"30.05","74","77","0.00",,,,"90","29.99","BKN:07 6 BKN:07 26","29.18","8.00","75","130",,"10",,,,,,,,,,,,,,,,,,,,,,,,,,,,,,,,,,,,,"MET10409/21/19 06:51:02 METAR KSAT 211251Z 13009KT 8SM BKN006 BKN026 25/23 A3005 RMK AO2 SLP156 T02500233 (CM)","FM-15","7",,,,,,,,,,,,,,,,,,,,,,,,,,,,"2008-10-22"
"72253012921","2019-09-21T07:51:00","FM-15","7",,,,,,,,,,,,,,,,,,,,,,,,,,,,,,,,,,,,,,"30.06","75","78","0.00",,,,"90","30.00","BKN:07 8 OVC:08 23","29.19","10.00","76","140",,"9",,,,,,,,,,,,,,,,,,,,,,,,,,,,,,,,,,,,,"MET11909/21/19 07:51:02 METAR KSAT 211351Z 14008KT 10SM BKN008 OVC023 26/24 A3006 RMK AO2 SLP160 SHRA DSNT N-E T02560239 (CM)","FM-15","7",,,,,,,,,,,,,,,,,,,,,,,,,,,,"2008-10-22"
"72253012921","2019-09-21T08:39:00","FM-16","7",,,,,,,,,,,,,,,,,,,,,,,,,,,,,,,,,,,,,,"30.07","75","80",,,,,"85",,"BKN:07 10 BKN:07 28","29.20","10.00","76","120",,"10",,,,,,,,,,,,,,,,,,,,,,,,,,,,,,,,,,,,,"MET09809/21/19 08:39:02 SPECI KSAT 211439Z 12009KT 10SM BKN010 BKN028 27/24 A3007 RMK AO2 T02670239 (CM)","FM-16","7",,,,,,,,,,,,,,,,,,,,,,,,,,,,"2008-10-22"
"72253012921","2019-09-21T08:51:00","FM-15","7",,,,,,,,,,,,,,,,,,,,,,,,,,,,,,,,,,,,,,"30.08","74","80","0.00",,"-0.04","3","82","30.02","BKN:07 10 BKN:07 28","29.21","10.00","76","130",,"8",,,,,,,,,,,,,,,,,,,,,,,,,,,,,,,,,,,,,"MET11109/21/19 08:51:02 METAR KSAT 211451Z 13007KT 10SM BKN010 BKN028 27/23 A3008 RMK AO2 SLP166 T02670233 53014 (CM)","FM-15","7",,,,,,,,,,,,,,,,,,,,,,,,,,,,"2008-10-22"
"72253012921","2019-09-21T09:00:00","FM-12","4",,,,,,,,,,,,,,,,,,,,,,,,,,,,,,,,,,,,,,,"74","80",,,"-0.04","3","82","30.02","15","29.22","9.94","76","130",,"8",,,,,,,,,,,,,,,,,,,,,,,,,,,,,,,,,,,,,"SYN06472253 32466 61307 10267 20233 39896 40166 53014 91451 555 92115=","FM-12","4",,,,,,,,,,,,,,,,,,,,,,,,,,,,"2008-10-22"
"72253012921","2019-09-21T09:20:00","FM-16","7",,,,,,,,,,,,,,,,,,,,,,,,,,,,,,,,,,,,,,"30.07","74","83",,,,,"74",,"SCT:04 11 BKN:07 16","29.20","10.00","77","140",,"11",,,,,,,,,,,,,,,,,,,,,,,,,,,,,,,,,,,,,"MET09809/21/19 09:20:02 SPECI KSAT 211520Z 14010KT 10SM SCT011 BKN016 28/23 A3007 RMK AO2 T02830233 (MB)","FM-16","7",,,,,,,,,,,,,,,,,,,,,,,,,,,,"2008-10-22"
"72253012921","2019-09-21T09:51:00","FM-15","7",,,,,,,,,,,,,,,,,,,,,,,,,,,,,,,,,,,,,,"30.07","73","86","0.00",,,,"65","30.01","SCT:04 20 BKN:07 29 BKN:07 47","29.20","10.00","77","130","22","15",,,,,,,,,,,,,,,,,,,,,,,,,,,,,,,,,,,,,"MET11509/21/19 09:51:02 METAR KSAT 211551Z 13013G19KT 10SM SCT020 BKN029 BKN047 30/23 A3007 RMK AO2 SLP164 T03000228 (MB)","FM-15","7",,,,,,,,,,,,,,,,,,,,,,,,,,,,"2008-10-22"
"72253012921","2019-09-21T10:42:00","FM-16","7",,,,,,,,,,,,,,,,,,,,,,,,,,,,,,,,,,,,,,"30.06","73","85","T","-RA:02 |RA |RA",,,"68",,"SCT:04 29 BKN:07 41 BKN:07 250","29.19","10.00","77","150",,"11",,,,,,,,,,,,,,,,,,,,,,,,,,,,,,,,,,,,,"MET12109/21/19 10:42:02 SPECI KSAT 211642Z 15010KT 10SM -RA SCT029 BKN041 BKN250 29/23 A3006 RMK AO2 RAB33 P0000 T02940228 (MB)","FM-16","7",,,,,,,,,,,,,,,,,,,,,,,,,,,,"2008-10-22"
"72253012921","2019-09-21T10:51:00","FM-15","7",,,,,,,,,,,,,,,,,,,,,,,,,,,,,,,,,,,,,,"30.06","74","87","T","-RA:02 |RA |RA",,,"65","30.00","SCT:04 29 BKN:07 41 BKN:07 250","29.19","10.00","78","170",,"9",,,,,,,,,,,,,,,,,,,,,,,,,,,,,,,,,,,,,"MET12809/21/19 10:51:02 METAR KSAT 211651Z 17008KT 10SM -RA SCT029 BKN041 BKN250 31/23 A3006 RMK AO2 RAB33 SLP160 P0000 T03060233 (MB)","FM-15","7",,,,,,,,,,,,,,,,,,,,,,,,,,,,"2008-10-22"
"72253012921","2019-09-21T11:51:00","FM-15","7",,,,,,,,,,,,,,,,,,,,,,,,,,,,,,,,,,,,,,"30.04","70","91","0.00",,"+0.04","8","50","29.98","BKN:07 34 BKN:07 100","29.17","10.00","76","170","21","11",,,,,,,,,,,,,,,,,,,,,,,,,,,,,,,,,,,,,"MET14609/21/19 11:51:02 METAR KSAT 211751Z 17010G18KT 10SM BKN034 BKN100 33/21 A3004 RMK AO2 RAE1652 SLP153 P0000 60000 T03280211 10328 20244 58012 (MB)","FM-15","7",,,,,,,,,,,,,,,,,,,,,,,,,,,,"2008-10-22"
"72253012921","2019-09-21T12:00:00","FM-12","4",,,,,,,,,,,,,,,,,,,,,,,,,,,,,,,,,,,,,,,"70","91",,,"+0.04","8","50","29.98","41","29.18","9.94","76","170",,"11",,,,,,,,,,,,,,,,,,,,,,,,,,,,,,,,,,,,,"SYN09272253 12666 61710 10328 20211 39883 40153 58012 69901 91751 333 10328 20244 91018 555 92118=","FM-12","4",,,,,,,,,,,,,,,,,,,,,,,,,,,,"2008-10-22"
"72253012921","2019-09-21T12:51:00","FM-15","7",,,,,,,,,,,,,,,,,,,,,,,,,,,,,,,,,,,,,,"30.03","68","90","0.00",,,,"48","29.97","SCT:04 42 BKN:07 100 BKN:07 250","29.16","10.00","75","130",,"20",,,,,,,,,,,,,,,,,,,,,,,,,,,,,,,,,,,,,"MET12609/21/19 12:51:02 METAR KSAT 211851Z 13017KT 10SM SCT042TCU BKN100 BKN250 32/20 A3003 RMK AO2 SLP148 TCU VCSH W T03220200 (MB)","FM-15","7",,,,,,,,,,,,,,,,,,,,,,,,,,,,"2008-10-22"
"72253012921","2019-09-21T13:51:00","FM-15","7",,,,,,,,,,,,,,,,,,,,,,,,,,,,,,,,,,,,,,"30.00","69","92","0.00",,,,"47","29.94","FEW:02 42 SCT:04 90 SCT:04 250","29.13","10.00","76","130","21","16",,,,,,,,,,,,,,,,,,,,,,,,,,,,,,,,,,,,,"MET13209/21/19 13:51:02 METAR KSAT 211951Z 13014G18KT 10SM FEW042 SCT090 SCT250 33/21 A3000 RMK AO2 SLP138 TCU SHRA DSNT NE T03330206 (MB)","FM-15","7",,,,,,,,,,,,,,,,,,,,,,,,,,,,"2008-10-22"
"72253012921","2019-09-21T14:51:00","FM-15","7",,,,,,,,,,,,,,,,,,,,,,,,,,,,,,,,,,,,,,"29.97","68","93","0.00",,"+0.07","8","44","29.91","FEW:02 50 SCT:04 90 SCT:04 250","29.10","10.00","76","130",,"14",,,,,,,,,,,,,,,,,,,,,,,,,,,,,,,,,,,,,"MET11809/21/19 14:51:02 METAR KSAT 212051Z 13012KT 10SM FEW050 SCT090 SCT250 34/20 A2997 RMK AO2 SLP129 T03390200 58023 (MB)","FM-15","7",,,,,,,,,,,,,,,,,,,,,,,,,,,,"2008-10-22"
"72253012921","2019-09-21T15:00:00","FM-12","4",,,,,,,,,,,,,,,,,,,,,,,,,,,,,,,,,,,,,,,"68","93",,,"+0.07","8","44","29.91","57","29.12","9.94","76","130",,"14",,,,,,,,,,,,,,,,,,,,,,,,,,,,,,,,,,,,,"SYN06472253 32766 41312 10339 20200 39860 40129 58023 92051 555 92121=","FM-12","4",,,,,,,,,,,,,,,,,,,,,,,,,,,,"2008-10-22"
"72253012921","2019-09-21T15:51:00","FM-15","7",,,,,,,,,,,,,,,,,,,,,,,,,,,,,,,,,,,,,,"29.95","69","93","0.00",,,,"46","29.89","FEW:02 50 FEW:02 200","29.08","10.00","76","150","23","17",,,,,,,,,,,,,,,,,,,,,,,,,,,,,,,,,,,,,"MET12409/21/19 15:51:02 METAR KSAT 212151Z 15015G20KT 10SM FEW050 FEW200 34/21 A2995 RMK AO2 SLP122 TCU SHRA DSNT E T03390206 (MB)","FM-15","7",,,,,,,,,,,,,,,,,,,,,,,,,,,,"2008-10-22"
"72253012921","2019-09-21T16:51:00","FM-15","7",,,,,,,,,,,,,,,,,,,,,,,,,,,,,,,,,,,,,,"29.94","68","92","0.00",,,,"46","29.88","FEW:02 50 FEW:02 100","29.07","10.00","75","130",,"17",,,,,,,,,,,,,,,,,,,,,,,,,,,,,,,,,,,,,"MET12909/21/19 16:51:02 METAR KSAT 212251Z 13015KT 10SM FEW050 FEW100 33/20 A2994 RMK AO2 SLP119 TCU SHRA DSNT NW AND NE T03330200 (MB)","FM-15","7",,,,,,,,,,,,,,,,,,,,,,,,,,,,"2008-10-22"
"72253012921","2019-09-21T17:51:00","FM-15","7",,,,,,,,,,,,,,,,,,,,,,,,,,,,,,,,,,,,,,"29.94","68","90","0.00",,"+0.03","5","48","29.88","BKN:07 55 BKN:07 100","29.07","10.00","75","120",,"15",,,,,,,,,,,,,,,,,,,,,,,,,,,,,,,,,,,,,"MET14609/21/19 17:51:02 METAR KSAT 212351Z 12013KT 10SM BKN055 BKN100 32/20 A2994 RMK AO2 SLP120 SHRA DSNT N FU AT AP E T03220200 10344 20306 55009 (MB)","FM-15","7",,,,,,,,,,,,,,,,,,,,,,,,,,,,"2008-10-22"
"72253012921","2019-09-21T18:00:00","FM-12","4",,,,,,,,,,,,,,,,,,,,,,,,,,,,,,,,,,,,,,,"68","90",,,"+0.03","5","48","29.88","57","29.09","9.94","75","120",,"15",,,,,,,,,,,,,,,,,,,,,,,,,,,,,,,,,,,,,"SYN08072253 32766 61213 10322 20200 39850 40120 55009 92351 333 10344 20244 555 92200=","FM-12","4",,,,,,,,,,,,,,,,,,,,,,,,,,,,"2008-10-22"
"72253012921","2019-09-21T18:51:00","FM-15","7",,,,,,,,,,,,,,,,,,,,,,,,,,,,,,,,,,,,,,"29.96","65","87","0.00",,,,"48","29.91","BKN:07 60","29.09","10.00","72","150",,"15",,,,,,,,,,,,,,,,,,,,,,,,,,,,,,,,,,,,,"MET09309/21/19 18:51:01 METAR KSAT 220051Z 15013KT 10SM BKN060 31/18 A2996 RMK AO2 SLP127 T03060183","FM-15","7",,,,,,,,,,,,,,,,,,,,,,,,,,,,"2008-10-22"
"72253012921","2019-09-21T19:51:00","FM-15","7",,,,,,,,,,,,,,,,,,,,,,,,,,,,,,,,,,,,,,"29.99","69","84","0.00",,,,"61","29.93","SCT:04 60","29.12","10.00","74","140",,"17",,,,,,,,,,,,,,,,,,,,,,,,,,,,,,,,,,,,,"MET09309/21/19 19:51:01 METAR KSAT 220151Z 14015KT 10SM SCT060 29/21 A2999 RMK AO2 SLP136 T02890206","FM-15","7",,,,,,,,,,,,,,,,,,,,,,,,,,,,"2008-10-22"
"72253012921","2019-09-21T20:51:00","FM-15","7",,,,,,,,,,,,,,,,,,,,,,,,,,,,,,,,,,,,,,"30.01","69","82","0.00",,"-0.06","3","65","29.95","FEW:02 60","29.14","10.00","73","140",,"17",,,,,,,,,,,,,,,,,,,,,,,,,,,,,,,,,,,,,"MET09909/21/19 20:51:01 METAR KSAT 220251Z 14015KT 10SM FEW060 28/21 A3001 RMK AO2 SLP143 T02780206 53021","FM-15","7",,,,,,,,,,,,,,,,,,,,,,,,,,,,"2008-10-22"
"72253012921","2019-09-21T21:00:00","FM-12","4",,,,,,,,,,,,,,,,,,,,,,,,,,,,,,,,,,,,,,,"69","82",,,"-0.06","3","65","29.95","57","29.15","9.94","73","140",,"17",,,,,,,,,,,,,,,,,,,,,,,,,,,,,,,,,,,,,"SYN06472253 32766 21415 10278 20206 39873 40143 53021 90251 555 92203=","FM-12","4",,,,,,,,,,,,,,,,,,,,,,,,,,,,"2008-10-22"
"72253012921","2019-09-21T21:51:00","FM-15","7",,,,,,,,,,,,,,,,,,,,,,,,,,,,,,,,,,,,,,"30.03","71","80","0.00",,,,"74","29.97","CLR:00","29.16","10.00","74","140",,"15",,,,,,,,,,,,,,,,,,,,,,,,,,,,,,,,,,,,,"MET09009/21/19 21:51:02 METAR KSAT 220351Z 14013KT 10SM CLR 27/22 A3003 RMK AO2 SLP148 T02670217","FM-15","7",,,,,,,,,,,,,,,,,,,,,,,,,,,,"2008-10-22"
"72253012921","2019-09-21T22:51:00","FM-15","7",,,,,,,,,,,,,,,,,,,,,,,,,,,,,,,,,,,,,,"30.03","72","79","0.00",,,,"79","29.98","CLR:00","29.16","10.00","74","130",,"15",,,,,,,,,,,,,,,,,,,,,,,,,,,,,,,,,,,,,"MET09009/21/19 22:51:02 METAR KSAT 220451Z 13013KT 10SM CLR 26/22 A3003 RMK AO2 SLP151 T02610222","FM-15","7",,,,,,,,,,,,,,,,,,,,,,,,,,,,"2008-10-22"
"72253012921","2019-09-21T23:24:00","FM-16","7",,,,,,,,,,,,,,,,,,,,,,,,,,,,,,,,,,,,,,"30.03","72","78",,,,,"82",,"BKN:07 19","29.16","10.00","74","130",,"9",,,,,,,,,,,,,,,,,,,,,,,,,,,,,,,,,,,,,"MET08609/21/19 23:24:02 SPECI KSAT 220524Z 13008KT 10SM BKN019 26/22 A3003 RMK AO2 T02560222","FM-16","7",,,,,,,,,,,,,,,,,,,,,,,,,,,,"2008-10-22"
"72253012921","2019-09-21T23:51:00","FM-15","7",,,,,,,,,,,,,,,,,,,,,,,,,,,,,,,,,,,,,,"30.03","72","78","0.00",,"-0.02","0","82","29.97","BKN:07 22","29.16","10.00","74","140",,"11",,,,,,,,,,,,,,,,,,,,,,,,,,,,,,,,,,,,,"MET12109/21/19 23:51:02 METAR KSAT 220551Z 14010KT 10SM BKN022 26/22 A3003 RMK AO2 SLP148 T02560222 10322 20256 403440244 50007","FM-15","7",,,,,,,,,,,,,,,,,,,,,,,,,,,,"2008-10-22"
"72253012921","2019-09-21T23:59:00","SOD  ","6",,,,,,,,,,,,,,,,"85",,,"29.14",,"13.0","20","6.6","0","94","76","140","29","T","0","0.0","140","24","RA",,,,,,,,,,,,,,,,,,,,,,,,,,,,,,,,,,,,,,,,,,,,,,,,,,,,,,,,"SOD73924 HR PRECIPITATION (IN):    T SNOW DEPTH (IN):0     24 HR SNOWFALL (IN):0.0  24 HR MAX TEMP (F): 9424 HR MIN TEMP (F): 76AVERAGE STATION PRESSURE:29.140 MINIMUM SEA LEVEL PRESSURE:29.88 TIME OF OCCURRENCE:1750 PEAK WIND SPEED (MPH): 29 PEAK WIND DIR (DEG):140 PEAK WIND TIME (LST):      FASTEST 2MIN SPEED (MPH): 24FASTEST 2MIN DIR (DEG):140 FASTEST 2MIN TIME (LST):     AVERAGE WIND SPEED (MPH):13.0 24 HR AVG TEMP (F): 85DEPART FROM NORMAL:  7  HEATING DEGREE DAYS:  0 COOLING DEGREE DAYS: 20 LATEST DAY MAX TEMP (0700-1900 LST):94  LATEST NIGHT MIN TEMP(1900-0800 LST):76 HOURLY INCREMENTAL PRECIPITATION VALUES (IN):.00 0.00 0.00 0.00 0.00 0.00 0.00 0.00 0.00 0.00 T    0.00 0.00 0.00 0.00 0.00 0.00 0.00 0.00 0.00 0.00 0.00 0.00 0.00","SOD  ","6",,,,,,,,,,,,,,,,,,,,,,,,,"0622","1832",,"2008-10-22"
"72253012921","2019-09-22T00:00:00","FM-12","4",,,,,,,,,,,,,,,,,,,,,,,,,,,,,,,,,,,,,,,"72","78",,,"0.02","9","82","29.97","26","29.17","9.94","74","140",,"11",,,,,,,,,,,,,,,,,,,,,,,,,,,,,,,,,,,,,"SYN08072253 32566 61410 10256 20222 39879 40148 50007 90551 333 10322 20244 555 92206=","FM-12","4",,,,,,,,,,,,,,,,,,,,,,,,,,,,"2008-10-22"
"72253012921","2019-09-22T00:51:00","FM-15","7",,,,,,,,,,,,,,,,,,,,,,,,,,,,,,,,,,,,,,"30.03","72","77",,,,,"85","29.97","BKN:07 18","29.16","10.00","74","130",,"9",,,,,,,,,,,,,,,,,,,,,,,,,,,,,,,,,,,,,"MET09309/22/19 00:51:02 METAR KSAT 220651Z 13008KT 10SM BKN018 25/22 A3003 RMK AO2 SLP148 T02500222","FM-15","7",,,,,,,,,,,,,,,,,,,,,,,,,,,,"2008-10-22"
"72253012921","2019-09-22T01:51:00","FM-15","7",,,,,,,,,,,,,,,,,,,,,,,,,,,,,,,,,,,,,,"30.02","72","76",,,,,"88","29.97","BKN:07 20 BKN:07 25","29.15","10.00","73","130",,"8",,,,,,,,,,,,,,,,,,,,,,,,,,,,,,,,,,,,,"MET10009/22/19 01:51:02 METAR KSAT 220751Z 13007KT 10SM BKN020 BKN025 24/22 A3002 RMK AO2 SLP148 T02440222","FM-15","7",,,,,,,,,,,,,,,,,,,,,,,,,,,,"2008-10-22"
"72253012921","2019-09-22T02:51:00","FM-15","7",,,,,,,,,,,,,,,,,,,,,,,,,,,,,,,,,,,,,,"30.01","72","76",,,"+0.01","8","88","29.96","BKN:07 15","29.14","10.00","73","130",,"7",,,,,,,,,,,,,,,,,,,,,,,,,,,,,,,,,,,,,"MET09909/22/19 02:51:02 METAR KSAT 220851Z 13006KT 10SM BKN015 24/22 A3001 RMK AO2 SLP144 T02440222 58005","FM-15","7",,,,,,,,,,,,,,,,,,,,,,,,,,,,"2008-10-22"
"72253012921","2019-09-22T03:00:00","FM-12","4",,,,,,,,,,,,,,,,,,,,,,,,,,,,,,,,,,,,,,,"72","76",,,"+0.01","8","88","29.96","15","29.15","9.94","73","130",,"7",,,,,,,,,,,,,,,,,,,,,,,,,,,,,,,,,,,,,"SYN06472253 32466 61306 10244 20222 39873 40144 58005 90851 555 92209=","FM-12","4",,,,,,,,,,,,,,,,,,,,,,,,,,,,"2008-10-22"
"72253012921","2019-09-22T03:51:00","FM-15","7",,,,,,,,,,,,,,,,,,,,,,,,,,,,,,,,,,,,,,"30.01","73","76",,,,,"91","29.95","BKN:07 15 BKN:07 26","29.14","10.00","74","120",,"6",,,,,,,,,,,,,,,,,,,,,,,,,,,,,,,,,,,,,"MET10009/22/19 03:51:02 METAR KSAT 220951Z 12005KT 10SM BKN015 BKN026 24/23 A3001 RMK AO2 SLP143 T02440228","FM-15","7",,,,,,,,,,,,,,,,,,,,,,,,,,,,"2008-10-22"
"72253012921","2019-09-22T04:22:00","FM-16","7",,,,,,,,,,,,,,,,,,,,,,,,,,,,,,,,,,,,,,"30.02","73","75",,,,,"94",,"BKN:07 13 OVC:08 39","29.15","10.00","74","110",,"5",,,,,,,,,,,,,,,,,,,,,,,,,,,,,,,,,,,,,"MET09309/22/19 04:22:02 SPECI KSAT 221022Z 11004KT 10SM BKN013 OVC039 24/23 A3002 RMK AO2 T02390228","FM-16","7",,,,,,,,,,,,,,,,,,,,,,,,,,,,"2008-10-22"
"72253012921","2019-09-22T04:51:00","FM-15","7",,,,,,,,,,,,,,,,,,,,,,,,,,,,,,,,,,,,,,"30.02","73","76",,,,,"91","29.96","BKN:07 13 OVC:08 39","29.15","10.00","74","110",,"5",,,,,,,,,,,,,,,,,,,,,,,,,,,,,,,,,,,,,"MET10009/22/19 04:51:02 METAR KSAT 221051Z 11004KT 10SM BKN013 OVC039 24/23 A3002 RMK AO2 SLP147 T02440228","FM-15","7",,,,,,,,,,,,,,,,,,,,,,,,,,,,"2008-10-22"
"72253012921","2019-09-22T05:51:00","FM-15","7",,,,,,,,,,,,,,,,,,,,,,,,,,,,,,,,,,,,,,"30.03","73","75",,,"-0.02","3","94","29.98","OVC:08 13","29.16","10.00","74","110",,"5",,,,,,,,,,,,,,,,,,,,,,,,,,,,,,,,,,,,,"MET11109/22/19 05:51:02 METAR KSAT 221151Z 11004KT 10SM OVC013 24/23 A3003 RMK AO2 SLP151 T02390228 10256 20239 53007","FM-15","7",,,,,,,,,,,,,,,,,,,,,,,,,,,,"2008-10-22"
"72253012921","2019-09-22T05:53:00","FM-16","7",,,,,,,,,,,,,,,,,,,,,,,,,,,,,,,,,,,,,,"30.03","73","75",,,,,"94",,"BKN:07 9 OVC:08 19","29.16","10.00","74","110",,"6",,,,,,,,,,,,,,,,,,,,,,,,,,,,,,,,,,,,,"MET09309/22/19 05:53:02 SPECI KSAT 221153Z 11005KT 10SM BKN009 OVC019 24/23 A3003 RMK AO2 T02390228","FM-16","7",,,,,,,,,,,,,,,,,,,,,,,,,,,,"2008-10-22"
"72253012921","2019-09-22T06:00:00","FM-12","4",,,,,,,,,,,,,,,,,,,,,,,,,,,,,,,,,,,,,,,"73","75",,,"-0.02","3","94","29.98","15","29.17","9.94","74","110",,"5",,,,,,,,,,,,,,,,,,,,,,,,,,,,,,,,,,,,,"SYN08072253 32466 81104 10239 20228 39879 40151 53007 91151 333 10344 20239 555 92212=","FM-12","4",,,,,,,,,,,,,,,,,,,,,,,,,,,,"2008-10-22"
"72253012921","2019-09-22T06:51:00","FM-15","7",,,,,,,,,,,,,,,,,,,,,,,,,,,,,,,,,,,,,,"30.05","73","76","0.05","-RA:02 |RA |RA",,,"91","29.99","BKN:07 8 OVC:08 19","29.18","10.00","74","100",,"5",,,,,,,,,,,,,,,,,,,,,,,,,,,,,,,,,,,,,"MET11609/22/19 06:51:02 METAR KSAT 221251Z 10004KT 10SM -RA BKN008 OVC019 24/23 A3005 RMK AO2 RAB23 SLP156 P0005 T02440228","FM-15","7",,,,,,,,,,,,,,,,,,,,,,,,,,,,"2008-10-22"
"72253012921","2019-09-22T07:24:00","FM-16","7",,,,,,,,,,,,,,,,,,,,,,,,,,,,,,,,,,,,,,"30.05","74","76","T",,,,"94",,"SCT:04 9 BKN:07 36 BKN:07 250","29.18","10.00","75","100",,"6",,,,,,,,,,,,,,,,,,,,,,,,,,,,,,,,,,,,,"MET12209/22/19 07:24:02 SPECI KSAT 221324Z 10005KT 10SM SCT009 BKN036 BKN250 24/23 A3005 RMK AO2 RAE16 SCT V BKN P0000 T02440233","FM-16","7",,,,,,,,,,,,,,,,,,,,,,,,,,,,"2008-10-22"
"72253012921","2019-09-22T07:51:00","FM-15","7",,,,,,,,,,,,,,,,,,,,,,,,,,,,,,,,,,,,,,"30.05","74","77","T",,,,"90","30.00","SCT:04 9 BKN:07 33 BKN:07 250","29.18","10.00","75","120",,"7",,,,,,,,,,,,,,,,,,,,,,,,,,,,,,,,,,,,,"MET12909/22/19 07:51:02 METAR KSAT 221351Z 12006KT 10SM SCT009 BKN033 BKN250 25/23 A3005 RMK AO2 RAE16 SLP159 SCT V BKN P0000 T02500233","FM-15","7",,,,,,,,,,,,,,,,,,,,,,,,,,,,"2008-10-22"
"72253012921","2019-09-22T08:07:00","FM-16","7",,,,,,,,,,,,,,,,,,,,,,,,,,,,,,,,,,,,,,"30.06","74","77",,,,,"90",,"BKN:07 10 BKN:07 33 BKN:07 250","29.19","10.00","75","120",,"7",,,,,,,,,,,,,,,,,,,,,,,,,,,,,,,,,,,,,"MET10009/22/19 08:07:02 SPECI KSAT 221407Z 12006KT 10SM BKN010 BKN033 BKN250 25/23 A3006 RMK AO2 T02500233","FM-16","7",,,,,,,,,,,,,,,,,,,,,,,,,,,,"2008-10-22"
"72253012921","2019-09-22T08:51:00","FM-15","7",,,,,,,,,,,,,,,,,,,,,,,,,,,,,,,,,,,,,,"30.06","74","80",,,"-0.03","1","82","30.01","SCT:04 10 BKN:07 15 BKN:07 23","29.19","10.00","76","190",,"8",,,,,,,,,,,,,,,,,,,,,,,,,,,,,,,,,,,,,"MET11909/22/19 08:51:02 METAR KSAT 221451Z 19007KT 10SM SCT010 BKN015 BKN023 27/23 A3006 RMK AO2 SLP162 60005 T02670233 51010","FM-15","7",,,,,,,,,,,,,,,,,,,,,,,,,,,,"2008-10-22"
"72253012921","2019-09-22T09:00:00","FM-12","4",,,,,,,,,,,,,,,,,,,,,,,,,,,,,,,,,,,,,,,"74","80",,,"-0.03","1","82","30.01","15","29.20","9.94","76","190",,"8",,,,,,,,,,,,,,,,,,,,,,,,,,,,,,,,,,,,,"SYN07072253 12466 61907 10267 20233 39889 40162 51010 60017 91451 555 92215=","FM-12","4",,,,,,,,,,,,,,,,,,,,,,,,,,,,"2008-10-22"
"72253012921","2019-09-22T09:51:00","FM-15","7",,,,,,,,,,,,,,,,,,,,,,,,,,,,,,,,,,,,,,"30.06","73","84",,,,,"70","30.00","BKN:07 21 BKN:07 250","29.19","10.00","76","140",,"11",,,,,,,,,,,,,,,,,,,,,,,,,,,,,,,,,,,,,"MET10009/22/19 09:51:02 METAR KSAT 221551Z 14010KT 10SM BKN021 BKN250 29/23 A3006 RMK AO2 SLP159 T02890228","FM-15","7",,,,,,,,,,,,,,,,,,,,,,,,,,,,"2008-10-22"
"72253012921","2019-09-22T10:33:00","FM-16","7",,,,,,,,,,,,,,,,,,,,,,,,,,,,,,,,,,,,,,"30.04","71","86",,,,,"61",,"BKN:07 31 BKN:07 250","29.17","10.00","76","140",,"14",,,,,,,,,,,,,,,,,,,,,,,,,,,,,,,,,,,,,"MET09309/22/19 10:33:02 SPECI KSAT 221633Z 14012KT 10SM BKN031 BKN250 30/22 A3004 RMK AO2 T03000217","FM-16","7",,,,,,,,,,,,,,,,,,,,,,,,,,,,"2008-10-22"
"72253012921","2019-09-22T10:51:00","FM-15","7",,,,,,,,,,,,,,,,,,,,,,,,,,,,,,,,,,,,,,"30.04","70","85",,,,,"61","29.98","BKN:07 31 BKN:07 250","29.17","10.00","75","160",,"10",,,,,,,,,,,,,,,,,,,,,,,,,,,,,,,,,,,,,"MET10009/22/19 10:51:02 METAR KSAT 221651Z 16009KT 10SM BKN031 BKN250 29/21 A3004 RMK AO2 SLP153 T02940211","FM-15","7",,,,,,,,,,,,,,,,,,,,,,,,,,,,"2008-10-22"
"72253012921","2019-09-22T11:51:00","FM-15","7",,,,,,,,,,,,,,,,,,,,,,,,,,,,,,,,,,,,,,"30.02","70","90",,,"+0.04","8","52","29.96","BKN:07 39 BKN:07 250","29.15","10.00","76","210",,"8",,,,,,,,,,,,,,,,,,,,,,,,,,,,,,,,,,,,,"MET12409/22/19 11:51:02 METAR KSAT 221751Z 21007KT 10SM BKN039 BKN250 32/21 A3002 RMK AO2 SLP147 60005 T03220211 10322 20239 58014","FM-15","7",,,,,,,,,,,,,,,,,,,,,,,,,,,,"2008-10-22"
"72253012921","2019-09-22T12:00:00","FM-12","4",,,,,,,,,,,,,,,,,,,,,,,,,,,,,,,,,,,,,,,"70","90",,,"+0.04","8","52","29.96","41","29.16","9.94","76","210",,"8",,,,,,,,,,,,,,,,,,,,,,,,,,,,,,,,,,,,,"SYN08672253 12666 62107 10322 20211 39876 40147 58014 60011 91751 333 10322 20239 555 92218=","FM-12","4",,,,,,,,,,,,,,,,,,,,,,,,,,,,"2008-10-22"
"72253012921","2019-09-22T12:51:00","FM-15","7",,,,,,,,,,,,,,,,,,,,,,,,,,,,,,,,,,,,,,"30.00","68","89",,,,,"50","29.94","BKN:07 45 BKN:07 250","29.13","10.00","75","180",,"6",,,,,,,,,,,,,,,,,,,,,,,,,,,,,,,,,,,,,"MET10009/22/19 12:51:02 METAR KSAT 221851Z 18005KT 10SM BKN045 BKN250 32/20 A3000 RMK AO2 SLP140 T03170200","FM-15","7",,,,,,,,,,,,,,,,,,,,,,,,,,,,"2008-10-22"
"72253012921","2019-09-22T13:51:00","FM-15","7",,,,,,,,,,,,,,,,,,,,,,,,,,,,,,,,,,,,,,"29.97","66","92",,,,,"43","29.92","BKN:07 55 BKN:07 250","29.10","10.00","74","150","21","8",,,,,,,,,,,,,,,,,,,,,,,,,,,,,,,,,,,,,"MET10309/22/19 13:51:02 METAR KSAT 221951Z 15007G18KT 10SM BKN055 BKN250 33/19 A2997 RMK AO2 SLP131 T03330189","FM-15","7",,,,,,,,,,,,,,,,,,,,,,,,,,,,"2008-10-22"
"72253012921","2019-09-22T14:51:00","FM-15","7",,,,,,,,,,,,,,,,,,,,,,,,,,,,,,,,,,,,,,"29.95","66","93",,,"+0.07","8","41","29.89","BKN:07 60 BKN:07 250","29.08","10.00","75","100",,"5",,,,,,,,,,,,,,,,,,,,,,,,,,,,,,,,,,,,,"MET10609/22/19 14:51:02 METAR KSAT 222051Z 10004KT 10SM BKN060 BKN250 34/19 A2995 RMK AO2 SLP123 T03390189 58023","FM-15","7",,,,,,,,,,,,,,,,,,,,,,,,,,,,"2008-10-22"
"72253012921","2019-09-22T15:00:00","FM-12","4",,,,,,,,,,,,,,,,,,,,,,,,,,,,,,,,,,,,,,,"66","93",,,"+0.07","8","41","29.89","57","29.10","9.94","75","100",,"5",,,,,,,,,,,,,,,,,,,,,,,,,,,,,,,,,,,,,"SYN06472253 32766 61004 10339 20189 39853 40123 58023 92051 555 92221=","FM-12","4",,,,,,,,,,,,,,,,,,,,,,,,,,,,"2008-10-22"
"72253012921","2019-09-22T15:51:00","FM-15","6",,,,,,,,,,,,,,,,,,,,,,,,,,,,,,,,,,,,,,"29.93","66","93",,,,,"41","29.88","SCT:04 65 SCT:04 250","29.06","10.00","75","110",,"6",,,,,,,,,,,,,,,,,,,,,,,,,,,,,,,,,,,,,"MET10009/22/19 15:51:02 METAR KSAT 222151Z 11005KT 10SM SCT065 SCT250 34/19 A2993 RMK AO2 SLP117 T03390189","FM-15","6",,,,,,,,,,,,,,,,,,,,,,,,,,,,"2008-10-22"
"72253012921","2019-09-22T16:51:00","FM-15","6",,,,,,,,,,,,,,,,,,,,,,,,,,,,,,,,,,,,,,"29.93","63","94",,,,,"36","29.87","SCT:04 65 SCT:04 250","29.06","10.00","73","150",,"5",,,,,,,,,,,,,,,,,,,,,,,,,,,,,,,,,,,,,"MET10009/22/19 16:51:02 METAR KSAT 222251Z 15004KT 10SM SCT065 SCT250 34/17 A2993 RMK AO2 SLP115 T03440172","FM-15","6",,,,,,,,,,,,,,,,,,,,,,,,,,,,"2008-10-22"
"72253012921","2019-09-22T17:51:00","FM-15","6",,,,,,,,,,,,,,,,,,,,,,,,,,,,,,,,,,,,,,"29.92","63","92",,,"+0.03","6","38","29.87","SCT:04 65 SCT:04 250","29.05","10.00","73","130",,"6",,,,,,,,,,,,,,,,,,,,,,,,,,,,,,,,,,,,,"MET11809/22/19 17:51:02 METAR KSAT 222351Z 13005KT 10SM SCT065 SCT250 33/17 A2992 RMK AO2 SLP114 T03330172 10350 20311 56009","FM-15","6",,,,,,,,,,,,,,,,,,,,,,,,,,,,"2008-10-22"
"72253012921","2019-09-22T18:51:00","FM-15","6",,,,,,,,,,,,,,,,,,,,,,,,,,,,,,,,,,,,,,"29.94","68","88",,,,,"52","29.89","SCT:04 85 BKN:07 250","29.07","10.00","74","120",,"13",,,,,,,,,,,,,,,,,,,,,,,,,,,,,,,,,,,,,"MET10009/22/19 18:51:01 METAR KSAT 230051Z 12011KT 10SM SCT085 BKN250 31/20 A2994 RMK AO2 SLP121 T03110200","FM-15","6",,,,,,,,,,,,,,,,,,,,,,,,,,,,"2008-10-22"
"72253012921","2019-09-22T19:51:00","FM-15","6",,,,,,,,,,,,,,,,,,,,,,,,,,,,,,,,,,,,,,"29.97","70","87",,,,,"57","29.91","FEW:02 80 FEW:02 250","29.10","10.00","75","140",,"15",,,,,,,,,,,,,,,,,,,,,,,,,,,,,,,,,,,,,"MET10009/22/19 19:51:01 METAR KSAT 230151Z 14013KT 10SM FEW080 FEW250 31/21 A2997 RMK AO2 SLP129 T03060211","FM-15","6",,,,,,,,,,,,,,,,,,,,,,,,,,,,"2008-10-22"
"72253012921","2019-09-22T20:51:00","FM-15","6",,,,,,,,,,,,,,,,,,,,,,,,,,,,,,,,,,,,,,"29.99","70","84",,,"-0.07","3","63","29.94","FEW:02 80 FEW:02 250","29.12","10.00","74","130",,"15",,,,,,,,,,,,,,,,,,,,,,,,,,,,,,,,,,,,,"MET10609/22/19 20:51:01 METAR KSAT 230251Z 13013KT 10SM FEW080 FEW250 29/21 A2999 RMK AO2 SLP138 T02890211 53023","FM-15","6",,,,,,,,,,,,,,,,,,,,,,,,,,,,"2008-10-22"
"72253012921","2019-09-22T23:59:00","SOD  ","O",,,,,,,,,,,,,,,,,,,,,,,,,,,,,,,,,,"RA",,,,,,,,,,,,,,,,,,,,,,,,,,,,,,,,,,,,,,,,,,,,,,,,,,,,,,,,,"SOD  ","O",,,,,,,,,,,,,,,,,,,,,,,,,"0622","1831",,"2008-10-22"
